{
"type": "FeatureCollection",
"name": "assets",
"crs": { "type": "name", "properties": { "name": "urn:ogc:def:crs:OGC:1.3:CRS84" } },
"features": [
{ "type": "Feature", "properties": { "asset_id": "HYD-001", "name": "Financial District, Nanakramguda", "lat": 17.418, "lon": 78.34, "use": "Grade A office cluster", "note": "Expect high built-up change and active construction", "h3_cells": "8960a24a543ffff,8960a24a547ffff,8960a24a553ffff,8960a24a557ffff", "n_cells": 4 }, "geometry": { "type": "Polygon", "coordinates": [ [ [ 78.338870222134219, 17.416922026590012 ], [ 78.341129777865788, 17.416922026590012 ], [ 78.341129777865788, 17.419077973409987 ], [ 78.338870222134219, 17.419077973409987 ], [ 78.338870222134219, 17.416922026590012 ] ] ] } },
{ "type": "Feature", "properties": { "asset_id": "HYD-002", "name": "Khajaguda lake edge", "lat": 17.425, "lon": 78.355, "use": "Office and mixed-use near notified lake", "note": "Expect flood-extent overlap, FTL buffer", "h3_cells": "8960a24a40fffff,8960a24a473ffff,8960a24a477ffff", "n_cells": 3 }, "geometry": { "type": "Polygon", "coordinates": [ [ [ 78.353870178821026, 17.423922026590013 ], [ 78.356129821178982, 17.423922026590013 ], [ 78.356129821178982, 17.426077973409988 ], [ 78.353870178821026, 17.426077973409988 ], [ 78.353870178821026, 17.423922026590013 ] ] ] } },
{ "type": "Feature", "properties": { "asset_id": "HYD-003", "name": "HITEC City, Madhapur", "lat": 17.447, "lon": 78.378, "use": "Mature office district", "note": "Expect low change, low risk; the control asset", "h3_cells": "8960a259b33ffff,8960a259babffff,8960a259bafffff", "n_cells": 3 }, "geometry": { "type": "Polygon", "coordinates": [ [ [ 78.376870042562388, 17.445922026590011 ], [ 78.379129957437613, 17.445922026590011 ], [ 78.379129957437613, 17.448077973409987 ], [ 78.376870042562388, 17.448077973409987 ], [ 78.376870042562388, 17.445922026590011 ] ] ] } },
{ "type": "Feature", "properties": { "asset_id": "HYD-004", "name": "Kondapur, Botanical Garden road", "lat": 17.463, "lon": 78.36, "use": "Mixed-use, residential-led", "note": "Expect land-use change vs zoning, dense construction", "h3_cells": "8960a24b523ffff,8960a24b533ffff,8960a24b537ffff", "n_cells": 3 }, "geometry": { "type": "Polygon", "coordinates": [ [ [ 78.358869943339897, 17.461922026590013 ], [ 78.361130056660102, 17.461922026590013 ], [ 78.361130056660102, 17.464077973409989 ], [ 78.358869943339897, 17.464077973409989 ], [ 78.358869943339897, 17.461922026590013 ] ] ] } }
]
}
