{
"type": "FeatureCollection",
"name": "buffers",
"crs": { "type": "name", "properties": { "name": "urn:ogc:def:crs:OGC:1.3:CRS84" } },
"features": [
{ "type": "Feature", "properties": { "asset_id": "HYD-001", "radius_m": 1000 }, "geometry": { "type": "Polygon", "coordinates": [ [ [ 78.349405637956792, 17.418125352646616 ], [ 78.349373122940591, 17.417239709276661 ], [ 78.349250339816095, 17.416361390090124 ], [ 78.349038472361713, 17.415498853789337 ], [ 78.348739562228857, 17.414660406953416 ], [ 78.348356489231691, 17.413854124045866 ], [ 78.347892943568908, 17.413087769662265 ], [ 78.34735339024688, 17.412368723766402 ], [ 78.346743026048145, 17.411703910634394 ], [ 78.346067729461055, 17.411099732190429 ], [ 78.345334004053313, 17.410562006375411 ], [ 78.344548915835574, 17.410095911141084 ], [ 78.343720025218346, 17.409705934608169 ], [ 78.342855314217104, 17.409395831867538 ], [ 78.341963109606311, 17.409168588839496 ], [ 78.341052002761245, 17.409026393538447 ], [ 78.340130766958353, 17.408970615018742 ], [ 78.339208272929199, 17.409001790203924 ], [ 78.338293403479284, 17.409119618725651 ], [ 78.337394967992338, 17.409322965821517 ], [ 78.336521617641367, 17.40960987326385 ], [ 78.33568176212124, 17.409977578214054 ], [ 78.334883488702729, 17.410422539821187 ], [ 78.334134484385984, 17.410940473308909 ], [ 78.333441961901627, 17.411526391223084 ], [ 78.332812590270862, 17.412174651443397 ], [ 78.332252430592675, 17.412879011497449 ], [ 78.331766877675733, 17.413632688655042 ], [ 78.331360608077105, 17.414428425224937 ], [ 78.33103753504858, 17.415258558426103 ], [ 78.330800770824737, 17.41611509416153 ], [ 78.330652596617341, 17.416989783985009 ], [ 78.330594440605907, 17.417874204520434 ], [ 78.330626864138267, 17.418759838569457 ], [ 78.330749556275464, 17.419638157126951 ], [ 78.330961336735683, 17.420500701514751 ], [ 78.331260167210672, 17.421339164842966 ], [ 78.331643170947444, 17.422145472014293 ], [ 78.332106660408968, 17.422911857500711 ], [ 78.332646172748653, 17.423630940143173 ], [ 78.333256512758851, 17.424295794253418 ], [ 78.333931802880812, 17.424900016332472 ], [ 78.334665539795267, 17.425437786762568 ], [ 78.33545065704935, 17.425903925877424 ], [ 78.336279593116743, 17.426293943870029 ], [ 78.3371443642353, 17.426604084056219 ], [ 78.338036641320286, 17.42683135907669 ], [ 78.338947830211325, 17.42697357968758 ], [ 78.339869154478947, 17.427029375861895 ], [ 78.340791739991957, 17.426998209997642 ], [ 78.341706700429171, 17.426880382104962 ], [ 78.342605222910279, 17.426677026922075 ], [ 78.343478652919117, 17.426390102987458 ], [ 78.344318577699639, 17.426022373773467 ], [ 78.345116907319422, 17.425577381063519 ], [ 78.345865952618496, 17.425059410829192 ], [ 78.34655849929139, 17.424473451936787 ], [ 78.347187877387256, 17.423825148081377 ], [ 78.34774802555873, 17.423120743412252 ], [ 78.348233549439328, 17.422367022374125 ], [ 78.348639773587806, 17.421571244344548 ], [ 78.348962786499015, 17.420741073697823 ], [ 78.349199478248664, 17.419884505969975 ], [ 78.349347570410089, 17.419009790836654 ], [ 78.349405637956792, 17.418125352646616 ] ] ] } },
{ "type": "Feature", "properties": { "asset_id": "HYD-001", "radius_m": 2000 }, "geometry": { "type": "Polygon", "coordinates": [ [ [ 78.358811354199474, 17.418250262443994 ], [ 78.358746232689924, 17.416478966454562 ], [ 78.358500575483632, 17.414722327519932 ], [ 78.358076753631366, 17.412997263064533 ], [ 78.357478853774751, 17.411320385932076 ], [ 78.356712638597543, 17.40970784441307 ], [ 78.355785491152105, 17.408175166764739 ], [ 78.354706343603922, 17.40673711171922 ], [ 78.353485591086312, 17.405407526417786 ], [ 78.352134991499611, 17.404199213136476 ], [ 78.350667552223143, 17.403123806083649 ], [ 78.349097404833287, 17.402191659452399 ], [ 78.34743966903433, 17.401411747802349 ], [ 78.345710307111929, 17.40079157972637 ], [ 78.343925970307907, 17.400337125630088 ], [ 78.34210383859255, 17.400052760316036 ], [ 78.340261455371945, 17.399941220922422 ], [ 78.338416558716389, 17.400003580618765 ], [ 78.336586910728201, 17.400239238309702 ], [ 78.334790126684737, 17.400645924444543 ], [ 78.333043505594389, 17.401219722875823 ], [ 78.331363863789676, 17.401955108556376 ], [ 78.329767373152649, 17.402845000712428 ], [ 78.328269405523898, 17.403880830982068 ], [ 78.326884384787832, 17.405052625864858 ], [ 78.325625648053546, 17.406349102691241 ], [ 78.32450531726515, 17.407757778190476 ], [ 78.323534182475768, 17.409265088615108 ], [ 78.322721597908441, 17.410856520268634 ], [ 78.322075391806436, 17.412516749183315 ], [ 78.321601790943006, 17.414229788606477 ], [ 78.321305360521748, 17.415979142878566 ], [ 78.321188960051316, 17.417747966224251 ], [ 78.321253715625474, 17.419519224929978 ], [ 78.321499008882597, 17.421275861348423 ], [ 78.321922482758268, 17.423000958151864 ], [ 78.322520063983404, 17.424677901253464 ], [ 78.323286002119062, 17.426290539827566 ], [ 78.324212924759436, 17.427823341887176 ], [ 78.325291908378176, 17.429261543919086 ], [ 78.32651256414168, 17.430591293133439 ], [ 78.327863137867851, 17.431799780955114 ], [ 78.329330623171131, 17.432875366468245 ], [ 78.330900886706388, 17.433807688621627 ], [ 78.332558804305918, 17.434587766110422 ], [ 78.334288406697581, 17.435208083968639 ], [ 78.336073033398449, 17.435662666034631 ], [ 78.33789549329768, 17.435947132588051 ], [ 78.33973823037725, 17.436058742600128 ], [ 78.341583492968255, 17.435996420187497 ], [ 78.343413504905669, 17.435760765012734 ], [ 78.345210636925771, 17.435354046529834 ], [ 78.346957576647625, 17.434780182129391 ], [ 78.348637495493904, 17.434044699393713 ], [ 78.350234210935966, 17.433154682826359 ], [ 78.351732342494088, 17.432118705570307 ], [ 78.353117459984205, 17.43094674677458 ], [ 78.354376222578964, 17.429650095407837 ], [ 78.355496507340476, 17.428241241448294 ], [ 78.356467525984414, 17.426733755501555 ], [ 78.35727992875114, 17.425142158009312 ], [ 78.357925894383882, 17.423481779312414 ], [ 78.358399205350494, 17.421768611919564 ], [ 78.358695307587922, 17.42001915640812 ], [ 78.358811354199474, 17.418250262443994 ] ] ] } },
{ "type": "Feature", "properties": { "asset_id": "HYD-002", "radius_m": 1000 }, "geometry": { "type": "Polygon", "coordinates": [ [ [ 78.364406110861466, 17.425124693450936 ], [ 78.364373526749077, 17.424239043118927 ], [ 78.364250670646243, 17.423360723385755 ], [ 78.364038727034497, 17.422498192957892 ], [ 78.36373973829869, 17.421659758356782 ], [ 78.363356585009711, 17.420853493927066 ], [ 78.362892958139028, 17.420087164085444 ], [ 78.362353323474281, 17.419368148558565 ], [ 78.361742878580472, 17.418703371329464 ], [ 78.361067502721909, 17.418099233976161 ], [ 78.360333700228438, 17.417561554043633 ], [ 78.359548537851779, 17.417095509041769 ], [ 78.358719576715188, 17.416705586607783 ], [ 78.357854799511955, 17.416395541311982 ], [ 78.356962533652805, 17.416168358522114 ], [ 78.356051371101699, 17.416026225673253 ], [ 78.355130085670567, 17.415970511219271 ], [ 78.354207548568141, 17.416001751467771 ], [ 78.353292643014214, 17.416119645424939 ], [ 78.352394178739914, 17.416323057699309 ], [ 78.351520807195442, 17.416610029436619 ], [ 78.350680938280078, 17.416977797180113 ], [ 78.349882659394069, 17.417422819475039 ], [ 78.349133657590997, 17.417940810961397 ], [ 78.348441145578235, 17.418526783627083 ], [ 78.347811792277298, 17.419175094824929 ], [ 78.347251658611924, 17.419879501591772 ], [ 78.346766139141579, 17.420633220747536 ], [ 78.346359910102663, 17.421428994196258 ], [ 78.346036884357687, 17.4222591588013 ], [ 78.345800173687167, 17.423115720162563 ], [ 78.345652058788275, 17.423990429586233 ], [ 78.345593967270375, 17.424874863506478 ], [ 78.34562645986091, 17.425760504595008 ], [ 78.345749224956464, 17.426638823777772 ], [ 78.345961081572895, 17.427501362369462 ], [ 78.346259990668457, 17.42833981353489 ], [ 78.346643074732839, 17.429146102292862 ], [ 78.347106645454843, 17.429912463291753 ], [ 78.347646239204565, 17.430631515607558 ], [ 78.34825665998936, 17.431296333843473 ], [ 78.348932029471413, 17.431900514845598 ], [ 78.349665843565901, 17.432438239391566 ], [ 78.350451035075352, 17.432904328257006 ], [ 78.35128004175688, 17.433294292119065 ], [ 78.352144879166957, 17.433604374815367 ], [ 78.353037217581146, 17.433831589540894 ], [ 78.353948462247232, 17.433973747633296 ], [ 78.354869836197651, 17.434029479668609 ], [ 78.355792464821917, 17.433998248663581 ], [ 78.35670746138311, 17.433880355256822 ], [ 78.357606012652781, 17.433676934818624 ], [ 78.358479463837469, 17.433389946517 ], [ 78.35931940197743, 17.433022154445244 ], [ 78.360117737012132, 17.432577100993051 ], [ 78.360866779730216, 17.432059072717767 ], [ 78.361559315851991, 17.431473059045267 ], [ 78.362188675529438, 17.430824704198599 ], [ 78.362748797593767, 17.430120252818316 ], [ 78.363234287931334, 17.429366489798976 ], [ 78.363640471425299, 17.428570674922184 ], [ 78.363963436963445, 17.427740472916639 ], [ 78.364200075078926, 17.426883879619723 ], [ 78.364348107862838, 17.426009144952513 ], [ 78.364406110861466, 17.425124693450936 ] ] ] } },
{ "type": "Feature", "properties": { "asset_id": "HYD-002", "radius_m": 2000 }, "geometry": { "type": "Polygon", "coordinates": [ [ [ 78.373812299577864, 17.425248943843087 ], [ 78.37374703983798, 17.423477634007007 ], [ 78.373501236655059, 17.421720994057754 ], [ 78.373077262486888, 17.419995941425007 ], [ 78.372479205442048, 17.418319088834185 ], [ 78.371712829717069, 17.416706584335316 ], [ 78.370785519908395, 17.41517395582537 ], [ 78.369706209742148, 17.413735961560128 ], [ 78.368485295913899, 17.412406448093073 ], [ 78.367134537872857, 17.411198217006799 ], [ 78.365666944519262, 17.410122901717301 ], [ 78.364096648907903, 17.409190855534021 ], [ 78.362438772165007, 17.408411052050198 ], [ 78.360709277928123, 17.407790998818832 ], [ 78.358924818708161, 17.407336665142125 ], [ 78.357102575649719, 17.407052424666162 ], [ 78.355260093227173, 17.406941013330716 ], [ 78.353415110463061, 17.40700350307625 ], [ 78.351585390286786, 17.407239291559428 ], [ 78.349788548669807, 17.407646107974482 ], [ 78.348041885174851, 17.408220034923705 ], [ 78.346362216543866, 17.408955546126371 ], [ 78.344765714919291, 17.409845559603578 ], [ 78.343267752250583, 17.410881505828151 ], [ 78.341882752378254, 17.412053410185386 ], [ 78.340624052215006, 17.413349988953083 ], [ 78.339503773357933, 17.41475875787954 ], [ 78.338532705365367, 17.416266152317426 ], [ 78.337720201822691, 17.417857657760202 ], [ 78.337074090198257, 17.41951794952768 ], [ 78.336600596360654, 17.421231040259258 ], [ 78.336304284487369, 17.422980433798017 ], [ 78.336188012949393, 17.424749283986621 ], [ 78.336252906601928, 17.426520556848796 ], [ 78.336498345755771, 17.428277194596426 ], [ 78.336921971942587, 17.430002279884455 ], [ 78.33751971042652, 17.431679198732532 ], [ 78.338285809253136, 17.433291800544406 ], [ 78.339212894467039, 17.434824553683409 ], [ 78.340292040973168, 17.436262695104357 ], [ 78.341512858365363, 17.437592372598644 ], [ 78.342863590900336, 17.438800778280203 ], [ 78.344331230658057, 17.439876272023447 ], [ 78.34590164280047, 17.440808493661049 ], [ 78.347559701723114, 17.441588462857162 ], [ 78.349289436787387, 17.442208665690554 ], [ 78.351074186227507, 17.442663127109899 ], [ 78.352896757745881, 17.442947468560028 ], [ 78.354739594245601, 17.443058950220799 ], [ 78.356584943097118, 17.442996497449169 ], [ 78.358415027302527, 17.442760711167598 ], [ 78.360212216900919, 17.442353862097242 ], [ 78.361959198956797, 17.441779868890745 ], [ 78.363639144486143, 17.441044260375048 ], [ 78.365235870705462, 17.440154122268762 ], [ 78.366733997034203, 17.439118028888469 ], [ 78.368119093342571, 17.437945960503978 ], [ 78.369377819011802, 17.436649207140992 ], [ 78.370498051464693, 17.4352402597608 ], [ 78.371469002926148, 17.433732689868609 ], [ 78.372281324289077, 17.432141018713562 ], [ 78.372927195086106, 17.430480577344092 ], [ 78.373400398703595, 17.428767358869901 ], [ 78.373696382116989, 17.427017864357001 ], [ 78.373812299577864, 17.425248943843087 ] ] ] } },
{ "type": "Feature", "properties": { "asset_id": "HYD-003", "radius_m": 1000 }, "geometry": { "type": "Polygon", "coordinates": [ [ [ 78.387407412706324, 17.447123758878117 ], [ 78.387374728413263, 17.446238098622146 ], [ 78.387251760568176, 17.445359778062343 ], [ 78.387039694730063, 17.444497255911294 ], [ 78.386740574461868, 17.443658838608837 ], [ 78.386357281601576, 17.442852600331189 ], [ 78.385893508464619, 17.442086305241435 ], [ 78.385353722246691, 17.441367332729978 ], [ 78.384743121971098, 17.440702606364255 ], [ 78.384067588396988, 17.440098527231399 ], [ 78.383333627371087, 17.439560912314956 ], [ 78.382548307169529, 17.439094938498332 ], [ 78.381719190432989, 17.438705092733152 ], [ 78.380854261350578, 17.438395128851745 ], [ 78.379961848793002, 17.438168031438504 ], [ 78.37905054613438, 17.438025987107345 ], [ 78.378129128533558, 17.437970363460963 ], [ 78.377206468469936, 17.438001695934027 ], [ 78.376291450345647, 17.438119682646274 ], [ 78.375392884974545, 17.438323187314815 ], [ 78.374519424779592, 17.438610250197463 ], [ 78.373679480513374, 17.438978106961532 ], [ 78.372881140301971, 17.439423215296699 ], [ 78.372132091790206, 17.439941289015909 ], [ 78.371439548136436, 17.440527339316461 ], [ 78.370810178568533, 17.441175722804555 ], [ 78.37025004416887, 17.441880195821568 ], [ 78.36976453950632, 17.442633974549761 ], [ 78.369358340677195, 17.443429800319464 ], [ 78.369035360255765, 17.444260009489803 ], [ 78.368798709588759, 17.445116607230752 ], [ 78.368650668798111, 17.445991344497106 ], [ 78.368592664781886, 17.446875797453579 ], [ 78.368625257427084, 17.447761448586959 ], [ 78.368748134168442, 17.448639768724732 ], [ 78.368960112948017, 17.44950229917054 ], [ 78.369259153548526, 17.45034073316576 ], [ 78.369642377193529, 17.451146995892703 ], [ 78.370106094227495, 17.4519133222487 ], [ 78.370645839610773, 17.452632331641809 ], [ 78.371256415889263, 17.453297099087251 ], [ 78.371931943226073, 17.453901221919217 ], [ 78.372665916014114, 17.454438881474832 ], [ 78.373451265525262, 17.454904899155245 ], [ 78.374280427992502, 17.455294786323144 ], [ 78.375145417469298, 17.455604787555135 ], [ 78.37603790276404, 17.455831916831453 ], [ 78.376949287707333, 17.455973986313722 ], [ 78.377870793978218, 17.456029627432674 ], [ 78.378793545689746, 17.455998304082197 ], [ 78.379708654917778, 17.45588031779198 ], [ 78.380607307347404, 17.455676804828677 ], [ 78.381480847210028, 17.455389725253255 ], [ 78.38232086069155, 17.455021844039891 ], [ 78.38311925700593, 17.45457670443848 ], [ 78.383868346352344, 17.454058593837612 ], [ 78.384560914003202, 17.453472502457345 ], [ 78.385190289808421, 17.452824075270136 ], [ 78.385750412445944, 17.452119557613955 ], [ 78.386235887798904, 17.451365735021987 ], [ 78.386642040897314, 17.450569867849556 ], [ 78.386964960924345, 17.449739621328643 ], [ 78.387201538854185, 17.448882991724613 ], [ 78.387349497360162, 17.44800822930716 ], [ 78.387407412706324, 17.447123758878117 ] ] ] } },
{ "type": "Feature", "properties": { "asset_id": "HYD-003", "radius_m": 2000 }, "geometry": { "type": "Polygon", "coordinates": [ [ [ 78.396814902623817, 17.447247074071861 ], [ 78.396749442396597, 17.445475744508755 ], [ 78.39650341563275, 17.443719103034635 ], [ 78.396079196948776, 17.441994067086451 ], [ 78.395480876811732, 17.440317249221412 ], [ 78.39471422195345, 17.438704797147697 ], [ 78.393786619658044, 17.43717223825044 ], [ 78.392707006465798, 17.435734330108744 ], [ 78.391485781985935, 17.434404918441331 ], [ 78.39013470865298, 17.433196803846215 ], [ 78.388666798395604, 17.432121618614605 ], [ 78.387096187311258, 17.431189714801967 ], [ 78.385437999554171, 17.430410064630394 ], [ 78.383708201746401, 17.429790174177889 ], [ 78.381923449311685, 17.42933601118186 ], [ 78.380100926207874, 17.429051947648844 ], [ 78.378258179596628, 17.428940717819859 ], [ 78.376412951036073, 17.429003391893644 ], [ 78.374583005815524, 17.42923936575863 ], [ 78.372785962068122, 17.429646366831118 ], [ 78.371039121299674, 17.43022047594258 ], [ 78.369359301957715, 17.430956165065375 ], [ 78.367762677636662, 17.431846350514093 ], [ 78.366264621470279, 17.43288246111166 ], [ 78.36487955820408, 17.434054520665711 ], [ 78.363620825367775, 17.435351243963609 ], [ 78.362500544881058, 17.436760145364637 ], [ 78.361529506327315, 17.438267658947172 ], [ 78.360717063018498, 17.43985926905723 ], [ 78.360071041853672, 17.441519650005173 ], [ 78.359597667840958, 17.443232813568674 ], [ 78.359301504014439, 17.444982262885226 ], [ 78.359185407329036, 17.446751151254997 ], [ 78.359250500964748, 17.448522444327747 ], [ 78.359496163313693, 17.450279084113756 ], [ 78.359920033763601, 17.452004153240949 ], [ 78.360518035229859, 17.453681037877068 ], [ 78.361284413226983, 17.455293587747938 ], [ 78.362211791110468, 17.456826271710156 ], [ 78.36329124096406, 17.458264327378444 ], [ 78.364512369455554, 17.45959390336472 ], [ 78.365863417839208, 17.460802192756283 ], [ 78.367331375145127, 17.461877556544586 ], [ 78.368902103467846, 17.462809635812341 ], [ 78.370560474147695, 17.463589451594807 ], [ 78.372290513533031, 17.464209491449655 ], [ 78.374075556916409, 17.464663781898011 ], [ 78.375898409158978, 17.464947946035434 ], [ 78.377741510450491, 17.465059245754713 ], [ 78.37958710560261, 17.464996608171287 ], [ 78.381417415238147, 17.464760635994391 ], [ 78.383214807219645, 17.464353601742886 ], [ 78.384961966658921, 17.463779425860331 ], [ 78.386642062862038, 17.463043638940345 ], [ 78.388238911594968, 17.462153328426641 ], [ 78.389737131099963, 17.461117070302461 ], [ 78.391122290354474, 17.45994484642954 ], [ 78.392381048140024, 17.458647948335198 ], [ 78.393501281578111, 17.457238868377477 ], [ 78.394472202893454, 17.455731179339846 ], [ 78.395284463279467, 17.45413940361891 ], [ 78.395930242866726, 17.45247887326866 ], [ 78.396403325930805, 17.450765582252849 ], [ 78.39669916061861, 17.449016032331915 ], [ 78.396814902623817, 17.447247074071861 ] ] ] } },
{ "type": "Feature", "properties": { "asset_id": "HYD-004", "radius_m": 1000 }, "geometry": { "type": "Polygon", "coordinates": [ [ [ 78.369408097459811, 17.463124719922128 ], [ 78.369375509114448, 17.462239069260864 ], [ 78.369252629691943, 17.461360748951019 ], [ 78.369040643901485, 17.460498217703886 ], [ 78.368741594536928, 17.45965978204784 ], [ 78.368358362755501, 17.458853516336514 ], [ 78.367894640286437, 17.45808718499762 ], [ 78.367354893839433, 17.457368167770817 ], [ 78.366744322056704, 17.456703388654024 ], [ 78.366068805424661, 17.456099249241994 ], [ 78.365334849628312, 17.455561567098115 ], [ 78.364549522894535, 17.455095519752302 ], [ 78.363720387927685, 17.454705594863224 ], [ 78.362855429092818, 17.454395547023928 ], [ 78.361962975547158, 17.454168361626003 ], [ 78.361051621059147, 17.454026226129251 ], [ 78.360130141285936, 17.453970509012933 ], [ 78.359207409304588, 17.454001746610494 ], [ 78.358292310208341, 17.454119637954097 ], [ 78.357393655589163, 17.454323047678194 ], [ 78.356520098727643, 17.454610016954049 ], [ 78.355680051305271, 17.454977782349772 ], [ 78.354881602439576, 17.455422802434544 ], [ 78.354132440819768, 17.455940791871072 ], [ 78.353439780691602, 17.456526762668474 ], [ 78.352810292402964, 17.457175072199021 ], [ 78.352250038178155, 17.457879477517029 ], [ 78.351764413738934, 17.458633195457633 ], [ 78.351358096334351, 17.459428967937708 ], [ 78.351034999680238, 17.460259131830828 ], [ 78.35079823624271, 17.461115692744425 ], [ 78.350650087230164, 17.461990401989375 ], [ 78.350591980583715, 17.462874836001685 ], [ 78.350624477179892, 17.463760477451974 ], [ 78.350747265379908, 17.464638797262253 ], [ 78.350959163980207, 17.465501336740431 ], [ 78.351258133537598, 17.466339789041822 ], [ 78.351641295961826, 17.467146079173112 ], [ 78.352104962188974, 17.467912441768146 ], [ 78.352644667670717, 17.468631495886118 ], [ 78.353255215339075, 17.469296316111389 ], [ 78.353930725634399, 17.469900499269446 ], [ 78.354664693115154, 17.470438226115753 ], [ 78.355450049105443, 17.470904317402503 ], [ 78.356279229776618, 17.47129428378242 ], [ 78.35714424900722, 17.471604369067968 ], [ 78.358036775319036, 17.471831586428529 ], [ 78.358948212147297, 17.471973747175994 ], [ 78.359869780670522, 17.47202948186073 ], [ 78.36079260440107, 17.471998253474148 ], [ 78.361707794719806, 17.47188036263011 ], [ 78.362606536529142, 17.471676944674968 ], [ 78.363480173197829, 17.471389958753768 ], [ 78.364320289977414, 17.471022168938081 ], [ 78.365118795085024, 17.470577117597159 ], [ 78.365867997670108, 17.470059091269466 ], [ 78.366560681912631, 17.469473079363581 ], [ 78.367190176537974, 17.468824726087007 ], [ 78.367750419078362, 17.468120276066575 ], [ 78.368236014261072, 17.467366514185027 ], [ 78.368642285961329, 17.46657070021412 ], [ 78.368965322219722, 17.465740498874748 ], [ 78.36920201289108, 17.464883905998512 ], [ 78.369350079563389, 17.464009171502852 ], [ 78.369408097459811, 17.463124719922128 ] ] ] } },
{ "type": "Feature", "properties": { "asset_id": "HYD-004", "radius_m": 2000 }, "geometry": { "type": "Polygon", "coordinates": [ [ [ 78.378816272686009, 17.463248995751876 ], [ 78.378751004252862, 17.461477685289804 ], [ 78.378505154215404, 17.459721044238073 ], [ 78.378081095495048, 17.457995990034043 ], [ 78.377482917025873, 17.456319135414393 ], [ 78.376716384183382, 17.454706628444029 ], [ 78.375788883084837, 17.453173997038427 ], [ 78.374709349303885, 17.451735999475567 ], [ 78.373488181692522, 17.450406482334806 ], [ 78.372137142144339, 17.449198247228257 ], [ 78.370669242268377, 17.448122927605034 ], [ 78.369098618066573, 17.447190876811206 ], [ 78.36744039382252, 17.446411068479936 ], [ 78.365710536511216, 17.445791010207323 ], [ 78.363925702129322, 17.445336671341465 ], [ 78.362103075422269, 17.445052425576872 ], [ 78.360260204546222, 17.444941008903836 ], [ 78.358414832251484, 17.445003493314989 ], [ 78.356584725205735, 17.445239276520219 ], [ 78.354787503093789, 17.445646087767514 ], [ 78.353040469131585, 17.446220009712807 ], [ 78.351360443619214, 17.446955516128241 ], [ 78.349763602128476, 17.447845525086287 ], [ 78.348265319876575, 17.448881467108986 ], [ 78.346880023778809, 17.450053367627987 ], [ 78.345621053600468, 17.451349942963912 ], [ 78.344500533541236, 17.452758708903694 ], [ 78.34352925548724, 17.454266100833905 ], [ 78.342716575053899, 17.455857604276609 ], [ 78.342070321422383, 17.45751789457448 ], [ 78.341596721839664, 17.459230984383719 ], [ 78.341300341513872, 17.460980377557849 ], [ 78.341184039488112, 17.462749227943455 ], [ 78.34124894092453, 17.464520501561626 ], [ 78.34149442607206, 17.466277140615091 ], [ 78.341918136031808, 17.468002227743295 ], [ 78.34251599527235, 17.469679148944291 ], [ 78.343282250685945, 17.471291753594507 ], [ 78.34420952681684, 17.472824510024669 ], [ 78.34528889673669, 17.474262655152177 ], [ 78.346509967890626, 17.475592336726866 ], [ 78.347860982091845, 17.476800746817492 ], [ 78.349328928705432, 17.477876245250428 ], [ 78.350899669933298, 17.478808471808041 ], [ 78.352558076994626, 17.479588446102646 ], [ 78.354288175888868, 17.48020865416029 ], [ 78.356073301335428, 17.480663120876699 ], [ 78.357896257403453, 17.480947467644143 ], [ 78.359739483279625, 17.481058954590843 ], [ 78.361585222571165, 17.480996507023605 ], [ 78.363415694506884, 17.480760725816626 ], [ 78.365213265379509, 17.480353881645151 ], [ 78.36696061857036, 17.479779893118476 ], [ 78.368640921511584, 17.479044289023172 ], [ 78.370237987969986, 17.478154155040542 ], [ 78.371736434082948, 17.477118065453165 ], [ 78.373121826638084, 17.47594600050023 ], [ 78.374380822163303, 17.474649250180217 ], [ 78.375501295484852, 17.473240305430732 ], [ 78.376472456512758, 17.471732737736755 ], [ 78.377284954128768, 17.470141068330737 ], [ 78.377930966177374, 17.468480628247871 ], [ 78.378404274695427, 17.466767410588101 ], [ 78.378700325660304, 17.465017916411139 ], [ 78.378816272686009, 17.463248995751876 ] ] ] } }
]
}
