{
"type": "FeatureCollection",
"name": "HYD-001_cells",
"crs": { "type": "name", "properties": { "name": "urn:ogc:def:crs:OGC:1.3:CRS84" } },
"features": [
{ "type": "Feature", "properties": { "h3": "8960a241253ffff", "built_t1": 0.45038167938931295, "built_t0": 0.54580152671755722, "flood_2020": 0, "low_lying": 1, "construction": 0 }, "geometry": { "type": "Polygon", "coordinates": [ [ [ 78.323010263528644, 17.410304966731506 ], [ 78.322429711038197, 17.412060365312534 ], [ 78.320590248287317, 17.412381459330977 ], [ 78.319331370045887, 17.410947182945328 ], [ 78.319911919362724, 17.409191810364202 ], [ 78.321751350095496, 17.408870688168697 ], [ 78.323010263528644, 17.410304966731506 ] ] ] } },
{ "type": "Feature", "properties": { "h3": "8960a24125bffff", "built_t1": 0.52416356877323422, "built_t0": 0.27509293680297398, "flood_2020": 0, "low_lying": 0, "construction": 0 }, "geometry": { "type": "Polygon", "coordinates": [ [ [ 78.323688650112345, 17.413494646420041 ], [ 78.323108091244933, 17.415250019365871 ], [ 78.321268596475406, 17.415571085208072 ], [ 78.320009692592819, 17.414136806280545 ], [ 78.320590248287317, 17.412381459330977 ], [ 78.322429711038197, 17.412060365312534 ], [ 78.323688650112345, 17.413494646420041 ] ] ] } },
{ "type": "Feature", "properties": { "h3": "8960a2412cbffff", "built_t1": 0.37686567164179102, "built_t0": 0.56343283582089554, "flood_2020": 0, "low_lying": 1, "construction": 0 }, "geometry": { "type": "Polygon", "coordinates": [ [ [ 78.325430307548331, 17.408228373055916 ], [ 78.324849758264122, 17.40998382326179 ], [ 78.323010263528644, 17.410304966731506 ], [ 78.321751350095496, 17.408870688168697 ], [ 78.322331896208951, 17.407115263962528 ], [ 78.324171358927202, 17.406794092319334 ], [ 78.325430307548331, 17.408228373055916 ] ] ] } },
{ "type": "Feature", "properties": { "h3": "8960a2412dbffff", "built_t1": 0.41791044776119401, "built_t0": 0.5149253731343284, "flood_2020": 0, "low_lying": 1, "construction": 0 }, "geometry": { "type": "Polygon", "coordinates": [ [ [ 78.327850380338234, 17.406151678314007 ], [ 78.327269834262466, 17.407907180138132 ], [ 78.325430307548331, 17.408228373055916 ], [ 78.324171358927202, 17.406794092319334 ], [ 78.324751901835114, 17.405038616494739 ], [ 78.326591396532891, 17.404717395407054 ], [ 78.327850380338234, 17.406151678314007 ] ] ] } },
{ "type": "Feature", "properties": { "h3": "8960a24164bffff", "built_t1": 0.7992565055762082, "built_t0": 0.63568773234200748, "flood_2020": 0, "low_lying": 0, "construction": 0 }, "geometry": { "type": "Polygon", "coordinates": [ [ [ 78.338209575962409, 17.401033891226774 ], [ 78.33762903636952, 17.402789573861149 ], [ 78.335789349786538, 17.403110936384344 ], [ 78.334530234810828, 17.401676644427752 ], [ 78.335110771248139, 17.39992098778848 ], [ 78.336950425817633, 17.39959959711053 ], [ 78.338209575962409, 17.401033891226774 ] ] ] } },
{ "type": "Feature", "properties": { "h3": "8960a24164fffff", "built_t1": 0.84453781512605042, "built_t0": 0.54621848739495793, "flood_2020": 0, "low_lying": 1, "construction": 0 }, "geometry": { "type": "Polygon", "coordinates": [ [ [ 78.335110771248139, 17.39992098778848 ], [ 78.334530234810828, 17.401676644427752 ], [ 78.332690612196274, 17.401997985670469 ], [ 78.331431558033685, 17.40056369843294 ], [ 78.33201209131181, 17.398808067792615 ], [ 78.333851681912577, 17.398486698390752 ], [ 78.335110771248139, 17.39992098778848 ] ] ] } },
{ "type": "Feature", "properties": { "h3": "8960a24165bffff", "built_t1": 0.40277777777777779, "built_t0": 0.375, "flood_2020": 0, "low_lying": 0, "construction": 0 }, "geometry": { "type": "Polygon", "coordinates": [ [ [ 78.340629830866362, 17.398956745041946 ], [ 78.340049294493525, 17.40071247926798 ], [ 78.338209575962409, 17.401033891226774 ], [ 78.336950425817633, 17.39959959711053 ], [ 78.337530959037764, 17.397843888879422 ], [ 78.339370645556258, 17.397522448769486 ], [ 78.340629830866362, 17.398956745041946 ] ] ] } },
{ "type": "Feature", "properties": { "h3": "8960a24a003ffff", "built_t1": 0.059479553903345722, "built_t0": 0.10408921933085502, "flood_2020": 0, "low_lying": 0, "construction": 0 }, "geometry": { "type": "Polygon", "coordinates": [ [ [ 78.342576194973844, 17.435009150867927 ], [ 78.341995588430208, 17.436764525320875 ], [ 78.34015561362699, 17.437085556865711 ], [ 78.33889627738823, 17.435651242107816 ], [ 78.339476880780694, 17.433895893613936 ], [ 78.341316823563957, 17.433574833918744 ], [ 78.342576194973844, 17.435009150867927 ] ] ] } },
{ "type": "Feature", "properties": { "h3": "8960a24a007ffff", "built_t1": 0.2342007434944238, "built_t0": 0.13382899628252787, "flood_2020": 0, "low_lying": 0, "construction": 1 }, "geometry": { "type": "Polygon", "coordinates": [ [ [ 78.339476880780694, 17.433895893613936 ], [ 78.33889627738823, 17.435651242107816 ], [ 78.337056366557192, 17.43597225232876 ], [ 78.335797091139753, 17.434537942210394 ], [ 78.336377691377422, 17.432782619679404 ], [ 78.338217570188206, 17.432461581303716 ], [ 78.339476880780694, 17.433895893613936 ] ] ] } },
{ "type": "Feature", "properties": { "h3": "8960a24a00fffff", "built_t1": 0.23134328358208955, "built_t0": 0.022388059701492536, "flood_2020": 0, "low_lying": 0, "construction": 0 }, "geometry": { "type": "Polygon", "coordinates": [ [ [ 78.34015561362699, 17.437085556865711 ], [ 78.339575003860702, 17.438840879649732 ], [ 78.337735061008857, 17.439161861716727 ], [ 78.336475759944975, 17.437727549153514 ], [ 78.337056366557192, 17.43597225232876 ], [ 78.33889627738823, 17.435651242107816 ], [ 78.34015561362699, 17.437085556865711 ] ] ] } },
{ "type": "Feature", "properties": { "h3": "8960a24a013ffff", "built_t1": 0.16728624535315986, "built_t0": 0.18215613382899629, "flood_2020": 0, "low_lying": 0, "construction": 0 }, "geometry": { "type": "Polygon", "coordinates": [ [ [ 78.344996805041305, 17.432932643733196 ], [ 78.344416201722495, 17.43468806984847 ], [ 78.342576194973844, 17.435009150867927 ], [ 78.341316823563957, 17.433574833918744 ], [ 78.341897423734466, 17.431819433762346 ], [ 78.343737398464029, 17.431498324596109 ], [ 78.344996805041305, 17.432932643733196 ] ] ] } },
{ "type": "Feature", "properties": { "h3": "8960a24a017ffff", "built_t1": 0.27137546468401486, "built_t0": 0.18215613382899629, "flood_2020": 0, "low_lying": 0, "construction": 1 }, "geometry": { "type": "Polygon", "coordinates": [ [ [ 78.341897423734466, 17.431819433762346 ], [ 78.341316823563957, 17.433574833918744 ], [ 78.339476880780694, 17.433895893613936 ], [ 78.338217570188206, 17.432461581303716 ], [ 78.338798167206804, 17.430706207110017 ], [ 78.340638077970681, 17.430385119263676 ], [ 78.341897423734466, 17.431819433762346 ] ] ] } },
{ "type": "Feature", "properties": { "h3": "8960a24a01bffff", "built_t1": 0.011194029850746268, "built_t0": 0.0, "flood_2020": 0, "low_lying": 0, "construction": 0 }, "geometry": { "type": "Polygon", "coordinates": [ [ [ 78.345675633946286, 17.436122391428061 ], [ 78.345095024255087, 17.43787779183624 ], [ 78.343254985486794, 17.438198844709735 ], [ 78.341995588430208, 17.436764525320875 ], [ 78.342576194973844, 17.435009150867927 ], [ 78.344416201722495, 17.43468806984847 ], [ 78.345675633946286, 17.436122391428061 ] ] ] } },
{ "type": "Feature", "properties": { "h3": "8960a24a023ffff", "built_t1": 0.37453183520599254, "built_t0": 0.19475655430711611, "flood_2020": 0, "low_lying": 0, "construction": 0 }, "geometry": { "type": "Polygon", "coordinates": [ [ [ 78.333957244288001, 17.434858931112192 ], [ 78.33337664083345, 17.436614201973878 ], [ 78.331536825946685, 17.436935141398596 ], [ 78.330277646536771, 17.435500838124174 ], [ 78.330858246830019, 17.433745593229361 ], [ 78.332698029695379, 17.433424625641965 ], [ 78.333957244288001, 17.434858931112192 ] ] ] } },
{ "type": "Feature", "properties": { "h3": "8960a24a027ffff", "built_t1": 0.23791821561338289, "built_t0": 0.033457249070631967, "flood_2020": 0, "low_lying": 0, "construction": 0 }, "geometry": { "type": "Polygon", "coordinates": [ [ [ 78.330858246830019, 17.433745593229361 ], [ 78.330277646536771, 17.435500838124174 ], [ 78.328437895643191, 17.435821756234866 ], [ 78.327178777065484, 17.434387457617692 ], [ 78.327759374193832, 17.432632238693589 ], [ 78.329599093065681, 17.432311292415815 ], [ 78.330858246830019, 17.433745593229361 ] ] ] } },
{ "type": "Feature", "properties": { "h3": "8960a24a033ffff", "built_t1": 0.52592592592592591, "built_t0": 0.22592592592592592, "flood_2020": 0, "low_lying": 0, "construction": 0 }, "geometry": { "type": "Polygon", "coordinates": [ [ [ 78.336377691377422, 17.432782619679404 ], [ 78.335797091139753, 17.434537942210394 ], [ 78.333957244288001, 17.434858931112192 ], [ 78.332698029695379, 17.433424625641965 ], [ 78.333278626774629, 17.431669329077653 ], [ 78.335118441605815, 17.431348312016748 ], [ 78.336377691377422, 17.432782619679404 ] ] ] } },
{ "type": "Feature", "properties": { "h3": "8960a24a037ffff", "built_t1": 0.3146067415730337, "built_t0": 0.10861423220973783, "flood_2020": 0, "low_lying": 0, "construction": 0 }, "geometry": { "type": "Polygon", "coordinates": [ [ [ 78.333278626774629, 17.431669329077653 ], [ 78.332698029695379, 17.433424625641965 ], [ 78.330858246830019, 17.433745593229361 ], [ 78.329599093065681, 17.432311292415815 ], [ 78.33017968698293, 17.430556021822014 ], [ 78.332019437827412, 17.43023502607112 ], [ 78.333278626774629, 17.431669329077653 ] ] ] } },
{ "type": "Feature", "properties": { "h3": "8960a24a03bffff", "built_t1": 0.40892193308550184, "built_t0": 0.19702602230483271, "flood_2020": 0, "low_lying": 0, "construction": 0 }, "geometry": { "type": "Polygon", "coordinates": [ [ [ 78.337056366557192, 17.43597225232876 ], [ 78.336475759944975, 17.437727549153514 ], [ 78.334635881072117, 17.438048509896994 ], [ 78.33337664083345, 17.436614201973878 ], [ 78.333957244288001, 17.434858931112192 ], [ 78.335797091139753, 17.434537942210394 ], [ 78.337056366557192, 17.43597225232876 ] ] ] } },
{ "type": "Feature", "properties": { "h3": "8960a24a083ffff", "built_t1": 0.21561338289962825, "built_t0": 0.085501858736059477, "flood_2020": 0, "low_lying": 0, "construction": 0 }, "geometry": { "type": "Polygon", "coordinates": [ [ [ 78.346738595800375, 17.427666210688038 ], [ 78.34615800208033, 17.429421714149701 ], [ 78.344317995410407, 17.429742872783773 ], [ 78.343058614479077, 17.428308556100031 ], [ 78.343639205052966, 17.426553078600659 ], [ 78.345479179705237, 17.426231891822603 ], [ 78.346738595800375, 17.427666210688038 ] ] ] } },
{ "type": "Feature", "properties": { "h3": "8960a24a087ffff", "built_t1": 0.2342007434944238, "built_t0": 0.21933085501858737, "flood_2020": 0, "low_lying": 1, "construction": 0 }, "geometry": { "type": "Polygon", "coordinates": [ [ [ 78.343639205052966, 17.426553078600659 ], [ 78.343058614479077, 17.428308556100031 ], [ 78.341218671768033, 17.428629693413829 ], [ 78.339959351649753, 17.427195381376503 ], [ 78.340539939073892, 17.425439929843265 ], [ 78.342379849766985, 17.425118764381086 ], [ 78.343639205052966, 17.426553078600659 ] ] ] } },
{ "type": "Feature", "properties": { "h3": "8960a24a08bffff", "built_t1": 0.30597014925373134, "built_t0": 0.033582089552238806, "flood_2020": 0, "low_lying": 0, "construction": 0 }, "geometry": { "type": "Polygon", "coordinates": [ [ [ 78.347417443821215, 17.43085603547129 ], [ 78.346836843729449, 17.432611513242307 ], [ 78.344996805041305, 17.432932643733196 ], [ 78.343737398464029, 17.431498324596109 ], [ 78.344317995410407, 17.429742872783773 ], [ 78.34615800208033, 17.429421714149701 ], [ 78.347417443821215, 17.43085603547129 ] ] ] } },
{ "type": "Feature", "properties": { "h3": "8960a24a08fffff", "built_t1": 0.37313432835820898, "built_t0": 0.16044776119402984, "flood_2020": 0, "low_lying": 0, "construction": 0 }, "geometry": { "type": "Polygon", "coordinates": [ [ [ 78.344317995410407, 17.429742872783773 ], [ 78.343737398464029, 17.431498324596109 ], [ 78.341897423734466, 17.431819433762346 ], [ 78.340638077970681, 17.430385119263676 ], [ 78.341218671768033, 17.428629693413829 ], [ 78.343058614479077, 17.428308556100031 ], [ 78.344317995410407, 17.429742872783773 ] ] ] } },
{ "type": "Feature", "properties": { "h3": "8960a24a093ffff", "built_t1": 0.13432835820895522, "built_t0": 0.097014925373134331, "flood_2020": 0, "low_lying": 0, "construction": 0 }, "geometry": { "type": "Polygon", "coordinates": [ [ [ 78.349159224896226, 17.425589447484931 ], [ 78.348578634404703, 17.427345002589345 ], [ 78.346738595800375, 17.427666210688038 ], [ 78.345479179705237, 17.426231891822603 ], [ 78.34605976705349, 17.424476362680313 ], [ 78.347899773641032, 17.424155126441192 ], [ 78.349159224896226, 17.425589447484931 ] ] ] } },
{ "type": "Feature", "properties": { "h3": "8960a24a097ffff", "built_t1": 0.29259259259259257, "built_t0": 0.37037037037037035, "flood_2020": 0, "low_lying": 1, "construction": 0 }, "geometry": { "type": "Polygon", "coordinates": [ [ [ 78.34605976705349, 17.424476362680313 ], [ 78.345479179705237, 17.426231891822603 ], [ 78.343639205052966, 17.426553078600659 ], [ 78.342379849766985, 17.425118764381086 ], [ 78.342960433968372, 17.423363261204727 ], [ 78.34480037660353, 17.423042046281868 ], [ 78.34605976705349, 17.424476362680313 ] ] ] } },
{ "type": "Feature", "properties": { "h3": "8960a24a09bffff", "built_t1": 0.029739776951672861, "built_t0": 0.0, "flood_2020": 0, "low_lying": 0, "construction": 0 }, "geometry": { "type": "Polygon", "coordinates": [ [ [ 78.349838111305488, 17.428779326092055 ], [ 78.349257514442911, 17.430534855512203 ], [ 78.347417443821215, 17.43085603547129 ], [ 78.34615800208033, 17.429421714149701 ], [ 78.346738595800375, 17.427666210688038 ], [ 78.348578634404703, 17.427345002589345 ], [ 78.349838111305488, 17.428779326092055 ] ] ] } },
{ "type": "Feature", "properties": { "h3": "8960a24a0a3ffff", "built_t1": 0.16728624535315986, "built_t0": 0.055762081784386616, "flood_2020": 0, "low_lying": 0, "construction": 0 }, "geometry": { "type": "Polygon", "coordinates": [ [ [ 78.338119472904694, 17.427516497374789 ], [ 78.337538882260006, 17.429271897258328 ], [ 78.335699035468906, 17.429592963789524 ], [ 78.334439811342534, 17.4281586585934 ], [ 78.33502039883102, 17.426403284680006 ], [ 78.336860213602947, 17.426082189992453 ], [ 78.338119472904694, 17.427516497374789 ] ] ] } },
{ "type": "Feature", "properties": { "h3": "8960a24a0a7ffff", "built_t1": 0.3037037037037037, "built_t0": 0.23333333333333334, "flood_2020": 0, "low_lying": 0, "construction": 0 }, "geometry": { "type": "Polygon", "coordinates": [ [ [ 78.33502039883102, 17.426403284680006 ], [ 78.334439811342534, 17.4281586585934 ], [ 78.332600028531374, 17.428479703814222 ], [ 78.331340865228952, 17.427045403282229 ], [ 78.331921449557555, 17.425290055342781 ], [ 78.333761200349301, 17.424968981961239 ], [ 78.33502039883102, 17.426403284680006 ] ] ] } },
{ "type": "Feature", "properties": { "h3": "8960a24a0abffff", "built_t1": 0.32713754646840149, "built_t0": 0.092936802973977689, "flood_2020": 0, "low_lying": 0, "construction": 1 }, "geometry": { "type": "Polygon", "coordinates": [ [ [ 78.338798167206804, 17.430706207110017 ], [ 78.338217570188206, 17.432461581303716 ], [ 78.336377691377422, 17.432782619679404 ], [ 78.335118441605815, 17.431348312016748 ], [ 78.335699035468906, 17.429592963789524 ], [ 78.337538882260006, 17.429271897258328 ], [ 78.338798167206804, 17.430706207110017 ] ] ] } },
{ "type": "Feature", "properties": { "h3": "8960a24a0afffff", "built_t1": 0.58582089552238803, "built_t0": 0.23880597014925373, "flood_2020": 0, "low_lying": 0, "construction": 0 }, "geometry": { "type": "Polygon", "coordinates": [ [ [ 78.335699035468906, 17.429592963789524 ], [ 78.335118441605815, 17.431348312016748 ], [ 78.333278626774629, 17.431669329077653 ], [ 78.332019437827412, 17.43023502607112 ], [ 78.332600028531374, 17.428479703814222 ], [ 78.334439811342534, 17.4281586585934 ], [ 78.335699035468906, 17.429592963789524 ] ] ] } },
{ "type": "Feature", "properties": { "h3": "8960a24a0b3ffff", "built_t1": 0.27715355805243447, "built_t0": 0.19850187265917604, "flood_2020": 0, "low_lying": 1, "construction": 0 }, "geometry": { "type": "Polygon", "coordinates": [ [ [ 78.340539939073892, 17.425439929843265 ], [ 78.339959351649753, 17.427195381376503 ], [ 78.338119472904694, 17.427516497374789 ], [ 78.336860213602947, 17.426082189992453 ], [ 78.337440797873754, 17.424326764429164 ], [ 78.339280644600507, 17.424005620278113 ], [ 78.340539939073892, 17.425439929843265 ] ] ] } },
{ "type": "Feature", "properties": { "h3": "8960a24a0b7ffff", "built_t1": 0.26022304832713755, "built_t0": 0.1449814126394052, "flood_2020": 0, "low_lying": 0, "construction": 0 }, "geometry": { "type": "Polygon", "coordinates": [ [ [ 78.337440797873754, 17.424326764429164 ], [ 78.336860213602947, 17.426082189992453 ], [ 78.33502039883102, 17.426403284680006 ], [ 78.333761200349301, 17.424968981961239 ], [ 78.334341781463095, 17.42321358237168 ], [ 78.336181564216488, 17.422892459527013 ], [ 78.337440797873754, 17.424326764429164 ] ] ] } },
{ "type": "Feature", "properties": { "h3": "8960a24a0bbffff", "built_t1": 0.19702602230483271, "built_t0": 0.044609665427509292, "flood_2020": 0, "low_lying": 0, "construction": 0 }, "geometry": { "type": "Polygon", "coordinates": [ [ [ 78.341218671768033, 17.428629693413829 ], [ 78.340638077970681, 17.430385119263676 ], [ 78.338798167206804, 17.430706207110017 ], [ 78.337538882260006, 17.429271897258328 ], [ 78.338119472904694, 17.427516497374789 ], [ 78.339959351649753, 17.427195381376503 ], [ 78.341218671768033, 17.428629693413829 ] ] ] } },
{ "type": "Feature", "properties": { "h3": "8960a24a0c3ffff", "built_t1": 0.029739776951672861, "built_t0": 0.022304832713754646, "flood_2020": 0, "low_lying": 0, "construction": 0 }, "geometry": { "type": "Polygon", "coordinates": [ [ [ 78.351195941950039, 17.435159013577117 ], [ 78.350615332345498, 17.436914491598685 ], [ 78.348775197687402, 17.437235615280969 ], [ 78.347515704653205, 17.435801289079567 ], [ 78.348096311116677, 17.434045837009233 ], [ 78.349936413756311, 17.433724685188949 ], [ 78.351195941950039, 17.435159013577117 ] ] ] } },
{ "type": "Feature", "properties": { "h3": "8960a24a0c7ffff", "built_t1": 0.26765799256505574, "built_t0": 0.01858736059479554, "flood_2020": 0, "low_lying": 0, "construction": 0 }, "geometry": { "type": "Polygon", "coordinates": [ [ [ 78.348096311116677, 17.434045837009233 ], [ 78.347515704653205, 17.435801289079567 ], [ 78.345675633946286, 17.436122391428061 ], [ 78.344416201722495, 17.43468806984847 ], [ 78.344996805041305, 17.432932643733196 ], [ 78.346836843729449, 17.432611513242307 ], [ 78.348096311116677, 17.434045837009233 ] ] ] } },
{ "type": "Feature", "properties": { "h3": "8960a24a0d3ffff", "built_t1": 0.05204460966542751, "built_t0": 0.048327137546468404, "flood_2020": 0, "low_lying": 0, "construction": 0 }, "geometry": { "type": "Polygon", "coordinates": [ [ [ 78.353616714905755, 17.433082310745753 ], [ 78.353036108533999, 17.43483784042267 ], [ 78.351195941950039, 17.435159013577117 ], [ 78.349936413756311, 17.433724685188949 ], [ 78.350517016989869, 17.431969181463057 ], [ 78.35235715155622, 17.431647980174187 ], [ 78.353616714905755, 17.433082310745753 ] ] ] } },
{ "type": "Feature", "properties": { "h3": "8960a24a0d7ffff", "built_t1": 0.05204460966542751, "built_t0": 0.0, "flood_2020": 0, "low_lying": 0, "construction": 0 }, "geometry": { "type": "Polygon", "coordinates": [ [ [ 78.350517016989869, 17.431969181463057 ], [ 78.349936413756311, 17.433724685188949 ], [ 78.348096311116677, 17.434045837009233 ], [ 78.346836843729449, 17.432611513242307 ], [ 78.347417443821215, 17.43085603547129 ], [ 78.349257514442911, 17.430534855512203 ], [ 78.350517016989869, 17.431969181463057 ] ] ] } },
{ "type": "Feature", "properties": { "h3": "8960a24a113ffff", "built_t1": 0.4, "built_t0": 0.1037037037037037, "flood_2020": 0, "low_lying": 1, "construction": 1 }, "geometry": { "type": "Polygon", "coordinates": [ [ [ 78.323303756626814, 17.425139824092653 ], [ 78.322723175421928, 17.426895068415703 ], [ 78.320883616580161, 17.427216000265123 ], [ 78.319624670965325, 17.42578171596881 ], [ 78.320205248996601, 17.424026497631349 ], [ 78.322044775817204, 17.423705537604494 ], [ 78.323303756626814, 17.425139824092653 ] ] ] } },
{ "type": "Feature", "properties": { "h3": "8960a24a183ffff", "built_t1": 0.31716417910447764, "built_t0": 0.0, "flood_2020": 0, "low_lying": 0, "construction": 0 }, "geometry": { "type": "Polygon", "coordinates": [ [ [ 78.325045481074241, 17.419873936472332 ], [ 78.324464909453056, 17.421629258117697 ], [ 78.322625350644529, 17.421950267609773 ], [ 78.321366395477853, 17.420515983630992 ], [ 78.321946963927601, 17.418760687974622 ], [ 78.323786490716373, 17.418439650307896 ], [ 78.325045481074241, 17.419873936472332 ] ] ] } },
{ "type": "Feature", "properties": { "h3": "8960a24a187ffff", "built_t1": 0.18518518518518517, "built_t0": 0.0, "flood_2020": 0, "low_lying": 1, "construction": 1 }, "geometry": { "type": "Polygon", "coordinates": [ [ [ 78.321946963927601, 17.418760687974622 ], [ 78.321366395477853, 17.420515983630992 ], [ 78.3195269006779, 17.420836971836092 ], [ 78.318268006348688, 17.419402692563736 ], [ 78.318848571623391, 17.417647422900185 ], [ 78.320688034403261, 17.417326406516043 ], [ 78.321946963927601, 17.418760687974622 ] ] ] } },
{ "type": "Feature", "properties": { "h3": "8960a24a18bffff", "built_t1": 0.69516728624535318, "built_t0": 0.026022304832713755, "flood_2020": 0, "low_lying": 1, "construction": 0 }, "geometry": { "type": "Polygon", "coordinates": [ [ [ 78.32572392545373, 17.423063546794346 ], [ 78.325143347455693, 17.424818842774435 ], [ 78.323303756626814, 17.425139824092653 ], [ 78.322044775817204, 17.423705537604494 ], [ 78.322625350644529, 17.421950267609773 ], [ 78.324464909453056, 17.421629258117697 ], [ 78.32572392545373, 17.423063546794346 ] ] ] } },
{ "type": "Feature", "properties": { "h3": "8960a24a18fffff", "built_t1": 0.375, "built_t0": 0.0, "flood_2020": 0, "low_lying": 1, "construction": 1 }, "geometry": { "type": "Polygon", "coordinates": [ [ [ 78.322625350644529, 17.421950267609773 ], [ 78.322044775817204, 17.423705537604494 ], [ 78.320205248996601, 17.424026497631349 ], [ 78.318946329024882, 17.422592215841593 ], [ 78.3195269006779, 17.420836971836092 ], [ 78.321366395477853, 17.420515983630992 ], [ 78.322625350644529, 17.421950267609773 ] ] ] } },
{ "type": "Feature", "properties": { "h3": "8960a24a193ffff", "built_t1": 0.46468401486988847, "built_t0": 0.1449814126394052, "flood_2020": 0, "low_lying": 0, "construction": 0 }, "geometry": { "type": "Polygon", "coordinates": [ [ [ 78.327465640277651, 17.417797504228758 ], [ 78.326885071864808, 17.419552877518228 ], [ 78.325045481074241, 17.419873936472332 ], [ 78.323786490716373, 17.418439650307896 ], [ 78.32436705596065, 17.416684303007258 ], [ 78.3262066147323, 17.416363215882107 ], [ 78.327465640277651, 17.417797504228758 ] ] ] } },
{ "type": "Feature", "properties": { "h3": "8960a24a197ffff", "built_t1": 0.52434456928838946, "built_t0": 0.38576779026217228, "flood_2020": 0, "low_lying": 0, "construction": 1 }, "geometry": { "type": "Polygon", "coordinates": [ [ [ 78.32436705596065, 17.416684303007258 ], [ 78.323786490716373, 17.418439650307896 ], [ 78.321946963927601, 17.418760687974622 ], [ 78.320688034403261, 17.417326406516043 ], [ 78.321268596475406, 17.415571085208072 ], [ 78.323108091244933, 17.415250019365871 ], [ 78.32436705596065, 17.416684303007258 ] ] ] } },
{ "type": "Feature", "properties": { "h3": "8960a24a19bffff", "built_t1": 0.55762081784386619, "built_t0": 0.05204460966542751, "flood_2020": 0, "low_lying": 0, "construction": 0 }, "geometry": { "type": "Polygon", "coordinates": [ [ [ 78.32814412305278, 17.420987168379938 ], [ 78.327563548263754, 17.42274251601053 ], [ 78.32572392545373, 17.423063546794346 ], [ 78.324464909453056, 17.421629258117697 ], [ 78.325045481074241, 17.419873936472332 ], [ 78.326885071864808, 17.419552877518228 ], [ 78.32814412305278, 17.420987168379938 ] ] ] } },
{ "type": "Feature", "properties": { "h3": "8960a24a1c3ffff", "built_t1": 0.47014925373134331, "built_t0": 0.41417910447761191, "flood_2020": 0, "low_lying": 1, "construction": 0 }, "geometry": { "type": "Polygon", "coordinates": [ [ [ 78.32950114640478, 17.427366427197434 ], [ 78.328920558863558, 17.429121723480169 ], [ 78.3270808720129, 17.42944269792584 ], [ 78.325821804724896, 17.428008404257277 ], [ 78.326402389099727, 17.426253133952461 ], [ 78.328242043929805, 17.425932131338122 ], [ 78.32950114640478, 17.427366427197434 ] ] ] } },
{ "type": "Feature", "properties": { "h3": "8960a24a1c7ffff", "built_t1": 0.46096654275092935, "built_t0": 0.44609665427509293, "flood_2020": 0, "low_lying": 1, "construction": 0 }, "geometry": { "type": "Polygon", "coordinates": [ [ [ 78.326402389099727, 17.426253133952461 ], [ 78.325821804724896, 17.428008404257277 ], [ 78.32398218187511, 17.428329357402433 ], [ 78.322723175421928, 17.426895068415703 ], [ 78.323303756626814, 17.425139824092653 ], [ 78.325143347455693, 17.424818842774435 ], [ 78.326402389099727, 17.426253133952461 ] ] ] } },
{ "type": "Feature", "properties": { "h3": "8960a24a1cbffff", "built_t1": 0.52059925093632964, "built_t0": 0.40823970037453183, "flood_2020": 0, "low_lying": 0, "construction": 0 }, "geometry": { "type": "Polygon", "coordinates": [ [ [ 78.33017968698293, 17.430556021822014 ], [ 78.329599093065681, 17.432311292415815 ], [ 78.327759374193832, 17.432632238693589 ], [ 78.326500281261275, 17.431197942545296 ], [ 78.3270808720129, 17.42944269792584 ], [ 78.328920558863558, 17.429121723480169 ], [ 78.33017968698293, 17.430556021822014 ] ] ] } },
{ "type": "Feature", "properties": { "h3": "8960a24a1cfffff", "built_t1": 0.72118959107806691, "built_t0": 0.71747211895910779, "flood_2020": 0, "low_lying": 0, "construction": 0 }, "geometry": { "type": "Polygon", "coordinates": [ [ [ 78.3270808720129, 17.42944269792584 ], [ 78.326500281261275, 17.431197942545296 ], [ 78.324660626390028, 17.4315188675182 ], [ 78.323401594292719, 17.43008457604375 ], [ 78.32398218187511, 17.428329357402433 ], [ 78.325821804724896, 17.428008404257277 ], [ 78.3270808720129, 17.42944269792584 ] ] ] } },
{ "type": "Feature", "properties": { "h3": "8960a24a1d3ffff", "built_t1": 0.52416356877323422, "built_t0": 0.35687732342007433, "flood_2020": 0, "low_lying": 0, "construction": 0 }, "geometry": { "type": "Polygon", "coordinates": [ [ [ 78.331921449557555, 17.425290055342781 ], [ 78.331340865228952, 17.427045403282229 ], [ 78.32950114640478, 17.427366427197434 ], [ 78.328242043929805, 17.425932131338122 ], [ 78.328822625094929, 17.424176809376451 ], [ 78.330662311899374, 17.42385575729616 ], [ 78.331921449557555, 17.425290055342781 ] ] ] } },
{ "type": "Feature", "properties": { "h3": "8960a24a1d7ffff", "built_t1": 0.86142322097378277, "built_t0": 0.23595505617977527, "flood_2020": 0, "low_lying": 1, "construction": 0 }, "geometry": { "type": "Polygon", "coordinates": [ [ [ 78.328822625094929, 17.424176809376451 ], [ 78.328242043929805, 17.425932131338122 ], [ 78.326402389099727, 17.426253133952461 ], [ 78.325143347455693, 17.424818842774435 ], [ 78.32572392545373, 17.423063546794346 ], [ 78.327563548263754, 17.42274251601053 ], [ 78.328822625094929, 17.424176809376451 ] ] ] } },
{ "type": "Feature", "properties": { "h3": "8960a24a1dbffff", "built_t1": 0.25185185185185183, "built_t0": 0.13703703703703704, "flood_2020": 0, "low_lying": 1, "construction": 0 }, "geometry": { "type": "Polygon", "coordinates": [ [ [ 78.332600028531374, 17.428479703814222 ], [ 78.332019437827412, 17.43023502607112 ], [ 78.33017968698293, 17.430556021822014 ], [ 78.328920558863558, 17.429121723480169 ], [ 78.32950114640478, 17.427366427197434 ], [ 78.331340865228952, 17.427045403282229 ], [ 78.332600028531374, 17.428479703814222 ] ] ] } },
{ "type": "Feature", "properties": { "h3": "8960a24a403ffff", "built_t1": 0.53358208955223885, "built_t0": 0.27238805970149255, "flood_2020": 0, "low_lying": 1, "construction": 0 }, "geometry": { "type": "Polygon", "coordinates": [ [ [ 78.359521068123229, 17.420471477597758 ], [ 78.358940484199437, 17.422227213548471 ], [ 78.357100285902959, 17.422548591348296 ], [ 78.355840703545041, 17.421114261322554 ], [ 78.356421284337884, 17.419358551329569 ], [ 78.358261450620475, 17.419037145404463 ], [ 78.359521068123229, 17.420471477597758 ] ] ] } },
{ "type": "Feature", "properties": { "h3": "8960a24a407ffff", "built_t1": 0.38805970149253732, "built_t0": 0.34701492537313433, "flood_2020": 0, "low_lying": 1, "construction": 0 }, "geometry": { "type": "Polygon", "coordinates": [ [ [ 78.356421284337884, 17.419358551329569 ], [ 78.355840703545041, 17.421114261322554 ], [ 78.35400056917311, 17.421435617795876 ], [ 78.352741047609086, 17.420001292405729 ], [ 78.353321625267299, 17.418245608374257 ], [ 78.355161727625045, 17.41792422377128 ], [ 78.356421284337884, 17.419358551329569 ] ] ] } },
{ "type": "Feature", "properties": { "h3": "8960a24a40bffff", "built_t1": 0.28731343283582089, "built_t0": 0.052238805970149252, "flood_2020": 0, "low_lying": 0, "construction": 0 }, "geometry": { "type": "Polygon", "coordinates": [ [ [ 78.36020012734771, 17.42366154820121 ], [ 78.359619537055679, 17.425417258483268 ], [ 78.357779306744732, 17.425738608158635 ], [ 78.356519698741167, 17.424304275676263 ], [ 78.357100285902959, 17.422548591348296 ], [ 78.358940484199437, 17.422227213548471 ], [ 78.36020012734771, 17.42366154820121 ] ] ] } },
{ "type": "Feature", "properties": { "h3": "8960a24a40fffff", "built_t1": 0.34701492537313433, "built_t0": 0.089552238805970144, "flood_2020": 0, "low_lying": 1, "construction": 0 }, "geometry": { "type": "Polygon", "coordinates": [ [ [ 78.357100285902959, 17.422548591348296 ], [ 78.356519698741167, 17.424304275676263 ], [ 78.354679532354481, 17.424625604020747 ], [ 78.353419985145209, 17.423191276165952 ], [ 78.35400056917311, 17.421435617795876 ], [ 78.355840703545041, 17.421114261322554 ], [ 78.357100285902959, 17.422548591348296 ] ] ] } },
{ "type": "Feature", "properties": { "h3": "8960a24a413ffff", "built_t1": 0.58148148148148149, "built_t0": 0.51851851851851849, "flood_2020": 0, "low_lying": 1, "construction": 0 }, "geometry": { "type": "Polygon", "coordinates": [ [ [ 78.361941879007205, 17.418394262778978 ], [ 78.361361298323558, 17.420150050345793 ], [ 78.359521068123229, 17.420471477597758 ], [ 78.358261450620475, 17.419037145404463 ], [ 78.358842028175999, 17.417281383795153 ], [ 78.360682226363295, 17.416959928421491 ], [ 78.361941879007205, 17.418394262778978 ] ] ] } },
{ "type": "Feature", "properties": { "h3": "8960a24a417ffff", "built_t1": 0.49442379182156132, "built_t0": 0.44609665427509293, "flood_2020": 0, "low_lying": 1, "construction": 0 }, "geometry": { "type": "Polygon", "coordinates": [ [ [ 78.358842028175999, 17.417281383795153 ], [ 78.358261450620475, 17.419037145404463 ], [ 78.356421284337884, 17.419358551329569 ], [ 78.355161727625045, 17.41792422377128 ], [ 78.355742302048881, 17.416168488123297 ], [ 78.357582436318125, 17.415847054072128 ], [ 78.358842028175999, 17.417281383795153 ] ] ] } },
{ "type": "Feature", "properties": { "h3": "8960a24a423ffff", "built_t1": 0.64684014869888473, "built_t0": 0.71003717472118955, "flood_2020": 0, "low_lying": 0, "construction": 0 }, "geometry": { "type": "Polygon", "coordinates": [ [ [ 78.350900977168791, 17.420322627557283 ], [ 78.350320396278363, 17.422078259965634 ], [ 78.348480357761488, 17.422399545662582 ], [ 78.347220932151274, 17.420965227088669 ], [ 78.34780150990062, 17.419209620645866 ], [ 78.34964151640213, 17.418888306811301 ], [ 78.350900977168791, 17.420322627557283 ] ] ] } },
{ "type": "Feature", "properties": { "h3": "8960a24a427ffff", "built_t1": 0.28464419475655428, "built_t0": 0.23595505617977527, "flood_2020": 0, "low_lying": 0, "construction": 0 }, "geometry": { "type": "Polygon", "coordinates": [ [ [ 78.34780150990062, 17.419209620645866 ], [ 78.347220932151274, 17.420965227088669 ], [ 78.345380957579991, 17.421286491468983 ], [ 78.344121592774584, 17.419852177548371 ], [ 78.344702167379182, 17.418096597074925 ], [ 78.346542109934816, 17.417775304552602 ], [ 78.34780150990062, 17.419209620645866 ] ] ] } },
{ "type": "Feature", "properties": { "h3": "8960a24a42bffff", "built_t1": 0.17537313432835822, "built_t0": 0.11194029850746269, "flood_2020": 0, "low_lying": 1, "construction": 0 }, "geometry": { "type": "Polygon", "coordinates": [ [ [ 78.351579882689848, 17.423512583184273 ], [ 78.350999295429048, 17.425268189924818 ], [ 78.349159224896226, 17.425589447484931 ], [ 78.347899773641032, 17.424155126441192 ], [ 78.348480357761488, 17.422399545662582 ], [ 78.350320396278363, 17.422078259965634 ], [ 78.351579882689848, 17.423512583184273 ] ] ] } },
{ "type": "Feature", "properties": { "h3": "8960a24a42fffff", "built_t1": 0.34944237918215615, "built_t0": 0.33085501858736061, "flood_2020": 0, "low_lying": 0, "construction": 0 }, "geometry": { "type": "Polygon", "coordinates": [ [ [ 78.348480357761488, 17.422399545662582 ], [ 78.347899773641032, 17.424155126441192 ], [ 78.34605976705349, 17.424476362680313 ], [ 78.34480037660353, 17.423042046281868 ], [ 78.345380957579991, 17.421286491468983 ], [ 78.347220932151274, 17.420965227088669 ], [ 78.348480357761488, 17.422399545662582 ] ] ] } },
{ "type": "Feature", "properties": { "h3": "8960a24a433ffff", "built_t1": 0.57037037037037042, "built_t0": 0.56666666666666665, "flood_2020": 0, "low_lying": 0, "construction": 0 }, "geometry": { "type": "Polygon", "coordinates": [ [ [ 78.353321625267299, 17.418245608374257 ], [ 78.352741047609086, 17.420001292405729 ], [ 78.350900977168791, 17.420322627557283 ], [ 78.34964151640213, 17.418888306811301 ], [ 78.350222090922145, 17.417132648745184 ], [ 78.352062129347914, 17.41681128545957 ], [ 78.353321625267299, 17.418245608374257 ] ] ] } },
{ "type": "Feature", "properties": { "h3": "8960a24a437ffff", "built_t1": 0.63940520446096649, "built_t0": 0.40520446096654272, "flood_2020": 0, "low_lying": 0, "construction": 0 }, "geometry": { "type": "Polygon", "coordinates": [ [ [ 78.350222090922145, 17.417132648745184 ], [ 78.34964151640213, 17.418888306811301 ], [ 78.34780150990062, 17.419209620645866 ], [ 78.346542109934816, 17.417775304552602 ], [ 78.347122681312996, 17.416019672455651 ], [ 78.34896265579971, 17.415698330482673 ], [ 78.350222090922145, 17.417132648745184 ] ] ] } },
{ "type": "Feature", "properties": { "h3": "8960a24a43bffff", "built_t1": 0.37546468401486988, "built_t0": 0.58364312267657992, "flood_2020": 0, "low_lying": 1, "construction": 0 }, "geometry": { "type": "Polygon", "coordinates": [ [ [ 78.35400056917311, 17.421435617795876 ], [ 78.353419985145209, 17.423191276165952 ], [ 78.351579882689848, 17.423512583184273 ], [ 78.350320396278363, 17.422078259965634 ], [ 78.350900977168791, 17.420322627557283 ], [ 78.352741047609086, 17.420001292405729 ], [ 78.35400056917311, 17.421435617795876 ] ] ] } },
{ "type": "Feature", "properties": { "h3": "8960a24a463ffff", "built_t1": 0.23048327137546468, "built_t0": 0.0, "flood_2020": 0, "low_lying": 0, "construction": 0 }, "geometry": { "type": "Polygon", "coordinates": [ [ [ 78.355358514812025, 17.427815567027956 ], [ 78.354777918044846, 17.42957117404513 ], [ 78.352937751557704, 17.429892424799377 ], [ 78.351678213854797, 17.428458096667953 ], [ 78.352258807485953, 17.42670251560526 ], [ 78.354098941956906, 17.426381236719369 ], [ 78.355358514812025, 17.427815567027956 ] ] ] } },
{ "type": "Feature", "properties": { "h3": "8960a24a467ffff", "built_t1": 0.052434456928838954, "built_t0": 0.0037453183520599251, "flood_2020": 0, "low_lying": 0, "construction": 0 }, "geometry": { "type": "Polygon", "coordinates": [ [ [ 78.352258807485953, 17.42670251560526 ], [ 78.351678213854797, 17.428458096667953 ], [ 78.349838111305488, 17.428779326092055 ], [ 78.348578634404703, 17.427345002589345 ], [ 78.349159224896226, 17.425589447484931 ], [ 78.350999295429048, 17.425268189924818 ], [ 78.352258807485953, 17.42670251560526 ] ] ] } },
{ "type": "Feature", "properties": { "h3": "8960a24a46bffff", "built_t1": 0.048507462686567165, "built_t0": 0.052238805970149252, "flood_2020": 0, "low_lying": 0, "construction": 0 }, "geometry": { "type": "Polygon", "coordinates": [ [ [ 78.356037516546408, 17.43100550679668 ], [ 78.355456913409654, 17.432761088122341 ], [ 78.353616714905755, 17.433082310745753 ], [ 78.35235715155622, 17.431647980174187 ], [ 78.352937751557704, 17.429892424799377 ], [ 78.354777918044846, 17.42957117404513 ], [ 78.356037516546408, 17.43100550679668 ] ] ] } },
{ "type": "Feature", "properties": { "h3": "8960a24a46fffff", "built_t1": 0.03717472118959108, "built_t0": 0.0, "flood_2020": 0, "low_lying": 0, "construction": 0 }, "geometry": { "type": "Polygon", "coordinates": [ [ [ 78.352937751557704, 17.429892424799377 ], [ 78.35235715155622, 17.431647980174187 ], [ 78.350517016989869, 17.431969181463057 ], [ 78.349257514442911, 17.430534855512203 ], [ 78.349838111305488, 17.428779326092055 ], [ 78.351678213854797, 17.428458096667953 ], [ 78.352937751557704, 17.429892424799377 ] ] ] } },
{ "type": "Feature", "properties": { "h3": "8960a24a473ffff", "built_t1": 0.28518518518518521, "built_t0": 0.0037037037037037038, "flood_2020": 0, "low_lying": 0, "construction": 0 }, "geometry": { "type": "Polygon", "coordinates": [ [ [ 78.357779306744732, 17.425738608158635 ], [ 78.357198713214046, 17.427494266811539 ], [ 78.355358514812025, 17.427815567027956 ], [ 78.354098941956906, 17.426381236719369 ], [ 78.354679532354481, 17.424625604020747 ], [ 78.356519698741167, 17.424304275676263 ], [ 78.357779306744732, 17.425738608158635 ] ] ] } },
{ "type": "Feature", "properties": { "h3": "8960a24a477ffff", "built_t1": 0.055555555555555552, "built_t0": 0.0, "flood_2020": 0, "low_lying": 1, "construction": 0 }, "geometry": { "type": "Polygon", "coordinates": [ [ [ 78.354679532354481, 17.424625604020747 ], [ 78.354098941956906, 17.426381236719369 ], [ 78.352258807485953, 17.42670251560526 ], [ 78.350999295429048, 17.425268189924818 ], [ 78.351579882689848, 17.423512583184273 ], [ 78.353419985145209, 17.423191276165952 ], [ 78.354679532354481, 17.424625604020747 ] ] ] } },
{ "type": "Feature", "properties": { "h3": "8960a24a47bffff", "built_t1": 0.055762081784386616, "built_t0": 0.0037174721189591076, "flood_2020": 0, "low_lying": 0, "construction": 0 }, "geometry": { "type": "Polygon", "coordinates": [ [ [ 78.358458346863884, 17.428928601739695 ], [ 78.357877746964292, 17.43068423470752 ], [ 78.356037516546408, 17.43100550679668 ], [ 78.354777918044846, 17.42957117404513 ], [ 78.355358514812025, 17.427815567027956 ], [ 78.357198713214046, 17.427494266811539 ], [ 78.358458346863884, 17.428928601739695 ] ] ] } },
{ "type": "Feature", "properties": { "h3": "8960a24a487ffff", "built_t1": 0.15185185185185185, "built_t0": 0.011111111111111112, "flood_2020": 0, "low_lying": 1, "construction": 0 }, "geometry": { "type": "Polygon", "coordinates": [ [ [ 78.360583741628673, 17.412013944456898 ], [ 78.360003173680184, 17.413769783318074 ], [ 78.358163007505382, 17.414091266814232 ], [ 78.356903441291806, 17.412656939572329 ], [ 78.357484006110724, 17.410901126675881 ], [ 78.359324140273642, 17.410579615056456 ], [ 78.360583741628673, 17.412013944456898 ] ] ] } },
{ "type": "Feature", "properties": { "h3": "8960a24a48fffff", "built_t1": 0.47388059701492535, "built_t0": 0.041044776119402986, "flood_2020": 0, "low_lying": 1, "construction": 0 }, "geometry": { "type": "Polygon", "coordinates": [ [ [ 78.36126280067937, 17.415204115202453 ], [ 78.360682226363295, 17.416959928421491 ], [ 78.358842028175999, 17.417281383795153 ], [ 78.357582436318125, 17.415847054072128 ], [ 78.358163007505382, 17.414091266814232 ], [ 78.360003173680184, 17.413769783318074 ], [ 78.36126280067937, 17.415204115202453 ] ] ] } },
{ "type": "Feature", "properties": { "h3": "8960a24a4a3ffff", "built_t1": 0.61278195488721809, "built_t0": 0.32706766917293234, "flood_2020": 0, "low_lying": 1, "construction": 0 }, "geometry": { "type": "Polygon", "coordinates": [ [ [ 78.355063339035311, 17.412978401750362 ], [ 78.354482770980511, 17.414734163043313 ], [ 78.352642700636423, 17.415055575776726 ], [ 78.35138323036108, 17.413621255348353 ], [ 78.351963795279843, 17.411865520024204 ], [ 78.353803833610868, 17.411544079159501 ], [ 78.355063339035311, 17.412978401750362 ] ] ] } },
{ "type": "Feature", "properties": { "h3": "8960a24a4a7ffff", "built_t1": 0.62313432835820892, "built_t0": 0.42537313432835822, "flood_2020": 0, "low_lying": 1, "construction": 0 }, "geometry": { "type": "Polygon", "coordinates": [ [ [ 78.351963795279843, 17.411865520024204 ], [ 78.35138323036108, 17.413621255348353 ], [ 78.349543223949269, 17.413942646768788 ], [ 78.348283814470449, 17.412508331000598 ], [ 78.348864376249523, 17.410752621649049 ], [ 78.350704350647959, 17.410431202092941 ], [ 78.351963795279843, 17.411865520024204 ] ] ] } },
{ "type": "Feature", "properties": { "h3": "8960a24a4abffff", "built_t1": 0.6, "built_t0": 0.27037037037037037, "flood_2020": 0, "low_lying": 1, "construction": 0 }, "geometry": { "type": "Polygon", "coordinates": [ [ [ 78.355742302048881, 17.416168488123297 ], [ 78.355161727625045, 17.41792422377128 ], [ 78.353321625267299, 17.418245608374257 ], [ 78.352062129347914, 17.41681128545957 ], [ 78.352642700636423, 17.415055575776726 ], [ 78.354482770980511, 17.414734163043313 ], [ 78.355742302048881, 17.416168488123297 ] ] ] } },
{ "type": "Feature", "properties": { "h3": "8960a24a4afffff", "built_t1": 0.4925373134328358, "built_t0": 0.1455223880597015, "flood_2020": 0, "low_lying": 1, "construction": 0 }, "geometry": { "type": "Polygon", "coordinates": [ [ [ 78.352642700636423, 17.415055575776726 ], [ 78.352062129347914, 17.41681128545957 ], [ 78.350222090922145, 17.417132648745184 ], [ 78.34896265579971, 17.415698330482673 ], [ 78.349543223949269, 17.413942646768788 ], [ 78.35138323036108, 17.413621255348353 ], [ 78.352642700636423, 17.415055575776726 ] ] ] } },
{ "type": "Feature", "properties": { "h3": "8960a24a4b3ffff", "built_t1": 0.40520446096654272, "built_t0": 0.28252788104089221, "flood_2020": 0, "low_lying": 1, "construction": 0 }, "geometry": { "type": "Polygon", "coordinates": [ [ [ 78.357484006110724, 17.410901126675881 ], [ 78.356903441291806, 17.412656939572329 ], [ 78.355063339035311, 17.412978401750362 ], [ 78.353803833610868, 17.411544079159501 ], [ 78.354384395296606, 17.409788292231664 ], [ 78.356224465540862, 17.409466801925937 ], [ 78.357484006110724, 17.410901126675881 ] ] ] } },
{ "type": "Feature", "properties": { "h3": "8960a24a4b7ffff", "built_t1": 0.57933579335793361, "built_t0": 0.39852398523985239, "flood_2020": 0, "low_lying": 1, "construction": 0 }, "geometry": { "type": "Polygon", "coordinates": [ [ [ 78.354384395296606, 17.409788292231664 ], [ 78.353803833610868, 17.411544079159501 ], [ 78.351963795279843, 17.411865520024204 ], [ 78.350704350647959, 17.410431202092941 ], [ 78.351284909196906, 17.4086754411375 ], [ 78.353124915515409, 17.408353972140752 ], [ 78.354384395296606, 17.409788292231664 ] ] ] } },
{ "type": "Feature", "properties": { "h3": "8960a24a4bbffff", "built_t1": 0.30855018587360594, "built_t0": 0.23791821561338289, "flood_2020": 0, "low_lying": 1, "construction": 0 }, "geometry": { "type": "Polygon", "coordinates": [ [ [ 78.358163007505382, 17.414091266814232 ], [ 78.357582436318125, 17.415847054072128 ], [ 78.355742302048881, 17.416168488123297 ], [ 78.354482770980511, 17.414734163043313 ], [ 78.355063339035311, 17.412978401750362 ], [ 78.356903441291806, 17.412656939572329 ], [ 78.358163007505382, 17.414091266814232 ] ] ] } },
{ "type": "Feature", "properties": { "h3": "8960a24a503ffff", "built_t1": 0.64814814814814814, "built_t0": 0.5444444444444444, "flood_2020": 0, "low_lying": 1, "construction": 0 }, "geometry": { "type": "Polygon", "coordinates": [ [ [ 78.337825201007803, 17.412680643757678 ], [ 78.337244639076786, 17.414436197924221 ], [ 78.335404888401456, 17.414757426538337 ], [ 78.33414573167407, 17.413323129141734 ], [ 78.334726290448799, 17.411567600959646 ], [ 78.336566009108083, 17.411246344189582 ], [ 78.337825201007803, 17.412680643757678 ] ] ] } },
{ "type": "Feature", "properties": { "h3": "8960a24a507ffff", "built_t1": 0.27881040892193309, "built_t0": 0.089219330855018583, "flood_2020": 0, "low_lying": 1, "construction": 0 }, "geometry": { "type": "Polygon", "coordinates": [ [ [ 78.334726290448799, 17.411567600959646 ], [ 78.33414573167407, 17.413323129141734 ], [ 78.332306044973052, 17.413644336462628 ], [ 78.331046949063989, 17.412210043761625 ], [ 78.331627504678821, 17.410454541567798 ], [ 78.333467159363508, 17.410133306086571 ], [ 78.334726290448799, 17.411567600959646 ] ] ] } },
{ "type": "Feature", "properties": { "h3": "8960a24a50bffff", "built_t1": 0.36802973977695169, "built_t0": 0.24907063197026022, "flood_2020": 0, "low_lying": 1, "construction": 0 }, "geometry": { "type": "Polygon", "coordinates": [ [ [ 78.338503856618999, 17.415870500007845 ], [ 78.33792328831467, 17.417626028531092 ], [ 78.336083505622753, 17.417947228990062 ], [ 78.334824323252661, 17.416512929080785 ], [ 78.335404888401456, 17.414757426538337 ], [ 78.337244639076786, 17.414436197924221 ], [ 78.338503856618999, 17.415870500007845 ] ] ] } },
{ "type": "Feature", "properties": { "h3": "8960a24a50fffff", "built_t1": 0.52788104089219334, "built_t0": 0.070631970260223054, "flood_2020": 0, "low_lying": 1, "construction": 0 }, "geometry": { "type": "Polygon", "coordinates": [ [ [ 78.335404888401456, 17.414757426538337 ], [ 78.334824323252661, 17.416512929080785 ], [ 78.332984604534758, 17.416834108242131 ], [ 78.33172548298343, 17.41539981302045 ], [ 78.332306044973052, 17.413644336462628 ], [ 78.33414573167407, 17.413323129141734 ], [ 78.335404888401456, 17.414757426538337 ] ] ] } },
{ "type": "Feature", "properties": { "h3": "8960a24a513ffff", "built_t1": 0.13754646840148699, "built_t0": 0.01858736059479554, "flood_2020": 0, "low_lying": 0, "construction": 0 }, "geometry": { "type": "Polygon", "coordinates": [ [ [ 78.340245542345627, 17.410603759909996 ], [ 78.339664983634592, 17.412359365694023 ], [ 78.337825201007803, 17.412680643757678 ], [ 78.336566009108083, 17.411246344189582 ], [ 78.33714656466573, 17.409490764389822 ], [ 78.338986315277367, 17.409169458173768 ], [ 78.340245542345627, 17.410603759909996 ] ] ] } },
{ "type": "Feature", "properties": { "h3": "8960a24a517ffff", "built_t1": 0.2574626865671642, "built_t0": 0.0, "flood_2020": 0, "low_lying": 1, "construction": 1 }, "geometry": { "type": "Polygon", "coordinates": [ [ [ 78.33714656466573, 17.409490764389822 ], [ 78.336566009108083, 17.411246344189582 ], [ 78.334726290448799, 17.411567600959646 ], [ 78.333467159363508, 17.410133306086571 ], [ 78.334047711764129, 17.408377752274863 ], [ 78.335887398407948, 17.40805646734805 ], [ 78.33714656466573, 17.409490764389822 ] ] ] } },
{ "type": "Feature", "properties": { "h3": "8960a24a51bffff", "built_t1": 0.47583643122676578, "built_t0": 0.4200743494423792, "flood_2020": 0, "low_lying": 0, "construction": 0 }, "geometry": { "type": "Polygon", "coordinates": [ [ [ 78.340924236345231, 17.413793669948582 ], [ 78.34034367126155, 17.415549250095737 ], [ 78.338503856618999, 17.415870500007845 ], [ 78.337244639076786, 17.414436197924221 ], [ 78.337825201007803, 17.412680643757678 ], [ 78.339664983634592, 17.412359365694023 ], [ 78.340924236345231, 17.413793669948582 ] ] ] } },
{ "type": "Feature", "properties": { "h3": "8960a24a523ffff", "built_t1": 0.30855018587360594, "built_t0": 0.15613382899628253, "flood_2020": 0, "low_lying": 1, "construction": 0 }, "geometry": { "type": "Polygon", "coordinates": [ [ [ 78.329207326344388, 17.412531229794045 ], [ 78.328626767517548, 17.414286680363414 ], [ 78.32678717676896, 17.414607816943807 ], [ 78.325528176865618, 17.413173531122993 ], [ 78.326108732526066, 17.411418106545899 ], [ 78.327948291257144, 17.411096941797201 ], [ 78.329207326344388, 17.412531229794045 ] ] ] } },
{ "type": "Feature", "properties": { "h3": "8960a24a527ffff", "built_t1": 0.49446494464944651, "built_t0": 0.25830258302583026, "flood_2020": 0, "low_lying": 1, "construction": 0 }, "geometry": { "type": "Polygon", "coordinates": [ [ [ 78.326108732526066, 17.411418106545899 ], [ 78.325528176865618, 17.413173531122993 ], [ 78.323688650112345, 17.413494646420041 ], [ 78.322429711038197, 17.412060365312534 ], [ 78.323010263528644, 17.410304966731506 ], [ 78.324849758264122, 17.40998382326179 ], [ 78.326108732526066, 17.411418106545899 ] ] ] } },
{ "type": "Feature", "properties": { "h3": "8960a24a52bffff", "built_t1": 0.41417910447761191, "built_t0": 0.11940298507462686, "flood_2020": 0, "low_lying": 1, "construction": 0 }, "geometry": { "type": "Polygon", "coordinates": [ [ [ 78.329885828246631, 17.41572097088893 ], [ 78.329305263044304, 17.417476395815871 ], [ 78.327465640277651, 17.417797504228758 ], [ 78.3262066147323, 17.416363215882107 ], [ 78.32678717676896, 17.414607816943807 ], [ 78.328626767517548, 17.414286680363414 ], [ 78.329885828246631, 17.41572097088893 ] ] ] } },
{ "type": "Feature", "properties": { "h3": "8960a24a52fffff", "built_t1": 0.48134328358208955, "built_t0": 0.10074626865671642, "flood_2020": 0, "low_lying": 0, "construction": 0 }, "geometry": { "type": "Polygon", "coordinates": [ [ [ 78.32678717676896, 17.414607816943807 ], [ 78.3262066147323, 17.416363215882107 ], [ 78.32436705596065, 17.416684303007258 ], [ 78.323108091244933, 17.415250019365871 ], [ 78.323688650112345, 17.413494646420041 ], [ 78.325528176865618, 17.413173531122993 ], [ 78.32678717676896, 17.414607816943807 ] ] ] } },
{ "type": "Feature", "properties": { "h3": "8960a24a533ffff", "built_t1": 0.37218045112781956, "built_t0": 0.052631578947368418, "flood_2020": 0, "low_lying": 1, "construction": 0 }, "geometry": { "type": "Polygon", "coordinates": [ [ [ 78.331627504678821, 17.410454541567798 ], [ 78.331046949063989, 17.412210043761625 ], [ 78.329207326344388, 17.412531229794045 ], [ 78.327948291257144, 17.411096941797201 ], [ 78.328528843708469, 17.409341465595446 ], [ 78.33036843441144, 17.409020251398299 ], [ 78.331627504678821, 17.410454541567798 ] ] ] } },
{ "type": "Feature", "properties": { "h3": "8960a24a537ffff", "built_t1": 0.39405204460966542, "built_t0": 0.26022304832713755, "flood_2020": 0, "low_lying": 1, "construction": 0 }, "geometry": { "type": "Polygon", "coordinates": [ [ [ 78.328528843708469, 17.409341465595446 ], [ 78.327948291257144, 17.411096941797201 ], [ 78.326108732526066, 17.411418106545899 ], [ 78.324849758264122, 17.40998382326179 ], [ 78.325430307548331, 17.408228373055916 ], [ 78.327269834262466, 17.407907180138132 ], [ 78.328528843708469, 17.409341465595446 ] ] ] } },
{ "type": "Feature", "properties": { "h3": "8960a24a53bffff", "built_t1": 0.44237918215613381, "built_t0": 0.089219330855018583, "flood_2020": 0, "low_lying": 1, "construction": 0 }, "geometry": { "type": "Polygon", "coordinates": [ [ [ 78.332306044973052, 17.413644336462628 ], [ 78.33172548298343, 17.41539981302045 ], [ 78.329885828246631, 17.41572097088893 ], [ 78.328626767517548, 17.414286680363414 ], [ 78.329207326344388, 17.412531229794045 ], [ 78.331046949063989, 17.412210043761625 ], [ 78.332306044973052, 17.413644336462628 ] ] ] } },
{ "type": "Feature", "properties": { "h3": "8960a24a543ffff", "built_t1": 0.33333333333333331, "built_t0": 0.21111111111111111, "flood_2020": 0, "low_lying": 1, "construction": 0 }, "geometry": { "type": "Polygon", "coordinates": [ [ [ 78.342281682155971, 17.420173420616823 ], [ 78.341701104327086, 17.421928949460131 ], [ 78.339861225651447, 17.422250143071501 ], [ 78.338601956822359, 17.420815835989355 ], [ 78.339182531500015, 17.419060333119393 ], [ 78.341022378158826, 17.418739111358089 ], [ 78.342281682155971, 17.420173420616823 ] ] ] } },
{ "type": "Feature", "properties": { "h3": "8960a24a547ffff", "built_t1": 0.30111524163568776, "built_t0": 0.15241635687732341, "flood_2020": 0, "low_lying": 0, "construction": 0 }, "geometry": { "type": "Polygon", "coordinates": [ [ [ 78.339182531500015, 17.419060333119393 ], [ 78.338601956822359, 17.420815835989355 ], [ 78.336762142113301, 17.421137008293957 ], [ 78.335502934099935, 17.41970270588283 ], [ 78.336083505622753, 17.417947228990062 ], [ 78.33792328831467, 17.417626028531092 ], [ 78.339182531500015, 17.419060333119393 ] ] ] } },
{ "type": "Feature", "properties": { "h3": "8960a24a54bffff", "built_t1": 0.4200743494423792, "built_t0": 0.52416356877323422, "flood_2020": 0, "low_lying": 1, "construction": 0 }, "geometry": { "type": "Polygon", "coordinates": [ [ [ 78.342960433968372, 17.423363261204727 ], [ 78.342379849766985, 17.425118764381086 ], [ 78.340539939073892, 17.425439929843265 ], [ 78.339280644600507, 17.424005620278113 ], [ 78.339861225651447, 17.422250143071501 ], [ 78.341701104327086, 17.421928949460131 ], [ 78.342960433968372, 17.423363261204727 ] ] ] } },
{ "type": "Feature", "properties": { "h3": "8960a24a54fffff", "built_t1": 0.34074074074074073, "built_t0": 0.30740740740740741, "flood_2020": 0, "low_lying": 0, "construction": 0 }, "geometry": { "type": "Polygon", "coordinates": [ [ [ 78.339861225651447, 17.422250143071501 ], [ 78.339280644600507, 17.424005620278113 ], [ 78.337440797873754, 17.424326764429164 ], [ 78.336181564216488, 17.422892459527013 ], [ 78.336762142113301, 17.421137008293957 ], [ 78.338601956822359, 17.420815835989355 ], [ 78.339861225651447, 17.422250143071501 ] ] ] } },
{ "type": "Feature", "properties": { "h3": "8960a24a553ffff", "built_t1": 0.39405204460966542, "built_t0": 0.2899628252788104, "flood_2020": 0, "low_lying": 0, "construction": 0 }, "geometry": { "type": "Polygon", "coordinates": [ [ [ 78.344702167379182, 17.418096597074925 ], [ 78.344121592774584, 17.419852177548371 ], [ 78.342281682155971, 17.420173420616823 ], [ 78.341022378158826, 17.418739111358089 ], [ 78.341602949615137, 17.416983556857826 ], [ 78.343442828217761, 17.416662285642968 ], [ 78.344702167379182, 17.418096597074925 ] ] ] } },
{ "type": "Feature", "properties": { "h3": "8960a24a557ffff", "built_t1": 0.46268656716417911, "built_t0": 0.47014925373134331, "flood_2020": 0, "low_lying": 1, "construction": 0 }, "geometry": { "type": "Polygon", "coordinates": [ [ [ 78.341602949615137, 17.416983556857826 ], [ 78.341022378158826, 17.418739111358089 ], [ 78.339182531500015, 17.419060333119393 ], [ 78.33792328831467, 17.417626028531092 ], [ 78.338503856618999, 17.415870500007845 ], [ 78.34034367126155, 17.415549250095737 ], [ 78.341602949615137, 17.416983556857826 ] ] ] } },
{ "type": "Feature", "properties": { "h3": "8960a24a55bffff", "built_t1": 0.52985074626865669, "built_t0": 0.48507462686567165, "flood_2020": 0, "low_lying": 0, "construction": 0 }, "geometry": { "type": "Polygon", "coordinates": [ [ [ 78.345380957579991, 17.421286491468983 ], [ 78.34480037660353, 17.423042046281868 ], [ 78.342960433968372, 17.423363261204727 ], [ 78.341701104327086, 17.421928949460131 ], [ 78.342281682155971, 17.420173420616823 ], [ 78.344121592774584, 17.419852177548371 ], [ 78.345380957579991, 17.421286491468983 ] ] ] } },
{ "type": "Feature", "properties": { "h3": "8960a24a563ffff", "built_t1": 0.43122676579925651, "built_t0": 0.15241635687732341, "flood_2020": 0, "low_lying": 1, "construction": 0 }, "geometry": { "type": "Polygon", "coordinates": [ [ [ 78.333663183364564, 17.420023856885443 ], [ 78.333082608625446, 17.42177928214112 ], [ 78.331242889852589, 17.422100383684171 ], [ 78.329983777838024, 17.420666088133736 ], [ 78.330564349415823, 17.41891068885926 ], [ 78.332404036170374, 17.41858955915389 ], [ 78.333663183364564, 17.420023856885443 ] ] ] } },
{ "type": "Feature", "properties": { "h3": "8960a24a567ffff", "built_t1": 0.13333333333333333, "built_t0": 0.040740740740740744, "flood_2020": 0, "low_lying": 1, "construction": 0 }, "geometry": { "type": "Polygon", "coordinates": [ [ [ 78.330564349415823, 17.41891068885926 ], [ 78.329983777838024, 17.420666088133736 ], [ 78.32814412305278, 17.420987168379938 ], [ 78.326885071864808, 17.419552877518228 ], [ 78.327465640277651, 17.417797504228758 ], [ 78.329305263044304, 17.417476395815871 ], [ 78.330564349415823, 17.41891068885926 ] ] ] } },
{ "type": "Feature", "properties": { "h3": "8960a24a56bffff", "built_t1": 0.30223880597014924, "built_t0": 0.12686567164179105, "flood_2020": 0, "low_lying": 0, "construction": 0 }, "geometry": { "type": "Polygon", "coordinates": [ [ [ 78.334341781463095, 17.42321358237168 ], [ 78.333761200349301, 17.424968981961239 ], [ 78.331921449557555, 17.425290055342781 ], [ 78.330662311899374, 17.42385575729616 ], [ 78.331242889852589, 17.422100383684171 ], [ 78.333082608625446, 17.42177928214112 ], [ 78.334341781463095, 17.42321358237168 ] ] ] } },
{ "type": "Feature", "properties": { "h3": "8960a24a56fffff", "built_t1": 0.46468401486988847, "built_t0": 0.3903345724907063, "flood_2020": 0, "low_lying": 1, "construction": 0 }, "geometry": { "type": "Polygon", "coordinates": [ [ [ 78.331242889852589, 17.422100383684171 ], [ 78.330662311899374, 17.42385575729616 ], [ 78.328822625094929, 17.424176809376451 ], [ 78.327563548263754, 17.42274251601053 ], [ 78.32814412305278, 17.420987168379938 ], [ 78.329983777838024, 17.420666088133736 ], [ 78.331242889852589, 17.422100383684171 ] ] ] } },
{ "type": "Feature", "properties": { "h3": "8960a24a573ffff", "built_t1": 0.7752808988764045, "built_t0": 0.11610486891385768, "flood_2020": 0, "low_lying": 1, "construction": 0 }, "geometry": { "type": "Polygon", "coordinates": [ [ [ 78.336083505622753, 17.417947228990062 ], [ 78.335502934099935, 17.41970270588283 ], [ 78.333663183364564, 17.420023856885443 ], [ 78.332404036170374, 17.41858955915389 ], [ 78.332984604534758, 17.416834108242131 ], [ 78.334824323252661, 17.416512929080785 ], [ 78.336083505622753, 17.417947228990062 ] ] ] } },
{ "type": "Feature", "properties": { "h3": "8960a24a577ffff", "built_t1": 0.44981412639405205, "built_t0": 0.03717472118959108, "flood_2020": 0, "low_lying": 1, "construction": 0 }, "geometry": { "type": "Polygon", "coordinates": [ [ [ 78.332984604534758, 17.416834108242131 ], [ 78.332404036170374, 17.41858955915389 ], [ 78.330564349415823, 17.41891068885926 ], [ 78.329305263044304, 17.417476395815871 ], [ 78.329885828246631, 17.41572097088893 ], [ 78.33172548298343, 17.41539981302045 ], [ 78.332984604534758, 17.416834108242131 ] ] ] } },
{ "type": "Feature", "properties": { "h3": "8960a24a57bffff", "built_t1": 0.21348314606741572, "built_t0": 0.07116104868913857, "flood_2020": 0, "low_lying": 0, "construction": 0 }, "geometry": { "type": "Polygon", "coordinates": [ [ [ 78.336762142113301, 17.421137008293957 ], [ 78.336181564216488, 17.422892459527013 ], [ 78.334341781463095, 17.42321358237168 ], [ 78.333082608625446, 17.42177928214112 ], [ 78.333663183364564, 17.420023856885443 ], [ 78.335502934099935, 17.41970270588283 ], [ 78.336762142113301, 17.421137008293957 ] ] ] } },
{ "type": "Feature", "properties": { "h3": "8960a24a583ffff", "built_t1": 0.65799256505576209, "built_t0": 0.27881040892193309, "flood_2020": 0, "low_lying": 0, "construction": 0 }, "geometry": { "type": "Polygon", "coordinates": [ [ [ 78.341987199290656, 17.405336788088782 ], [ 78.341406650173766, 17.407092471104118 ], [ 78.33956686761573, 17.407413826762916 ], [ 78.338307666189209, 17.405979527555846 ], [ 78.33888821215487, 17.40422387052821 ], [ 78.340727962699177, 17.403902486719833 ], [ 78.341987199290656, 17.405336788088782 ] ] ] } },
{ "type": "Feature", "properties": { "h3": "8960a24a587ffff", "built_t1": 0.6179775280898876, "built_t0": 0.38576779026217228, "flood_2020": 0, "low_lying": 1, "construction": 0 }, "geometry": { "type": "Polygon", "coordinates": [ [ [ 78.33888821215487, 17.40422387052821 ], [ 78.338307666189209, 17.405979527555846 ], [ 78.336467947592183, 17.406300861925065 ], [ 78.335208806975743, 17.40486656742047 ], [ 78.335789349786538, 17.403110936384344 ], [ 78.33762903636952, 17.402789573861149 ], [ 78.33888821215487, 17.40422387052821 ] ] ] } },
{ "type": "Feature", "properties": { "h3": "8960a24a58bffff", "built_t1": 0.86245353159851301, "built_t0": 0.52416356877323422, "flood_2020": 0, "low_lying": 0, "construction": 0 }, "geometry": { "type": "Polygon", "coordinates": [ [ [ 78.342665912406872, 17.408526775005079 ], [ 78.342085356917977, 17.410282432399978 ], [ 78.340245542345627, 17.410603759909996 ], [ 78.338986315277367, 17.409169458173768 ], [ 78.33956686761573, 17.407413826762916 ], [ 78.341406650173766, 17.407092471104118 ], [ 78.342665912406872, 17.408526775005079 ] ] ] } },
{ "type": "Feature", "properties": { "h3": "8960a24a58fffff", "built_t1": 0.63940520446096649, "built_t0": 0.36802973977695169, "flood_2020": 0, "low_lying": 0, "construction": 0 }, "geometry": { "type": "Polygon", "coordinates": [ [ [ 78.33956686761573, 17.407413826762916 ], [ 78.338986315277367, 17.409169458173768 ], [ 78.33714656466573, 17.409490764389822 ], [ 78.335887398407948, 17.40805646734805 ], [ 78.336467947592183, 17.406300861925065 ], [ 78.338307666189209, 17.405979527555846 ], [ 78.33956686761573, 17.407413826762916 ] ] ] } },
{ "type": "Feature", "properties": { "h3": "8960a24a593ffff", "built_t1": 0.32713754646840149, "built_t0": 0.22676579925650558, "flood_2020": 0, "low_lying": 1, "construction": 0 }, "geometry": { "type": "Polygon", "coordinates": [ [ [ 78.344407559682423, 17.403259648377258 ], [ 78.343827013789181, 17.405015382990442 ], [ 78.341987199290656, 17.405336788088782 ], [ 78.340727962699177, 17.403902486719833 ], [ 78.341308505444047, 17.402146778094124 ], [ 78.343148287929679, 17.401825344849783 ], [ 78.344407559682423, 17.403259648377258 ] ] ] } },
{ "type": "Feature", "properties": { "h3": "8960a24a597ffff", "built_t1": 0.49814126394052044, "built_t0": 0.51672862453531598, "flood_2020": 0, "low_lying": 1, "construction": 0 }, "geometry": { "type": "Polygon", "coordinates": [ [ [ 78.341308505444047, 17.402146778094124 ], [ 78.340727962699177, 17.403902486719833 ], [ 78.33888821215487, 17.40422387052821 ], [ 78.33762903636952, 17.402789573861149 ], [ 78.338209575962409, 17.401033891226774 ], [ 78.340049294493525, 17.40071247926798 ], [ 78.341308505444047, 17.402146778094124 ] ] ] } },
{ "type": "Feature", "properties": { "h3": "8960a24a59bffff", "built_t1": 0.62592592592592589, "built_t0": 0.13703703703703704, "flood_2020": 0, "low_lying": 0, "construction": 0 }, "geometry": { "type": "Polygon", "coordinates": [ [ [ 78.345086311183337, 17.406449689052749 ], [ 78.344505758918814, 17.40820539805193 ], [ 78.342665912406872, 17.408526775005079 ], [ 78.341406650173766, 17.407092471104118 ], [ 78.341987199290656, 17.405336788088782 ], [ 78.343827013789181, 17.405015382990442 ], [ 78.345086311183337, 17.406449689052749 ] ] ] } },
{ "type": "Feature", "properties": { "h3": "8960a24a5a3ffff", "built_t1": 0.61992619926199266, "built_t0": 0.55719557195571956, "flood_2020": 0, "low_lying": 1, "construction": 0 }, "geometry": { "type": "Polygon", "coordinates": [ [ [ 78.333369152346833, 17.405187880504847 ], [ 78.332788606320335, 17.406943459936134 ], [ 78.330948983651425, 17.407264723578482 ], [ 78.32968993902513, 17.405830435951351 ], [ 78.330270481890267, 17.404074882515587 ], [ 78.332110072543941, 17.403753590711286 ], [ 78.333369152346833, 17.405187880504847 ] ] ] } },
{ "type": "Feature", "properties": { "h3": "8960a24a5a7ffff", "built_t1": 0.55762081784386619, "built_t0": 0.3903345724907063, "flood_2020": 0, "low_lying": 1, "construction": 0 }, "geometry": { "type": "Polygon", "coordinates": [ [ [ 78.330270481890267, 17.404074882515587 ], [ 78.32968993902513, 17.405830435951351 ], [ 78.327850380338234, 17.406151678314007 ], [ 78.326591396532891, 17.404717395407054 ], [ 78.327171936233057, 17.402961867970603 ], [ 78.329011462904418, 17.402640597441646 ], [ 78.330270481890267, 17.404074882515587 ] ] ] } },
{ "type": "Feature", "properties": { "h3": "8960a24a5abffff", "built_t1": 0.11152416356877323, "built_t0": 0.033457249070631967, "flood_2020": 0, "low_lying": 1, "construction": 0 }, "geometry": { "type": "Polygon", "coordinates": [ [ [ 78.334047711764129, 17.408377752274863 ], [ 78.333467159363508, 17.410133306086571 ], [ 78.331627504678821, 17.410454541567798 ], [ 78.33036843441144, 17.409020251398299 ], [ 78.330948983651425, 17.407264723578482 ], [ 78.332788606320335, 17.406943459936134 ], [ 78.334047711764129, 17.408377752274863 ] ] ] } },
{ "type": "Feature", "properties": { "h3": "8960a24a5afffff", "built_t1": 0.55390334572490707, "built_t0": 0.32713754646840149, "flood_2020": 0, "low_lying": 1, "construction": 0 }, "geometry": { "type": "Polygon", "coordinates": [ [ [ 78.330948983651425, 17.407264723578482 ], [ 78.33036843441144, 17.409020251398299 ], [ 78.328528843708469, 17.409341465595446 ], [ 78.327269834262466, 17.407907180138132 ], [ 78.327850380338234, 17.406151678314007 ], [ 78.32968993902513, 17.405830435951351 ], [ 78.330948983651425, 17.407264723578482 ] ] ] } },
{ "type": "Feature", "properties": { "h3": "8960a24a5b3ffff", "built_t1": 0.6988847583643123, "built_t0": 0.46096654275092935, "flood_2020": 0, "low_lying": 1, "construction": 0 }, "geometry": { "type": "Polygon", "coordinates": [ [ [ 78.335789349786538, 17.403110936384344 ], [ 78.335208806975743, 17.40486656742047 ], [ 78.333369152346833, 17.405187880504847 ], [ 78.332110072543941, 17.403753590711286 ], [ 78.332690612196274, 17.401997985670469 ], [ 78.334530234810828, 17.401676644427752 ], [ 78.335789349786538, 17.403110936384344 ] ] ] } },
{ "type": "Feature", "properties": { "h3": "8960a24a5b7ffff", "built_t1": 0.58208955223880599, "built_t0": 0.32089552238805968, "flood_2020": 0, "low_lying": 1, "construction": 0 }, "geometry": { "type": "Polygon", "coordinates": [ [ [ 78.332690612196274, 17.401997985670469 ], [ 78.332110072543941, 17.403753590711286 ], [ 78.330270481890267, 17.404074882515587 ], [ 78.329011462904418, 17.402640597441646 ], [ 78.329591999394651, 17.400885018399954 ], [ 78.331431558033685, 17.40056369843294 ], [ 78.332690612196274, 17.401997985670469 ] ] ] } },
{ "type": "Feature", "properties": { "h3": "8960a24a5bbffff", "built_t1": 0.67910447761194026, "built_t0": 0.26119402985074625, "flood_2020": 0, "low_lying": 1, "construction": 0 }, "geometry": { "type": "Polygon", "coordinates": [ [ [ 78.336467947592183, 17.406300861925065 ], [ 78.335887398407948, 17.40805646734805 ], [ 78.334047711764129, 17.408377752274863 ], [ 78.332788606320335, 17.406943459936134 ], [ 78.333369152346833, 17.405187880504847 ], [ 78.335208806975743, 17.40486656742047 ], [ 78.336467947592183, 17.406300861925065 ] ] ] } },
{ "type": "Feature", "properties": { "h3": "8960a24a5c3ffff", "built_t1": 0.19776119402985073, "built_t0": 0.15671641791044777, "flood_2020": 0, "low_lying": 0, "construction": 0 }, "geometry": { "type": "Polygon", "coordinates": [ [ [ 78.346443871998019, 17.412829701112816 ], [ 78.345863306991006, 17.414585358853877 ], [ 78.344023396450496, 17.41490667951901 ], [ 78.342764082932447, 17.413472370586568 ], [ 78.343344644793262, 17.411716738822104 ], [ 78.345184523319219, 17.411395390013364 ], [ 78.346443871998019, 17.412829701112816 ] ] ] } },
{ "type": "Feature", "properties": { "h3": "8960a24a5c7ffff", "built_t1": 0.6278195488721805, "built_t0": 0.35338345864661652, "flood_2020": 0, "low_lying": 0, "construction": 0 }, "geometry": { "type": "Polygon", "coordinates": [ [ [ 78.343344644793262, 17.411716738822104 ], [ 78.342764082932447, 17.413472370586568 ], [ 78.340924236345231, 17.413793669948582 ], [ 78.339664983634592, 17.412359365694023 ], [ 78.340245542345627, 17.410603759909996 ], [ 78.342085356917977, 17.410282432399978 ], [ 78.343344644793262, 17.411716738822104 ] ] ] } },
{ "type": "Feature", "properties": { "h3": "8960a24a5cbffff", "built_t1": 0.40892193308550184, "built_t0": 0.35687732342007433, "flood_2020": 0, "low_lying": 0, "construction": 0 }, "geometry": { "type": "Polygon", "coordinates": [ [ [ 78.347122681312996, 17.416019672455651 ], [ 78.346542109934816, 17.417775304552602 ], [ 78.344702167379182, 17.418096597074925 ], [ 78.343442828217761, 17.416662285642968 ], [ 78.344023396450496, 17.41490667951901 ], [ 78.345863306991006, 17.414585358853877 ], [ 78.347122681312996, 17.416019672455651 ] ] ] } },
{ "type": "Feature", "properties": { "h3": "8960a24a5cfffff", "built_t1": 0.49629629629629629, "built_t0": 0.33333333333333331, "flood_2020": 0, "low_lying": 0, "construction": 0 }, "geometry": { "type": "Polygon", "coordinates": [ [ [ 78.344023396450496, 17.41490667951901 ], [ 78.343442828217761, 17.416662285642968 ], [ 78.341602949615137, 17.416983556857826 ], [ 78.34034367126155, 17.415549250095737 ], [ 78.340924236345231, 17.413793669948582 ], [ 78.342764082932447, 17.413472370586568 ], [ 78.344023396450496, 17.41490667951901 ] ] ] } },
{ "type": "Feature", "properties": { "h3": "8960a24a5d3ffff", "built_t1": 0.37174721189591076, "built_t0": 0.47583643122676578, "flood_2020": 0, "low_lying": 0, "construction": 0 }, "geometry": { "type": "Polygon", "coordinates": [ [ [ 78.348864376249523, 17.410752621649049 ], [ 78.348283814470449, 17.412508331000598 ], [ 78.346443871998019, 17.412829701112816 ], [ 78.345184523319219, 17.411395390013364 ], [ 78.345765081955008, 17.409639706638217 ], [ 78.34760499241375, 17.409318308385981 ], [ 78.348864376249523, 17.410752621649049 ] ] ] } },
{ "type": "Feature", "properties": { "h3": "8960a24a5d7ffff", "built_t1": 0.71747211895910779, "built_t0": 0.17843866171003717, "flood_2020": 0, "low_lying": 0, "construction": 0 }, "geometry": { "type": "Polygon", "coordinates": [ [ [ 78.345765081955008, 17.409639706638217 ], [ 78.345184523319219, 17.411395390013364 ], [ 78.343344644793262, 17.411716738822104 ], [ 78.342085356917977, 17.410282432399978 ], [ 78.342665912406872, 17.408526775005079 ], [ 78.344505758918814, 17.40820539805193 ], [ 78.345765081955008, 17.409639706638217 ] ] ] } },
{ "type": "Feature", "properties": { "h3": "8960a24a5dbffff", "built_t1": 0.71111111111111114, "built_t0": 0.21481481481481482, "flood_2020": 0, "low_lying": 1, "construction": 0 }, "geometry": { "type": "Polygon", "coordinates": [ [ [ 78.349543223949269, 17.413942646768788 ], [ 78.34896265579971, 17.415698330482673 ], [ 78.347122681312996, 17.416019672455651 ], [ 78.345863306991006, 17.414585358853877 ], [ 78.346443871998019, 17.412829701112816 ], [ 78.348283814470449, 17.412508331000598 ], [ 78.349543223949269, 17.413942646768788 ] ] ] } },
{ "type": "Feature", "properties": { "h3": "8960a258b2bffff", "built_t1": 0.059479553903345722, "built_t0": 0.089219330855018583, "flood_2020": 0, "low_lying": 1, "construction": 0 }, "geometry": { "type": "Polygon", "coordinates": [ [ [ 78.346827948782874, 17.401182407638121 ], [ 78.346247406115481, 17.40293819384258 ], [ 78.344407559682423, 17.403259648377258 ], [ 78.343148287929679, 17.401825344849783 ], [ 78.343728827451599, 17.400069584632611 ], [ 78.345568641872617, 17.39974810195552 ], [ 78.346827948782874, 17.401182407638121 ] ] ] } },
{ "type": "Feature", "properties": { "h3": "8960a258b2fffff", "built_t1": 0.60833333333333328, "built_t0": 0.5625, "flood_2020": 0, "low_lying": 1, "construction": 0 }, "geometry": { "type": "Polygon", "coordinates": [ [ [ 78.343728827451599, 17.400069584632611 ], [ 78.343148287929679, 17.401825344849783 ], [ 78.341308505444047, 17.402146778094124 ], [ 78.340049294493525, 17.40071247926798 ], [ 78.340629830866362, 17.398956745041946 ], [ 78.342469581339671, 17.398635283650794 ], [ 78.343728827451599, 17.400069584632611 ] ] ] } },
{ "type": "Feature", "properties": { "h3": "8960a258b47ffff", "built_t1": 0.48888888888888887, "built_t0": 0.3, "flood_2020": 0, "low_lying": 1, "construction": 0 }, "geometry": { "type": "Polygon", "coordinates": [ [ [ 78.35612606114681, 17.404520777010443 ], [ 78.355545509064669, 17.406276641153848 ], [ 78.353705470832054, 17.406598159588025 ], [ 78.352446016693577, 17.405163842007937 ], [ 78.353026565641088, 17.403408003840369 ], [ 78.354866571862601, 17.403086457276927 ], [ 78.35612606114681, 17.404520777010443 ] ] ] } },
{ "type": "Feature", "properties": { "h3": "8960a258b4bffff", "built_t1": 0.69776119402985071, "built_t0": 0.55597014925373134, "flood_2020": 0, "low_lying": 1, "construction": 0 }, "geometry": { "type": "Polygon", "coordinates": [ [ [ 78.359904701854475, 17.408823750563148 ], [ 78.359324140273642, 17.410579615056456 ], [ 78.357484006110724, 17.410901126675881 ], [ 78.356224465540862, 17.409466801925937 ], [ 78.356805023991413, 17.407710963401016 ], [ 78.358645126143003, 17.407389423657492 ], [ 78.359904701854475, 17.408823750563148 ] ] ] } },
{ "type": "Feature", "properties": { "h3": "8960a258b4fffff", "built_t1": 0.66791044776119401, "built_t0": 0.52985074626865669, "flood_2020": 0, "low_lying": 1, "construction": 0 }, "geometry": { "type": "Polygon", "coordinates": [ [ [ 78.356805023991413, 17.407710963401016 ], [ 78.356224465540862, 17.409466801925937 ], [ 78.354384395296606, 17.409788292231664 ], [ 78.353124915515409, 17.408353972140752 ], [ 78.353705470832054, 17.406598159588025 ], [ 78.355545509064669, 17.406276641153848 ], [ 78.356805023991413, 17.407710963401016 ] ] ] } },
{ "type": "Feature", "properties": { "h3": "8960a258b63ffff", "built_t1": 0.22761194029850745, "built_t0": 0.16044776119402984, "flood_2020": 0, "low_lying": 1, "construction": 0 }, "geometry": { "type": "Polygon", "coordinates": [ [ [ 78.350606042387042, 17.405485339137527 ], [ 78.350025490207912, 17.407241125714226 ], [ 78.348185547822297, 17.407562573406764 ], [ 78.346926189628959, 17.406128262659678 ], [ 78.347506738666951, 17.404372502062838 ], [ 78.349346649040299, 17.404051026233066 ], [ 78.350606042387042, 17.405485339137527 ] ] ] } },
{ "type": "Feature", "properties": { "h3": "8960a258b67ffff", "built_t1": 0.43656716417910446, "built_t0": 0.16417910447761194, "flood_2020": 0, "low_lying": 1, "construction": 0 }, "geometry": { "type": "Polygon", "coordinates": [ [ [ 78.347506738666951, 17.404372502062838 ], [ 78.346926189628959, 17.406128262659678 ], [ 78.345086311183337, 17.406449689052749 ], [ 78.343827013789181, 17.405015382990442 ], [ 78.344407559682423, 17.403259648377258 ], [ 78.346247406115481, 17.40293819384258 ], [ 78.347506738666951, 17.404372502062838 ] ] ] } },
{ "type": "Feature", "properties": { "h3": "8960a258b6bffff", "built_t1": 0.74721189591078063, "built_t0": 0.61710037174721188, "flood_2020": 0, "low_lying": 0, "construction": 0 }, "geometry": { "type": "Polygon", "coordinates": [ [ [ 78.351284909196906, 17.4086754411375 ], [ 78.350704350647959, 17.410431202092941 ], [ 78.348864376249523, 17.410752621649049 ], [ 78.34760499241375, 17.409318308385981 ], [ 78.348185547822297, 17.407562573406764 ], [ 78.350025490207912, 17.407241125714226 ], [ 78.351284909196906, 17.4086754411375 ] ] ] } },
{ "type": "Feature", "properties": { "h3": "8960a258b6fffff", "built_t1": 0.46096654275092935, "built_t0": 0.48327137546468402, "flood_2020": 0, "low_lying": 0, "construction": 0 }, "geometry": { "type": "Polygon", "coordinates": [ [ [ 78.348185547822297, 17.407562573406764 ], [ 78.34760499241375, 17.409318308385981 ], [ 78.345765081955008, 17.409639706638217 ], [ 78.344505758918814, 17.40820539805193 ], [ 78.345086311183337, 17.406449689052749 ], [ 78.346926189628959, 17.406128262659678 ], [ 78.348185547822297, 17.407562573406764 ] ] ] } },
{ "type": "Feature", "properties": { "h3": "8960a258b73ffff", "built_t1": 0.54477611940298509, "built_t0": 0.65298507462686572, "flood_2020": 0, "low_lying": 1, "construction": 0 }, "geometry": { "type": "Polygon", "coordinates": [ [ [ 78.353026565641088, 17.403408003840369 ], [ 78.352446016693577, 17.405163842007937 ], [ 78.350606042387042, 17.405485339137527 ], [ 78.349346649040299, 17.404051026233066 ], [ 78.349927194849556, 17.402295214045143 ], [ 78.351767137144705, 17.401973688781915 ], [ 78.353026565641088, 17.403408003840369 ] ] ] } },
{ "type": "Feature", "properties": { "h3": "8960a258b77ffff", "built_t1": 0.41851851851851851, "built_t0": 0.52592592592592591, "flood_2020": 0, "low_lying": 1, "construction": 0 }, "geometry": { "type": "Polygon", "coordinates": [ [ [ 78.349927194849556, 17.402295214045143 ], [ 78.349346649040299, 17.404051026233066 ], [ 78.347506738666951, 17.404372502062838 ], [ 78.346247406115481, 17.40293819384258 ], [ 78.346827948782874, 17.401182407638121 ], [ 78.348667827144496, 17.400860903670342 ], [ 78.349927194849556, 17.402295214045143 ] ] ] } },
{ "type": "Feature", "properties": { "h3": "8960a258b7bffff", "built_t1": 0.84386617100371752, "built_t0": 0.81040892193308545, "flood_2020": 0, "low_lying": 1, "construction": 0 }, "geometry": { "type": "Polygon", "coordinates": [ [ [ 78.353705470832054, 17.406598159588025 ], [ 78.353124915515409, 17.408353972140752 ], [ 78.351284909196906, 17.4086754411375 ], [ 78.350025490207912, 17.407241125714226 ], [ 78.350606042387042, 17.405485339137527 ], [ 78.352446016693577, 17.405163842007937 ], [ 78.353705470832054, 17.406598159588025 ] ] ] } }
]
}
