{
"type": "FeatureCollection",
"name": "HYD-003_cells",
"crs": { "type": "name", "properties": { "name": "urn:ogc:def:crs:OGC:1.3:CRS84" } },
"features": [
{ "type": "Feature", "properties": { "h3": "8960a24a603ffff", "built_t1": 0.73880597014925375, "built_t0": 0.69029850746268662, "flood_2020": 0, "low_lying": 1, "construction": 0 }, "geometry": { "type": "Polygon", "coordinates": [ [ [ 78.364274887551744, 17.442801483470699 ], [ 78.36369425905113, 17.444557039530142 ], [ 78.361853836641743, 17.444878220475534 ], [ 78.360594074751674, 17.443443873480984 ], [ 78.361174700126455, 17.441688343353864 ], [ 78.363015090518019, 17.441367134288818 ], [ 78.364274887551744, 17.442801483470699 ] ] ] } },
{ "type": "Feature", "properties": { "h3": "8960a24a607ffff", "built_t1": 0.52788104089219334, "built_t0": 0.4795539033457249, "flood_2020": 0, "low_lying": 1, "construction": 0 }, "geometry": { "type": "Polygon", "coordinates": [ [ [ 78.361174700126455, 17.441688343353864 ], [ 78.360594074751674, 17.443443873480984 ], [ 78.358753716264687, 17.443765033069159 ], [ 78.357494015171454, 17.442330690654106 ], [ 78.358074637416735, 17.440575186463128 ], [ 78.359914963885615, 17.440253998750904 ], [ 78.361174700126455, 17.441688343353864 ] ] ] } },
{ "type": "Feature", "properties": { "h3": "8960a24a60bffff", "built_t1": 0.71375464684014867, "built_t0": 0.620817843866171, "flood_2020": 0, "low_lying": 0, "construction": 0 }, "geometry": { "type": "Polygon", "coordinates": [ [ [ 78.36495408173451, 17.445991391095614 ], [ 78.364373446865912, 17.447746921416197 ], [ 78.362532992438176, 17.448068074242737 ], [ 78.361273204898268, 17.446633724867407 ], [ 78.361853836641743, 17.444878220475534 ], [ 78.36369425905113, 17.444557039530142 ], [ 78.36495408173451, 17.445991391095614 ] ] ] } },
{ "type": "Feature", "properties": { "h3": "8960a24a60fffff", "built_t1": 0.27611940298507465, "built_t0": 0.23880597014925373, "flood_2020": 0, "low_lying": 1, "construction": 0 }, "geometry": { "type": "Polygon", "coordinates": [ [ [ 78.361853836641743, 17.444878220475534 ], [ 78.361273204898268, 17.446633724867407 ], [ 78.359432814392605, 17.446954856332344 ], [ 78.358173087649959, 17.445520511528507 ], [ 78.358753716264687, 17.443765033069159 ], [ 78.360594074751674, 17.443443873480984 ], [ 78.361853836641743, 17.444878220475534 ] ] ] } },
{ "type": "Feature", "properties": { "h3": "8960a24a613ffff", "built_t1": 0.71747211895910779, "built_t0": 0.7397769516728625, "flood_2020": 0, "low_lying": 1, "construction": 0 }, "geometry": { "type": "Polygon", "coordinates": [ [ [ 78.366695967114495, 17.440724645327659 ], [ 78.366115341858901, 17.442480253048089 ], [ 78.364274887551744, 17.442801483470699 ], [ 78.363015090518019, 17.441367134288818 ], [ 78.36359571265065, 17.439611552500519 ], [ 78.365436134940836, 17.439290293961832 ], [ 78.366695967114495, 17.440724645327659 ] ] ] } },
{ "type": "Feature", "properties": { "h3": "8960a24a617ffff", "built_t1": 0.51481481481481484, "built_t0": 0.42962962962962964, "flood_2020": 0, "low_lying": 1, "construction": 0 }, "geometry": { "type": "Polygon", "coordinates": [ [ [ 78.36359571265065, 17.439611552500519 ], [ 78.363015090518019, 17.441367134288818 ], [ 78.361174700126455, 17.441688343353864 ], [ 78.359914963885615, 17.440253998750904 ], [ 78.360495582891645, 17.438498442898556 ], [ 78.362335941265968, 17.438177205713068 ], [ 78.36359571265065, 17.439611552500519 ] ] ] } },
{ "type": "Feature", "properties": { "h3": "8960a24a61bffff", "built_t1": 0.45724907063197023, "built_t0": 0.3903345724907063, "flood_2020": 0, "low_lying": 0, "construction": 0 }, "geometry": { "type": "Polygon", "coordinates": [ [ [ 78.36737519968203, 17.443914606800313 ], [ 78.366794568059177, 17.445670188788274 ], [ 78.36495408173451, 17.445991391095614 ], [ 78.36369425905113, 17.444557039530142 ], [ 78.364274887551744, 17.442801483470699 ], [ 78.366115341858901, 17.442480253048089 ], [ 78.36737519968203, 17.443914606800313 ] ] ] } },
{ "type": "Feature", "properties": { "h3": "8960a24a643ffff", "built_t1": 0.62313432835820892, "built_t0": 0.64552238805970152, "flood_2020": 0, "low_lying": 0, "construction": 0 }, "geometry": { "type": "Polygon", "coordinates": [ [ [ 78.36873372266615, 17.45029445965411 ], [ 78.368153078308822, 17.452049990147028 ], [ 78.3663125279475, 17.452371136226255 ], [ 78.365052653963019, 17.45093677992611 ], [ 78.365633295199558, 17.449181275354448 ], [ 78.367473813542247, 17.448860101161543 ], [ 78.36873372266615, 17.45029445965411 ] ] ] } },
{ "type": "Feature", "properties": { "h3": "8960a24a647ffff", "built_t1": 0.62825278810408924, "built_t0": 0.61338289962825276, "flood_2020": 0, "low_lying": 0, "construction": 0 }, "geometry": { "type": "Polygon", "coordinates": [ [ [ 78.365633295199558, 17.449181275354448 ], [ 78.365052653963019, 17.45093677992611 ], [ 78.363212167516338, 17.451257904634591 ], [ 78.361952354326021, 17.449823552889317 ], [ 78.362532992438176, 17.448068074242737 ], [ 78.364373446865912, 17.447746921416197 ], [ 78.365633295199558, 17.449181275354448 ] ] ] } },
{ "type": "Feature", "properties": { "h3": "8960a24a64bffff", "built_t1": 0.07434944237918216, "built_t0": 0.14869888475836432, "flood_2020": 0, "low_lying": 0, "construction": 0 }, "geometry": { "type": "Polygon", "coordinates": [ [ [ 78.369413013083971, 17.453484350993502 ], [ 78.36883236235947, 17.455239855723871 ], [ 78.366991779978989, 17.455560973690247 ], [ 78.365731880343063, 17.454126615038994 ], [ 78.3663125279475, 17.452371136226255 ], [ 78.368153078308822, 17.452049990147028 ], [ 78.369413013083971, 17.453484350993502 ] ] ] } },
{ "type": "Feature", "properties": { "h3": "8960a24a64fffff", "built_t1": 0.57249070631970256, "built_t0": 0.57249070631970256, "flood_2020": 0, "low_lying": 0, "construction": 0 }, "geometry": { "type": "Polygon", "coordinates": [ [ [ 78.3663125279475, 17.452371136226255 ], [ 78.365731880343063, 17.454126615038994 ], [ 78.363891361876895, 17.454447711630255 ], [ 78.36263152303556, 17.453013357525865 ], [ 78.363212167516338, 17.451257904634591 ], [ 78.365052653963019, 17.45093677992611 ], [ 78.3663125279475, 17.452371136226255 ] ] ] } },
{ "type": "Feature", "properties": { "h3": "8960a24a653ffff", "built_t1": 0.58736059479553904, "built_t0": 0.65427509293680297, "flood_2020": 0, "low_lying": 0, "construction": 0 }, "geometry": { "type": "Polygon", "coordinates": [ [ [ 78.371154946024674, 17.448217681923587 ], [ 78.370574304916659, 17.44997326409009 ], [ 78.36873372266615, 17.45029445965411 ], [ 78.367473813542247, 17.448860101161543 ], [ 78.368054451532373, 17.447104544916083 ], [ 78.36989500176513, 17.446783321241998 ], [ 78.371154946024674, 17.448217681923587 ] ] ] } },
{ "type": "Feature", "properties": { "h3": "8960a24a657ffff", "built_t1": 0.13754646840148699, "built_t0": 0.11895910780669144, "flood_2020": 0, "low_lying": 0, "construction": 0 }, "geometry": { "type": "Polygon", "coordinates": [ [ [ 78.368054451532373, 17.447104544916083 ], [ 78.367473813542247, 17.448860101161543 ], [ 78.365633295199558, 17.449181275354448 ], [ 78.364373446865912, 17.447746921416197 ], [ 78.36495408173451, 17.445991391095614 ], [ 78.366794568059177, 17.445670188788274 ], [ 78.368054451532373, 17.447104544916083 ] ] ] } },
{ "type": "Feature", "properties": { "h3": "8960a24a65bffff", "built_t1": 0.34444444444444444, "built_t0": 0.3925925925925926, "flood_2020": 0, "low_lying": 0, "construction": 0 }, "geometry": { "type": "Polygon", "coordinates": [ [ [ 78.371834274827293, 17.451407627128415 ], [ 78.3712536273528, 17.453163183538759 ], [ 78.369413013083971, 17.453484350993502 ], [ 78.368153078308822, 17.452049990147028 ], [ 78.36873372266615, 17.45029445965411 ], [ 78.370574304916659, 17.44997326409009 ], [ 78.371834274827293, 17.451407627128415 ] ] ] } },
{ "type": "Feature", "properties": { "h3": "8960a24a663ffff", "built_t1": 0.25, "built_t0": 0.16417910447761194, "flood_2020": 0, "low_lying": 0, "construction": 0 }, "geometry": { "type": "Polygon", "coordinates": [ [ [ 78.360111931801114, 17.450144656231828 ], [ 78.359531290447634, 17.451900083197842 ], [ 78.35769089983151, 17.452221137053105 ], [ 78.356431182589873, 17.450786792068236 ], [ 78.357011820812446, 17.449031391031323 ], [ 78.358852179408473, 17.448710309050028 ], [ 78.360111931801114, 17.450144656231828 ] ] ] } },
{ "type": "Feature", "properties": { "h3": "8960a24a66bffff", "built_t1": 0.0, "built_t0": 0.0037174721189591076, "flood_2020": 0, "low_lying": 0, "construction": 0 }, "geometry": { "type": "Polygon", "coordinates": [ [ [ 78.360791068490869, 17.45333443274675 ], [ 78.360210420768041, 17.45508983395106 ], [ 78.358369998131266, 17.455410859681113 ], [ 78.357110255238851, 17.453976512331948 ], [ 78.35769089983151, 17.452221137053105 ], [ 78.359531290447634, 17.451900083197842 ], [ 78.360791068490869, 17.45333443274675 ] ] ] } },
{ "type": "Feature", "properties": { "h3": "8960a24a673ffff", "built_t1": 0.27715355805243447, "built_t0": 0.28464419475655428, "flood_2020": 0, "low_lying": 0, "construction": 0 }, "geometry": { "type": "Polygon", "coordinates": [ [ [ 78.362532992438176, 17.448068074242737 ], [ 78.361952354326021, 17.449823552889317 ], [ 78.360111931801114, 17.450144656231828 ], [ 78.358852179408473, 17.448710309050028 ], [ 78.359432814392605, 17.446954856332344 ], [ 78.361273204898268, 17.446633724867407 ], [ 78.362532992438176, 17.448068074242737 ] ] ] } },
{ "type": "Feature", "properties": { "h3": "8960a24a677ffff", "built_t1": 0.33457249070631973, "built_t0": 0.15985130111524162, "flood_2020": 0, "low_lying": 1, "construction": 0 }, "geometry": { "type": "Polygon", "coordinates": [ [ [ 78.359432814392605, 17.446954856332344 ], [ 78.358852179408473, 17.448710309050028 ], [ 78.357011820812446, 17.449031391031323 ], [ 78.355752129221003, 17.447597048421581 ], [ 78.356332761073489, 17.445841621636607 ], [ 78.358173087649959, 17.445520511528507 ], [ 78.359432814392605, 17.446954856332344 ] ] ] } },
{ "type": "Feature", "properties": { "h3": "8960a24a67bffff", "built_t1": 0.096296296296296297, "built_t0": 0.1037037037037037, "flood_2020": 0, "low_lying": 0, "construction": 0 }, "geometry": { "type": "Polygon", "coordinates": [ [ [ 78.363212167516338, 17.451257904634591 ], [ 78.36263152303556, 17.453013357525865 ], [ 78.360791068490869, 17.45333443274675 ], [ 78.359531290447634, 17.451900083197842 ], [ 78.360111931801114, 17.450144656231828 ], [ 78.361952354326021, 17.449823552889317 ], [ 78.363212167516338, 17.451257904634591 ] ] ] } },
{ "type": "Feature", "properties": { "h3": "8960a24a683ffff", "built_t1": 0.41851851851851851, "built_t0": 0.47407407407407409, "flood_2020": 0, "low_lying": 1, "construction": 0 }, "geometry": { "type": "Polygon", "coordinates": [ [ [ 78.368437823653764, 17.435457667418987 ], [ 78.367857208012012, 17.437213352509833 ], [ 78.366016753829129, 17.43753466051896 ], [ 78.364756947304372, 17.436100311550394 ], [ 78.365337559825278, 17.434344652395104 ], [ 78.367177981992683, 17.4340233162727 ], [ 78.368437823653764, 17.435457667418987 ] ] ] } },
{ "type": "Feature", "properties": { "h3": "8960a24a687ffff", "built_t1": 0.055970149253731345, "built_t0": 0.048507462686567165, "flood_2020": 0, "low_lying": 1, "construction": 0 }, "geometry": { "type": "Polygon", "coordinates": [ [ [ 78.365337559825278, 17.434344652395104 ], [ 78.364756947304372, 17.436100311550394 ], [ 78.36291655703053, 17.43642159820596 ], [ 78.361656811294324, 17.434987253823767 ], [ 78.362237420690818, 17.433231620607874 ], [ 78.36407777894884, 17.432910305834625 ], [ 78.365337559825278, 17.434344652395104 ] ] ] } },
{ "type": "Feature", "properties": { "h3": "8960a24a68bffff", "built_t1": 0.47565543071161048, "built_t0": 0.5280898876404494, "flood_2020": 0, "low_lying": 1, "construction": 0 }, "geometry": { "type": "Polygon", "coordinates": [ [ [ 78.36911707532181, 17.438647706056198 ], [ 78.368536453313453, 17.440403365431013 ], [ 78.366695967114495, 17.440724645327659 ], [ 78.365436134940836, 17.439290293961832 ], [ 78.366016753829129, 17.43753466051896 ], [ 78.367857208012012, 17.437213352509833 ], [ 78.36911707532181, 17.438647706056198 ] ] ] } },
{ "type": "Feature", "properties": { "h3": "8960a24a68fffff", "built_t1": 0.62825278810408924, "built_t0": 0.61710037174721188, "flood_2020": 0, "low_lying": 1, "construction": 0 }, "geometry": { "type": "Polygon", "coordinates": [ [ [ 78.366016753829129, 17.43753466051896 ], [ 78.365436134940836, 17.439290293961832 ], [ 78.36359571265065, 17.439611552500519 ], [ 78.362335941265968, 17.438177205713068 ], [ 78.36291655703053, 17.43642159820596 ], [ 78.364756947304372, 17.436100311550394 ], [ 78.366016753829129, 17.43753466051896 ] ] ] } },
{ "type": "Feature", "properties": { "h3": "8960a24a693ffff", "built_t1": 0.57777777777777772, "built_t0": 0.57407407407407407, "flood_2020": 0, "low_lying": 1, "construction": 0 }, "geometry": { "type": "Polygon", "coordinates": [ [ [ 78.370858922116426, 17.43338057321041 ], [ 78.370278309723403, 17.435136309942639 ], [ 78.368437823653764, 17.435457667418987 ], [ 78.367177981992683, 17.4340233162727 ], [ 78.367758591267759, 17.43226760547585 ], [ 78.369599045322758, 17.431946219889795 ], [ 78.370858922116426, 17.43338057321041 ] ] ] } },
{ "type": "Feature", "properties": { "h3": "8960a24a697ffff", "built_t1": 0.1449814126394052, "built_t0": 0.28624535315985128, "flood_2020": 0, "low_lying": 1, "construction": 0 }, "geometry": { "type": "Polygon", "coordinates": [ [ [ 78.367758591267759, 17.43226760547585 ], [ 78.367177981992683, 17.4340233162727 ], [ 78.365337559825278, 17.434344652395104 ], [ 78.36407777894884, 17.432910305834625 ], [ 78.364658385102373, 17.431154620976972 ], [ 78.366498775254797, 17.430833256740463 ], [ 78.367758591267759, 17.43226760547585 ] ] ] } },
{ "type": "Feature", "properties": { "h3": "8960a24a69bffff", "built_t1": 0.30483271375464682, "built_t0": 0.31970260223048325, "flood_2020": 0, "low_lying": 1, "construction": 0 }, "geometry": { "type": "Polygon", "coordinates": [ [ [ 78.371538212165603, 17.436570665666167 ], [ 78.370957593406644, 17.43832637668875 ], [ 78.36911707532181, 17.438647706056198 ], [ 78.367857208012012, 17.437213352509833 ], [ 78.368437823653764, 17.435457667418987 ], [ 78.370278309723403, 17.435136309942639 ], [ 78.371538212165603, 17.436570665666167 ] ] ] } },
{ "type": "Feature", "properties": { "h3": "8960a24a6bbffff", "built_t1": 0.31343283582089554, "built_t0": 0.22014925373134328, "flood_2020": 0, "low_lying": 1, "construction": 0 }, "geometry": { "type": "Polygon", "coordinates": [ [ [ 78.36291655703053, 17.43642159820596 ], [ 78.362335941265968, 17.438177205713068 ], [ 78.360495582891645, 17.438498442898556 ], [ 78.35923587229945, 17.437064100698063 ], [ 78.359816484936701, 17.43530851913053 ], [ 78.361656811294324, 17.434987253823767 ], [ 78.36291655703053, 17.43642159820596 ] ] ] } },
{ "type": "Feature", "properties": { "h3": "8960a24a6c3ffff", "built_t1": 0.24535315985130113, "built_t0": 0.13011152416356878, "flood_2020": 0, "low_lying": 0, "construction": 0 }, "geometry": { "type": "Polygon", "coordinates": [ [ [ 78.372896850114245, 17.442950780604093 ], [ 78.372316218623553, 17.44470644017732 ], [ 78.37047563650664, 17.44502771332936 ], [ 78.369215717897632, 17.443593355015363 ], [ 78.36979634627258, 17.44183772136661 ], [ 78.371636896373161, 17.441516420107263 ], [ 78.372896850114245, 17.442950780604093 ] ] ] } },
{ "type": "Feature", "properties": { "h3": "8960a24a6c7ffff", "built_t1": 0.46441947565543074, "built_t0": 0.52434456928838946, "flood_2020": 0, "low_lying": 1, "construction": 0 }, "geometry": { "type": "Polygon", "coordinates": [ [ [ 78.36979634627258, 17.44183772136661 ], [ 78.369215717897632, 17.443593355015363 ], [ 78.36737519968203, 17.443914606800313 ], [ 78.366115341858901, 17.442480253048089 ], [ 78.366695967114495, 17.440724645327659 ], [ 78.368536453313453, 17.440403365431013 ], [ 78.36979634627258, 17.44183772136661 ] ] ] } },
{ "type": "Feature", "properties": { "h3": "8960a24a6cbffff", "built_t1": 0.44237918215613381, "built_t0": 0.46468401486988847, "flood_2020": 0, "low_lying": 0, "construction": 0 }, "geometry": { "type": "Polygon", "coordinates": [ [ [ 78.373576198014959, 17.446140803044514 ], [ 78.372995560158444, 17.447896436878018 ], [ 78.371154946024674, 17.448217681923587 ], [ 78.36989500176513, 17.446783321241998 ], [ 78.37047563650664, 17.44502771332936 ], [ 78.372316218623553, 17.44470644017732 ], [ 78.373576198014959, 17.446140803044514 ] ] ] } },
{ "type": "Feature", "properties": { "h3": "8960a24a6cfffff", "built_t1": 0.055555555555555552, "built_t0": 0.088888888888888892, "flood_2020": 0, "low_lying": 0, "construction": 0 }, "geometry": { "type": "Polygon", "coordinates": [ [ [ 78.37047563650664, 17.44502771332936 ], [ 78.36989500176513, 17.446783321241998 ], [ 78.368054451532373, 17.447104544916083 ], [ 78.366794568059177, 17.445670188788274 ], [ 78.36737519968203, 17.443914606800313 ], [ 78.369215717897632, 17.443593355015363 ], [ 78.37047563650664, 17.44502771332936 ] ] ] } },
{ "type": "Feature", "properties": { "h3": "8960a24a6d3ffff", "built_t1": 0.44609665427509293, "built_t0": 0.16728624535315986, "flood_2020": 0, "low_lying": 0, "construction": 1 }, "geometry": { "type": "Polygon", "coordinates": [ [ [ 78.375318092347001, 17.440873746750047 ], [ 78.37473746410933, 17.442629457977258 ], [ 78.372896850114245, 17.442950780604093 ], [ 78.371636896373161, 17.441516420107263 ], [ 78.372217521497987, 17.439760734804345 ], [ 78.374058103477637, 17.439439384073822 ], [ 78.375318092347001, 17.440873746750047 ] ] ] } },
{ "type": "Feature", "properties": { "h3": "8960a24a6d7ffff", "built_t1": 0.45925925925925926, "built_t0": 0.49629629629629629, "flood_2020": 0, "low_lying": 0, "construction": 0 }, "geometry": { "type": "Polygon", "coordinates": [ [ [ 78.372217521497987, 17.439760734804345 ], [ 78.371636896373161, 17.441516420107263 ], [ 78.36979634627258, 17.44183772136661 ], [ 78.368536453313453, 17.440403365431013 ], [ 78.36911707532181, 17.438647706056198 ], [ 78.370957593406644, 17.43832637668875 ], [ 78.372217521497987, 17.439760734804345 ] ] ] } },
{ "type": "Feature", "properties": { "h3": "8960a24a6dbffff", "built_t1": 0.39776951672862454, "built_t0": 0.24907063197026022, "flood_2020": 0, "low_lying": 0, "construction": 0 }, "geometry": { "type": "Polygon", "coordinates": [ [ [ 78.375997478628861, 17.444063823026717 ], [ 78.375416844026049, 17.4458195085206 ], [ 78.373576198014959, 17.446140803044514 ], [ 78.372316218623553, 17.44470644017732 ], [ 78.372896850114245, 17.442950780604093 ], [ 78.37473746410933, 17.442629457977258 ], [ 78.375997478628861, 17.444063823026717 ] ] ] } },
{ "type": "Feature", "properties": { "h3": "8960a24b4a3ffff", "built_t1": 0.38432835820895522, "built_t0": 0.62313432835820892, "flood_2020": 0, "low_lying": 0, "construction": 0 }, "geometry": { "type": "Polygon", "coordinates": [ [ [ 78.386276524383291, 17.465430188524369 ], [ 78.385695845385968, 17.467185771194035 ], [ 78.383854879503858, 17.46750693992815 ], [ 78.382594624638728, 17.466072554081755 ], [ 78.383175300535598, 17.464316997303357 ], [ 78.385016234398947, 17.46399580047995 ], [ 78.386276524383291, 17.465430188524369 ] ] ] } },
{ "type": "Feature", "properties": { "h3": "8960a24b4a7ffff", "built_t1": 0.51851851851851849, "built_t0": 0.52592592592592591, "flood_2020": 0, "low_lying": 0, "construction": 0 }, "geometry": { "type": "Polygon", "coordinates": [ [ [ 78.383175300535598, 17.464316997303357 ], [ 78.382594624638728, 17.466072554081755 ], [ 78.38075372263468, 17.466393701408155 ], [ 78.379493528547428, 17.464959320049683 ], [ 78.380074201340193, 17.463203789166347 ], [ 78.381915071325182, 17.462882613746288 ], [ 78.383175300535598, 17.464316997303357 ] ] ] } },
{ "type": "Feature", "properties": { "h3": "8960a24b4b3ffff", "built_t1": 0.36802973977695169, "built_t0": 0.059479553903345722, "flood_2020": 0, "low_lying": 1, "construction": 1 }, "geometry": { "type": "Polygon", "coordinates": [ [ [ 78.388698197849365, 17.463353335931405 ], [ 78.388117522117881, 17.465108970292889 ], [ 78.386276524383291, 17.465430188524369 ], [ 78.385016234398947, 17.46399580047995 ], [ 78.385596907032863, 17.462240192009538 ], [ 78.387437872749587, 17.461918945692346 ], [ 78.388698197849365, 17.463353335931405 ] ] ] } },
{ "type": "Feature", "properties": { "h3": "8960a24b4b7ffff", "built_t1": 0.64312267657992561, "built_t0": 0.63940520446096649, "flood_2020": 0, "low_lying": 0, "construction": 0 }, "geometry": { "type": "Polygon", "coordinates": [ [ [ 78.385596907032863, 17.462240192009538 ], [ 78.385016234398947, 17.46399580047995 ], [ 78.383175300535598, 17.464316997303357 ], [ 78.381915071325182, 17.462882613746288 ], [ 78.382495740857891, 17.461127031170765 ], [ 78.384336642703076, 17.460805806257277 ], [ 78.385596907032863, 17.462240192009538 ] ] ] } },
{ "type": "Feature", "properties": { "h3": "8960a24b513ffff", "built_t1": 0.39405204460966542, "built_t0": 0.36059479553903345, "flood_2020": 0, "low_lying": 1, "construction": 0 }, "geometry": { "type": "Polygon", "coordinates": [ [ [ 78.371451000048125, 17.463053884411295 ], [ 78.370870330222331, 17.46480931179379 ], [ 78.369029651780977, 17.465130345426505 ], [ 78.367769675187134, 17.463695979786976 ], [ 78.368350341895095, 17.461940578311221 ], [ 78.370190988315599, 17.461619516568096 ], [ 78.371451000048125, 17.463053884411295 ] ] ] } },
{ "type": "Feature", "properties": { "h3": "8960a24b517ffff", "built_t1": 0.63568773234200748, "built_t0": 0.68401486988847582, "flood_2020": 0, "low_lying": 1, "construction": 0 }, "geometry": { "type": "Polygon", "coordinates": [ [ [ 78.368350341895095, 17.461940578311221 ], [ 78.367769675187134, 17.463695979786976 ], [ 78.365929060659184, 17.464016992031372 ], [ 78.36466914486121, 17.462582630914696 ], [ 78.365249808447686, 17.460827255349503 ], [ 78.367090390954488, 17.460506214990286 ], [ 78.368350341895095, 17.461940578311221 ] ] ] } },
{ "type": "Feature", "properties": { "h3": "8960a24b583ffff", "built_t1": 0.44402985074626866, "built_t0": 0.47388059701492535, "flood_2020": 0, "low_lying": 0, "construction": 0 }, "geometry": { "type": "Polygon", "coordinates": [ [ [ 78.373192990288786, 17.457787447286393 ], [ 78.372612330081452, 17.459542952154319 ], [ 78.370771651774334, 17.459864063392974 ], [ 78.369511665694844, 17.458429697871168 ], [ 78.370092322786505, 17.456674218913399 ], [ 78.371932969074194, 17.456353079567119 ], [ 78.373192990288786, 17.457787447286393 ] ] ] } },
{ "type": "Feature", "properties": { "h3": "8960a24b587ffff", "built_t1": 0.29850746268656714, "built_t0": 0.36567164179104478, "flood_2020": 0, "low_lying": 1, "construction": 0 }, "geometry": { "type": "Polygon", "coordinates": [ [ [ 78.370092322786505, 17.456674218913399 ], [ 78.369511665694844, 17.458429697871168 ], [ 78.367671051294622, 17.458750787725521 ], [ 78.366411126006668, 17.457316426734 ], [ 78.366991779978989, 17.455560973690247 ], [ 78.36883236235947, 17.455239855723871 ], [ 78.370092322786505, 17.456674218913399 ] ] ] } },
{ "type": "Feature", "properties": { "h3": "8960a24b58bffff", "built_t1": 0.27137546468401486, "built_t0": 0.16728624535315986, "flood_2020": 0, "low_lying": 1, "construction": 0 }, "geometry": { "type": "Polygon", "coordinates": [ [ [ 78.373872376948924, 17.46097732219781 ], [ 78.373291710375213, 17.462732801279504 ], [ 78.371451000048125, 17.463053884411295 ], [ 78.370190988315599, 17.461619516568096 ], [ 78.370771651774334, 17.459864063392974 ], [ 78.372612330081452, 17.459542952154319 ], [ 78.373872376948924, 17.46097732219781 ] ] ] } },
{ "type": "Feature", "properties": { "h3": "8960a24b58fffff", "built_t1": 0.26765799256505574, "built_t0": 0.2342007434944238, "flood_2020": 0, "low_lying": 1, "construction": 0 }, "geometry": { "type": "Polygon", "coordinates": [ [ [ 78.370771651774334, 17.459864063392974 ], [ 78.370190988315599, 17.461619516568096 ], [ 78.368350341895095, 17.461940578311221 ], [ 78.367090390954488, 17.460506214990286 ], [ 78.367671051294622, 17.458750787725521 ], [ 78.369511665694844, 17.458429697871168 ], [ 78.370771651774334, 17.459864063392974 ] ] ] } },
{ "type": "Feature", "properties": { "h3": "8960a24b593ffff", "built_t1": 0.26394052044609667, "built_t0": 0.2342007434944238, "flood_2020": 0, "low_lying": 0, "construction": 0 }, "geometry": { "type": "Polygon", "coordinates": [ [ [ 78.375614357430265, 17.455710730001304 ], [ 78.37503370047655, 17.457466286555448 ], [ 78.373192990288786, 17.457787447286393 ], [ 78.371932969074194, 17.456353079567119 ], [ 78.372513622915108, 17.454597548922951 ], [ 78.374354301084324, 17.454276360087942 ], [ 78.375614357430265, 17.455710730001304 ] ] ] } },
{ "type": "Feature", "properties": { "h3": "8960a24b597ffff", "built_t1": 0.29368029739776952, "built_t0": 0.30855018587360594, "flood_2020": 0, "low_lying": 0, "construction": 0 }, "geometry": { "type": "Polygon", "coordinates": [ [ [ 78.372513622915108, 17.454597548922951 ], [ 78.371932969074194, 17.456353079567119 ], [ 78.370092322786505, 17.456674218913399 ], [ 78.36883236235947, 17.455239855723871 ], [ 78.369413013083971, 17.453484350993502 ], [ 78.3712536273528, 17.453163183538759 ], [ 78.372513622915108, 17.454597548922951 ] ] ] } },
{ "type": "Feature", "properties": { "h3": "8960a24b59bffff", "built_t1": 0.30111524163568776, "built_t0": 0.18215613382899629, "flood_2020": 0, "low_lying": 1, "construction": 0 }, "geometry": { "type": "Polygon", "coordinates": [ [ [ 78.376293782475216, 17.45890065879583 ], [ 78.37571311915579, 17.460656189570138 ], [ 78.373872376948924, 17.46097732219781 ], [ 78.372612330081452, 17.459542952154319 ], [ 78.373192990288786, 17.457787447286393 ], [ 78.37503370047655, 17.457466286555448 ], [ 78.376293782475216, 17.45890065879583 ] ] ] } },
{ "type": "Feature", "properties": { "h3": "8960a24b5a3ffff", "built_t1": 0.53159851301115246, "built_t0": 0.5799256505576208, "flood_2020": 0, "low_lying": 1, "construction": 0 }, "geometry": { "type": "Polygon", "coordinates": [ [ [ 78.364570575520489, 17.457637495208846 ], [ 78.363989918302522, 17.459392896559411 ], [ 78.362149399716557, 17.459713915539471 ], [ 78.360889570370333, 17.458279561288812 ], [ 78.361470224462479, 17.456524185856257 ], [ 78.363310711027509, 17.456203138756187 ], [ 78.364570575520489, 17.457637495208846 ] ] ] } },
{ "type": "Feature", "properties": { "h3": "8960a24b5b3ffff", "built_t1": 0.55970149253731338, "built_t0": 0.57462686567164178, "flood_2020": 0, "low_lying": 0, "construction": 0 }, "geometry": { "type": "Polygon", "coordinates": [ [ [ 78.366991779978989, 17.455560973690247 ], [ 78.366411126006668, 17.457316426734 ], [ 78.364570575520489, 17.457637495208846 ], [ 78.363310711027509, 17.456203138756187 ], [ 78.363891361876895, 17.454447711630255 ], [ 78.365731880343063, 17.454126615038994 ], [ 78.366991779978989, 17.455560973690247 ] ] ] } },
{ "type": "Feature", "properties": { "h3": "8960a24b5b7ffff", "built_t1": 0.078066914498141265, "built_t0": 0.066914498141263934, "flood_2020": 0, "low_lying": 0, "construction": 0 }, "geometry": { "type": "Polygon", "coordinates": [ [ [ 78.363891361876895, 17.454447711630255 ], [ 78.363310711027509, 17.456203138756187 ], [ 78.361470224462479, 17.456524185856257 ], [ 78.360210420768041, 17.45508983395106 ], [ 78.360791068490869, 17.45333443274675 ], [ 78.36263152303556, 17.453013357525865 ], [ 78.363891361876895, 17.454447711630255 ] ] ] } },
{ "type": "Feature", "properties": { "h3": "8960a24b5bbffff", "built_t1": 0.72118959107806691, "built_t0": 0.66914498141263945, "flood_2020": 0, "low_lying": 1, "construction": 0 }, "geometry": { "type": "Polygon", "coordinates": [ [ [ 78.367671051294622, 17.458750787725521 ], [ 78.367090390954488, 17.460506214990286 ], [ 78.365249808447686, 17.460827255349503 ], [ 78.363989918302522, 17.459392896559411 ], [ 78.364570575520489, 17.457637495208846 ], [ 78.366411126006668, 17.457316426734 ], [ 78.367671051294622, 17.458750787725521 ] ] ] } },
{ "type": "Feature", "properties": { "h3": "8960a24b5c3ffff", "built_t1": 0.34328358208955223, "built_t0": 0.15671641791044777, "flood_2020": 0, "low_lying": 1, "construction": 0 }, "geometry": { "type": "Polygon", "coordinates": [ [ [ 78.377652690428576, 17.465280445973118 ], [ 78.37707201437793, 17.467035925157635 ], [ 78.375231208131154, 17.467357001581234 ], [ 78.373971109956145, 17.465922626921799 ], [ 78.374551782896177, 17.464167173636376 ], [ 78.376392557122713, 17.463846069111153 ], [ 78.377652690428576, 17.465280445973118 ] ] ] } },
{ "type": "Feature", "properties": { "h3": "8960a24b5c7ffff", "built_t1": 0.41044776119402987, "built_t0": 0.27985074626865669, "flood_2020": 0, "low_lying": 1, "construction": 0 }, "geometry": { "type": "Polygon", "coordinates": [ [ [ 78.374551782896177, 17.464167173636376 ], [ 78.373971109956145, 17.465922626921799 ], [ 78.372130367608506, 17.46624368194756 ], [ 78.370870330222331, 17.46480931179379 ], [ 78.371451000048125, 17.463053884411295 ], [ 78.373291710375213, 17.462732801279504 ], [ 78.374551782896177, 17.464167173636376 ] ] ] } },
{ "type": "Feature", "properties": { "h3": "8960a24b5d3ffff", "built_t1": 0.44981412639405205, "built_t0": 0.35315985130111527, "flood_2020": 0, "low_lying": 0, "construction": 0 }, "geometry": { "type": "Polygon", "coordinates": [ [ [ 78.380074201340193, 17.463203789166347 ], [ 78.379493528547428, 17.464959320049683 ], [ 78.377652690428576, 17.465280445973118 ], [ 78.376392557122713, 17.463846069111153 ], [ 78.376973226807763, 17.462090564126722 ], [ 78.378814032907272, 17.461769410105237 ], [ 78.380074201340193, 17.463203789166347 ] ] ] } },
{ "type": "Feature", "properties": { "h3": "8960a24b5d7ffff", "built_t1": 0.42750929368029739, "built_t0": 0.055762081784386616, "flood_2020": 0, "low_lying": 0, "construction": 0 }, "geometry": { "type": "Polygon", "coordinates": [ [ [ 78.376973226807763, 17.462090564126722 ], [ 78.376392557122713, 17.463846069111153 ], [ 78.374551782896177, 17.464167173636376 ], [ 78.373291710375213, 17.462732801279504 ], [ 78.373872376948924, 17.46097732219781 ], [ 78.37571311915579, 17.460656189570138 ], [ 78.376973226807763, 17.462090564126722 ] ] ] } },
{ "type": "Feature", "properties": { "h3": "8960a24b5dbffff", "built_t1": 0.52416356877323422, "built_t0": 0.47583643122676578, "flood_2020": 0, "low_lying": 0, "construction": 0 }, "geometry": { "type": "Polygon", "coordinates": [ [ [ 78.38075372263468, 17.466393701408155 ], [ 78.380173043477043, 17.468149206487954 ], [ 78.378332173338279, 17.468470304314117 ], [ 78.37707201437793, 17.467035925157635 ], [ 78.377652690428576, 17.465280445973118 ], [ 78.379493528547428, 17.464959320049683 ], [ 78.38075372263468, 17.466393701408155 ] ] ] } },
{ "type": "Feature", "properties": { "h3": "8960a259823ffff", "built_t1": 0.16356877323420074, "built_t0": 0.19330855018587362, "flood_2020": 0, "low_lying": 1, "construction": 0 }, "geometry": { "type": "Polygon", "coordinates": [ [ [ 78.394306611383627, 17.435902967603418 ], [ 78.393725986897692, 17.437658963128033 ], [ 78.391885053890505, 17.4379805477571 ], [ 78.390624777381191, 17.436546164937582 ], [ 78.391205398776691, 17.434790195324979 ], [ 78.393046299772834, 17.434468582619729 ], [ 78.394306611383627, 17.435902967603418 ] ] ] } },
{ "type": "Feature", "properties": { "h3": "8960a259827ffff", "built_t1": 0.18283582089552239, "built_t0": 0.46641791044776121, "flood_2020": 0, "low_lying": 1, "construction": 0 }, "geometry": { "type": "Polygon", "coordinates": [ [ [ 78.391205398776691, 17.434790195324979 ], [ 78.390624777381191, 17.436546164937582 ], [ 78.388783908219835, 17.436867728183429 ], [ 78.387523692466189, 17.43543334989711 ], [ 78.388104310767645, 17.433677406200349 ], [ 78.389945147917658, 17.433355814873924 ], [ 78.391205398776691, 17.434790195324979 ] ] ] } },
{ "type": "Feature", "properties": { "h3": "8960a25982bffff", "built_t1": 0.36431226765799257, "built_t0": 0.36059479553903345, "flood_2020": 0, "low_lying": 1, "construction": 0 }, "geometry": { "type": "Polygon", "coordinates": [ [ [ 78.394986324159191, 17.439093350472177 ], [ 78.394405693313118, 17.440849320278236 ], [ 78.392564728294388, 17.441170876831915 ], [ 78.39130442613417, 17.439736491654767 ], [ 78.391885053890505, 17.4379805477571 ], [ 78.393725986897692, 17.437658963128033 ], [ 78.394986324159191, 17.439093350472177 ] ] ] } },
{ "type": "Feature", "properties": { "h3": "8960a25982fffff", "built_t1": 0.23791821561338289, "built_t0": 0.2342007434944238, "flood_2020": 0, "low_lying": 1, "construction": 0 }, "geometry": { "type": "Polygon", "coordinates": [ [ [ 78.391885053890505, 17.4379805477571 ], [ 78.39130442613417, 17.439736491654767 ], [ 78.389463524960917, 17.440058026820839 ], [ 78.388203283556791, 17.438623646168885 ], [ 78.388783908219835, 17.436867728183429 ], [ 78.390624777381191, 17.436546164937582 ], [ 78.391885053890505, 17.4379805477571 ] ] ] } },
{ "type": "Feature", "properties": { "h3": "8960a259837ffff", "built_t1": 0.022304832713754646, "built_t0": 0.29739776951672864, "flood_2020": 0, "low_lying": 1, "construction": 0 }, "geometry": { "type": "Polygon", "coordinates": [ [ [ 78.393626917898601, 17.432712561386577 ], [ 78.393046299772834, 17.434468582619729 ], [ 78.391205398776691, 17.434790195324979 ], [ 78.389945147917658, 17.433355814873924 ], [ 78.390525762952251, 17.431599819556403 ], [ 78.392366631937918, 17.431278178774168 ], [ 78.393626917898601, 17.432712561386577 ] ] ] } },
{ "type": "Feature", "properties": { "h3": "8960a25983bffff", "built_t1": 0.34944237918215615, "built_t0": 0.34572490706319703, "flood_2020": 0, "low_lying": 1, "construction": 0 }, "geometry": { "type": "Polygon", "coordinates": [ [ [ 78.397407948577751, 17.437015723022334 ], [ 78.39682732100502, 17.43877174445516 ], [ 78.394986324159191, 17.439093350472177 ], [ 78.393725986897692, 17.437658963128033 ], [ 78.394306611383627, 17.435902967603418 ], [ 78.396147576218723, 17.435581333514598 ], [ 78.397407948577751, 17.437015723022334 ] ] ] } },
{ "type": "Feature", "properties": { "h3": "8960a259863ffff", "built_t1": 0.19330855018587362, "built_t0": 0.12267657992565056, "flood_2020": 0, "low_lying": 1, "construction": 0 }, "geometry": { "type": "Polygon", "coordinates": [ [ [ 78.398767508744868, 17.44339652622768 ], [ 78.398186868453351, 17.445152496206063 ], [ 78.396345807584453, 17.445474046081909 ], [ 78.39508541901975, 17.444039654049423 ], [ 78.39566605622592, 17.442283709971964 ], [ 78.397507085083021, 17.441962132025932 ], [ 78.398767508744868, 17.44339652622768 ] ] ] } },
{ "type": "Feature", "properties": { "h3": "8960a259867ffff", "built_t1": 0.46096654275092935, "built_t0": 0.30483271375464682, "flood_2020": 0, "low_lying": 1, "construction": 0 }, "geometry": { "type": "Polygon", "coordinates": [ [ [ 78.39566605622592, 17.442283709971964 ], [ 78.39508541901975, 17.444039654049423 ], [ 78.393244421988882, 17.444361182528528 ], [ 78.391984094177189, 17.44292679500461 ], [ 78.392564728294388, 17.441170876831915 ], [ 78.394405693313118, 17.440849320278236 ], [ 78.39566605622592, 17.442283709971964 ] ] ] } },
{ "type": "Feature", "properties": { "h3": "8960a25986bffff", "built_t1": 0.21268656716417911, "built_t0": 0.14925373134328357, "flood_2020": 0, "low_lying": 1, "construction": 0 }, "geometry": { "type": "Polygon", "coordinates": [ [ [ 78.399447317767553, 17.446586892738562 ], [ 78.398866671116721, 17.448342836974685 ], [ 78.397025578235443, 17.448664358781169 ], [ 78.395765164018229, 17.447229964420739 ], [ 78.396345807584453, 17.445474046081909 ], [ 78.398186868453351, 17.445152496206063 ], [ 78.399447317767553, 17.446586892738562 ] ] ] } },
{ "type": "Feature", "properties": { "h3": "8960a25986fffff", "built_t1": 0.27037037037037037, "built_t0": 0.14074074074074075, "flood_2020": 0, "low_lying": 1, "construction": 0 }, "geometry": { "type": "Polygon", "coordinates": [ [ [ 78.396345807584453, 17.445474046081909 ], [ 78.395765164018229, 17.447229964420739 ], [ 78.393924134974668, 17.44755146482607 ], [ 78.392663781510905, 17.446117074966185 ], [ 78.393244421988882, 17.444361182528528 ], [ 78.39508541901975, 17.444039654049423 ], [ 78.396345807584453, 17.445474046081909 ] ] ] } },
{ "type": "Feature", "properties": { "h3": "8960a259877ffff", "built_t1": 0.55390334572490707, "built_t0": 0.61710037174721188, "flood_2020": 0, "low_lying": 1, "construction": 0 }, "geometry": { "type": "Polygon", "coordinates": [ [ [ 78.398087719015152, 17.440206136315307 ], [ 78.397507085083021, 17.441962132025932 ], [ 78.39566605622592, 17.442283709971964 ], [ 78.394405693313118, 17.440849320278236 ], [ 78.394986324159191, 17.439093350472177 ], [ 78.39682732100502, 17.43877174445516 ], [ 78.398087719015152, 17.440206136315307 ] ] ] } },
{ "type": "Feature", "properties": { "h3": "8960a259903ffff", "built_t1": 0.54477611940298509, "built_t0": 0.2574626865671642, "flood_2020": 0, "low_lying": 0, "construction": 0 }, "geometry": { "type": "Polygon", "coordinates": [ [ [ 78.381223045742445, 17.428261493116619 ], [ 78.380642440003072, 17.430017410664259 ], [ 78.378801794434253, 17.430338937882759 ], [ 78.377541786617385, 17.42890457564808 ], [ 78.378122389251089, 17.427148684031387 ], [ 78.379963002808211, 17.42682712871833 ], [ 78.381223045742445, 17.428261493116619 ] ] ] } },
{ "type": "Feature", "properties": { "h3": "8960a259907ffff", "built_t1": 0.59479553903345728, "built_t0": 0.34572490706319703, "flood_2020": 0, "low_lying": 1, "construction": 0 }, "geometry": { "type": "Polygon", "coordinates": [ [ [ 78.378122389251089, 17.427148684031387 ], [ 78.377541786617385, 17.42890457564808 ], [ 78.375701204923217, 17.429226081506801 ], [ 78.374441257875688, 17.427791723847637 ], [ 78.375021857400114, 17.426035858165747 ], [ 78.376862407082257, 17.425714324208069 ], [ 78.378122389251089, 17.427148684031387 ] ] ] } },
{ "type": "Feature", "properties": { "h3": "8960a25990bffff", "built_t1": 0.52222222222222225, "built_t0": 0.46296296296296297, "flood_2020": 0, "low_lying": 0, "construction": 0 }, "geometry": { "type": "Polygon", "coordinates": [ [ [ 78.381902508585767, 17.431451777465906 ], [ 78.381321896483286, 17.433207669319508 ], [ 78.379481218902185, 17.433529168444274 ], [ 78.378221185436701, 17.43209480380904 ], [ 78.378801794434253, 17.430338937882759 ], [ 78.380642440003072, 17.430017410664259 ], [ 78.381902508585767, 17.431451777465906 ] ] ] } },
{ "type": "Feature", "properties": { "h3": "8960a25990fffff", "built_t1": 0.27509293680297398, "built_t0": 0.20817843866171004, "flood_2020": 0, "low_lying": 0, "construction": 0 }, "geometry": { "type": "Polygon", "coordinates": [ [ [ 78.378801794434253, 17.430338937882759 ], [ 78.378221185436701, 17.43209480380904 ], [ 78.376380571729953, 17.432416281569623 ], [ 78.375120599034219, 17.430981921501932 ], [ 78.375701204923217, 17.429226081506801 ], [ 78.377541786617385, 17.42890457564808 ], [ 78.378801794434253, 17.430338937882759 ] ] ] } },
{ "type": "Feature", "properties": { "h3": "8960a25991bffff", "built_t1": 0.51301115241635686, "built_t0": 0.32342007434944237, "flood_2020": 0, "low_lying": 0, "construction": 0 }, "geometry": { "type": "Polygon", "coordinates": [ [ [ 78.384323826863522, 17.429374285408095 ], [ 78.383743218022133, 17.431130228882836 ], [ 78.381902508585767, 17.431451777465906 ], [ 78.380642440003072, 17.430017410664259 ], [ 78.381223045742445, 17.428261493116619 ], [ 78.38306372316741, 17.42793991644341 ], [ 78.384323826863522, 17.429374285408095 ] ] ] } },
{ "type": "Feature", "properties": { "h3": "8960a25992bffff", "built_t1": 0.41635687732342008, "built_t0": 0.36059479553903345, "flood_2020": 0, "low_lying": 1, "construction": 0 }, "geometry": { "type": "Polygon", "coordinates": [ [ [ 78.373280049208944, 17.431303377903092 ], [ 78.372699440066839, 17.433059166270052 ], [ 78.370858922116426, 17.43338057321041 ], [ 78.369599045322758, 17.431946219889795 ], [ 78.370179651349815, 17.430190457457964 ], [ 78.372020137286469, 17.429869022411498 ], [ 78.373280049208944, 17.431303377903092 ] ] ] } },
{ "type": "Feature", "properties": { "h3": "8960a25992fffff", "built_t1": 0.16044776119402984, "built_t0": 0.14925373134328357, "flood_2020": 0, "low_lying": 1, "construction": 0 }, "geometry": { "type": "Polygon", "coordinates": [ [ [ 78.370179651349815, 17.430190457457964 ], [ 78.369599045322758, 17.431946219889795 ], [ 78.367758591267759, 17.43226760547585 ], [ 78.366498775254797, 17.430833256740463 ], [ 78.367079378163197, 17.429077520247645 ], [ 78.368919800204111, 17.428756106551081 ], [ 78.370179651349815, 17.430190457457964 ] ] ] } },
{ "type": "Feature", "properties": { "h3": "8960a25993bffff", "built_t1": 0.40221402214022139, "built_t0": 0.39483394833948338, "flood_2020": 0, "low_lying": 1, "construction": 0 }, "geometry": { "type": "Polygon", "coordinates": [ [ [ 78.375701204923217, 17.429226081506801 ], [ 78.375120599034219, 17.430981921501932 ], [ 78.373280049208944, 17.431303377903092 ], [ 78.372020137286469, 17.429869022411498 ], [ 78.372600740063334, 17.428113208351338 ], [ 78.374441257875688, 17.427791723847637 ], [ 78.375701204923217, 17.429226081506801 ] ] ] } },
{ "type": "Feature", "properties": { "h3": "8960a259943ffff", "built_t1": 0.35820895522388058, "built_t0": 0.44402985074626866, "flood_2020": 0, "low_lying": 0, "construction": 0 }, "geometry": { "type": "Polygon", "coordinates": [ [ [ 78.385682887157785, 17.435754891764507 ], [ 78.385102265591684, 17.437510783833922 ], [ 78.383261492130842, 17.43783227623906 ], [ 78.382001372249491, 17.436397904663213 ], [ 78.382581990715025, 17.43464203851369 ], [ 78.384422732163344, 17.434320518019977 ], [ 78.385682887157785, 17.435754891764507 ] ] ] } },
{ "type": "Feature", "properties": { "h3": "8960a259947ffff", "built_t1": 0.57462686567164178, "built_t0": 0.66417910447761197, "flood_2020": 0, "low_lying": 0, "construction": 0 }, "geometry": { "type": "Polygon", "coordinates": [ [ [ 78.382581990715025, 17.43464203851369 ], [ 78.382001372249491, 17.436397904663213 ], [ 78.380160662655541, 17.43671937569502 ], [ 78.378900603540828, 17.435285008670121 ], [ 78.379481218902185, 17.433529168444274 ], [ 78.381321896483286, 17.433207669319508 ], [ 78.382581990715025, 17.43464203851369 ] ] ] } },
{ "type": "Feature", "properties": { "h3": "8960a25994bffff", "built_t1": 0.27611940298507465, "built_t0": 0.23507462686567165, "flood_2020": 0, "low_lying": 1, "construction": 0 }, "geometry": { "type": "Polygon", "coordinates": [ [ [ 78.386362446236191, 17.438945159952109 ], [ 78.385781818307777, 17.440701026303785 ], [ 78.383941012833859, 17.441022490621179 ], [ 78.38268086730227, 17.439588116674493 ], [ 78.383261492130842, 17.43783227623906 ], [ 78.385102265591684, 17.437510783833922 ], [ 78.386362446236191, 17.438945159952109 ] ] ] } },
{ "type": "Feature", "properties": { "h3": "8960a25994fffff", "built_t1": 0.28888888888888886, "built_t0": 0.26296296296296295, "flood_2020": 0, "low_lying": 0, "construction": 0 }, "geometry": { "type": "Polygon", "coordinates": [ [ [ 78.383261492130842, 17.43783227623906 ], [ 78.38268086730227, 17.439588116674493 ], [ 78.380840125694945, 17.439909559614154 ], [ 78.379580040930449, 17.43847519021039 ], [ 78.380160662655541, 17.43671937569502 ], [ 78.382001372249491, 17.436397904663213 ], [ 78.383261492130842, 17.43783227623906 ] ] ] } },
{ "type": "Feature", "properties": { "h3": "8960a259953ffff", "built_t1": 0.50370370370370365, "built_t0": 0.47037037037037038, "flood_2020": 0, "low_lying": 0, "construction": 0 }, "geometry": { "type": "Polygon", "coordinates": [ [ [ 78.388104310767645, 17.433677406200349 ], [ 78.387523692466189, 17.43543334989711 ], [ 78.385682887157785, 17.435754891764507 ], [ 78.384422732163344, 17.434320518019977 ], [ 78.385003347367117, 17.432564600242891 ], [ 78.386844120663866, 17.432243030290522 ], [ 78.388104310767645, 17.433677406200349 ] ] ] } },
{ "type": "Feature", "properties": { "h3": "8960a259957ffff", "built_t1": 0.42164179104477612, "built_t0": 0.70895522388059706, "flood_2020": 0, "low_lying": 0, "construction": 0 }, "geometry": { "type": "Polygon", "coordinates": [ [ [ 78.385003347367117, 17.432564600242891 ], [ 78.384422732163344, 17.434320518019977 ], [ 78.382581990715025, 17.43464203851369 ], [ 78.381321896483286, 17.433207669319508 ], [ 78.381902508585767, 17.431451777465906 ], [ 78.383743218022133, 17.431130228882836 ], [ 78.385003347367117, 17.432564600242891 ] ] ] } },
{ "type": "Feature", "properties": { "h3": "8960a25995bffff", "built_t1": 0.38805970149253732, "built_t0": 0.41044776119402987, "flood_2020": 0, "low_lying": 1, "construction": 0 }, "geometry": { "type": "Polygon", "coordinates": [ [ [ 78.388783908219835, 17.436867728183429 ], [ 78.388203283556791, 17.438623646168885 ], [ 78.386362446236191, 17.438945159952109 ], [ 78.385102265591684, 17.437510783833922 ], [ 78.385682887157785, 17.435754891764507 ], [ 78.387523692466189, 17.43543334989711 ], [ 78.388783908219835, 17.436867728183429 ] ] ] } },
{ "type": "Feature", "properties": { "h3": "8960a259963ffff", "built_t1": 0.5799256505576208, "built_t0": 0.61710037174721188, "flood_2020": 0, "low_lying": 0, "construction": 0 }, "geometry": { "type": "Polygon", "coordinates": [ [ [ 78.377059957820947, 17.435606458333346 ], [ 78.376479339202902, 17.437362246924828 ], [ 78.374638725350167, 17.437683647123318 ], [ 78.373378762130343, 17.436249286831124 ], [ 78.373959377637689, 17.434493524167365 ], [ 78.375799959476424, 17.434172095867943 ], [ 78.377059957820947, 17.435606458333346 ] ] ] } },
{ "type": "Feature", "properties": { "h3": "8960a259967ffff", "built_t1": 0.46268656716417911, "built_t0": 0.34701492537313433, "flood_2020": 0, "low_lying": 1, "construction": 0 }, "geometry": { "type": "Polygon", "coordinates": [ [ [ 78.373959377637689, 17.434493524167365 ], [ 78.373378762130343, 17.436249286831124 ], [ 78.371538212165603, 17.436570665666167 ], [ 78.370278309723403, 17.435136309942639 ], [ 78.370858922116426, 17.43338057321041 ], [ 78.372699440066839, 17.433059166270052 ], [ 78.373959377637689, 17.434493524167365 ] ] ] } },
{ "type": "Feature", "properties": { "h3": "8960a25996bffff", "built_t1": 0.55762081784386619, "built_t0": 0.45724907063197023, "flood_2020": 0, "low_lying": 0, "construction": 0 }, "geometry": { "type": "Polygon", "coordinates": [ [ [ 78.37773936319681, 17.438796611777082 ], [ 78.377158738214334, 17.440552374651691 ], [ 78.375318092347001, 17.440873746750047 ], [ 78.374058103477637, 17.439439384073822 ], [ 78.374638725350167, 17.437683647123318 ], [ 78.376479339202902, 17.437362246924828 ], [ 78.37773936319681, 17.438796611777082 ] ] ] } },
{ "type": "Feature", "properties": { "h3": "8960a25996fffff", "built_t1": 0.33085501858736061, "built_t0": 0.43122676579925651, "flood_2020": 0, "low_lying": 0, "construction": 0 }, "geometry": { "type": "Polygon", "coordinates": [ [ [ 78.374638725350167, 17.437683647123318 ], [ 78.374058103477637, 17.439439384073822 ], [ 78.372217521497987, 17.439760734804345 ], [ 78.370957593406644, 17.43832637668875 ], [ 78.371538212165603, 17.436570665666167 ], [ 78.373378762130343, 17.436249286831124 ], [ 78.374638725350167, 17.437683647123318 ] ] ] } },
{ "type": "Feature", "properties": { "h3": "8960a259973ffff", "built_t1": 0.41263940520446096, "built_t0": 0.45353159851301117, "flood_2020": 0, "low_lying": 0, "construction": 0 }, "geometry": { "type": "Polygon", "coordinates": [ [ [ 78.379481218902185, 17.433529168444274 ], [ 78.378900603540828, 17.435285008670121 ], [ 78.377059957820947, 17.435606458333346 ], [ 78.375799959476424, 17.434172095867943 ], [ 78.376380571729953, 17.432416281569623 ], [ 78.378221185436701, 17.43209480380904 ], [ 78.379481218902185, 17.433529168444274 ] ] ] } },
{ "type": "Feature", "properties": { "h3": "8960a259977ffff", "built_t1": 0.45692883895131087, "built_t0": 0.43820224719101125, "flood_2020": 0, "low_lying": 1, "construction": 0 }, "geometry": { "type": "Polygon", "coordinates": [ [ [ 78.376380571729953, 17.432416281569623 ], [ 78.375799959476424, 17.434172095867943 ], [ 78.373959377637689, 17.434493524167365 ], [ 78.372699440066839, 17.433059166270052 ], [ 78.373280049208944, 17.431303377903092 ], [ 78.375120599034219, 17.430981921501932 ], [ 78.376380571729953, 17.432416281569623 ] ] ] } },
{ "type": "Feature", "properties": { "h3": "8960a25997bffff", "built_t1": 0.77323420074349447, "built_t0": 0.40520446096654272, "flood_2020": 0, "low_lying": 0, "construction": 0 }, "geometry": { "type": "Polygon", "coordinates": [ [ [ 78.380160662655541, 17.43671937569502 ], [ 78.379580040930449, 17.43847519021039 ], [ 78.37773936319681, 17.438796611777082 ], [ 78.376479339202902, 17.437362246924828 ], [ 78.377059957820947, 17.435606458333346 ], [ 78.378900603540828, 17.435285008670121 ], [ 78.380160662655541, 17.43671937569502 ] ] ] } },
{ "type": "Feature", "properties": { "h3": "8960a2599cbffff", "built_t1": 0.055555555555555552, "built_t0": 0.34074074074074073, "flood_2020": 0, "low_lying": 1, "construction": 0 }, "geometry": { "type": "Polygon", "coordinates": [ [ [ 78.390525762952251, 17.431599819556403 ], [ 78.389945147917658, 17.433355814873924 ], [ 78.388104310767645, 17.433677406200349 ], [ 78.386844120663866, 17.432243030290522 ], [ 78.387424732603677, 17.430487060892474 ], [ 78.389265537742915, 17.430165441484661 ], [ 78.390525762952251, 17.431599819556403 ] ] ] } },
{ "type": "Feature", "properties": { "h3": "8960a2599cfffff", "built_t1": 0.15613382899628253, "built_t0": 0.15613382899628253, "flood_2020": 0, "low_lying": 0, "construction": 0 }, "geometry": { "type": "Polygon", "coordinates": [ [ [ 78.387424732603677, 17.430487060892474 ], [ 78.386844120663866, 17.432243030290522 ], [ 78.385003347367117, 17.432564600242891 ], [ 78.383743218022133, 17.431130228882836 ], [ 78.384323826863522, 17.429374285408095 ], [ 78.386164568149198, 17.42905268736995 ], [ 78.387424732603677, 17.430487060892474 ] ] ] } },
{ "type": "Feature", "properties": { "h3": "8960a259a27ffff", "built_t1": 0.55390334572490707, "built_t0": 0.20446096654275092, "flood_2020": 0, "low_lying": 0, "construction": 0 }, "geometry": { "type": "Polygon", "coordinates": [ [ [ 78.395963389686017, 17.457122171115525 ], [ 78.395382723765195, 17.45887796051284 ], [ 78.393541630508878, 17.45919932721716 ], [ 78.392281235189472, 17.457764932599005 ], [ 78.392861898021366, 17.456009169092162 ], [ 78.394702959262446, 17.455687774312885 ], [ 78.395963389686017, 17.457122171115525 ] ] ] } },
{ "type": "Feature", "properties": { "h3": "8960a259a37ffff", "built_t1": 0.69776119402985071, "built_t0": 0.55597014925373134, "flood_2020": 0, "low_lying": 1, "construction": 0 }, "geometry": { "type": "Polygon", "coordinates": [ [ [ 78.398385177417182, 17.45504491386399 ], [ 78.397804514771011, 17.456800754926689 ], [ 78.395963389686017, 17.457122171115525 ], [ 78.394702959262446, 17.455687774312885 ], [ 78.395283618822589, 17.453931959140441 ], [ 78.397124711893227, 17.45361051488025 ], [ 78.398385177417182, 17.45504491386399 ] ] ] } },
{ "type": "Feature", "properties": { "h3": "8960a259aa7ffff", "built_t1": 0.39552238805970147, "built_t0": 0.2574626865671642, "flood_2020": 0, "low_lying": 1, "construction": 0 }, "geometry": { "type": "Polygon", "coordinates": [ [ [ 78.400127146083804, 17.449777235827082 ], [ 78.399546493073686, 17.451533154310905 ], [ 78.397705368179459, 17.451854648048801 ], [ 78.39644492830918, 17.450420251371298 ], [ 78.397025578235443, 17.448664358781169 ], [ 78.398866671116721, 17.448342836974685 ], [ 78.400127146083804, 17.449777235827082 ] ] ] } },
{ "type": "Feature", "properties": { "h3": "8960a259b03ffff", "built_t1": 0.22761194029850745, "built_t0": 0.037313432835820892, "flood_2020": 0, "low_lying": 0, "construction": 1 }, "geometry": { "type": "Polygon", "coordinates": [ [ [ 78.385979690672372, 17.45059299349921 ], [ 78.385399040392045, 17.452348730977931 ], [ 78.383558170725564, 17.452670061557058 ], [ 78.382297983355883, 17.451235682746258 ], [ 78.3828786305357, 17.449479971173119 ], [ 78.38471946818656, 17.449158612505059 ], [ 78.385979690672372, 17.45059299349921 ] ] ] } },
{ "type": "Feature", "properties": { "h3": "8960a259b07ffff", "built_t1": 0.28518518518518521, "built_t0": 0.23333333333333334, "flood_2020": 0, "low_lying": 0, "construction": 0 }, "geometry": { "type": "Polygon", "coordinates": [ [ [ 78.3828786305357, 17.449479971173119 ], [ 78.382297983355883, 17.451235682746258 ], [ 78.380457177561865, 17.451556991934854 ], [ 78.379197050964478, 17.450122617643487 ], [ 78.379777695040133, 17.448366931979741 ], [ 78.381618468818189, 17.448045594697813 ], [ 78.3828786305357, 17.449479971173119 ] ] ] } },
{ "type": "Feature", "properties": { "h3": "8960a259b0bffff", "built_t1": 0.68283582089552242, "built_t0": 0.40671641791044777, "flood_2020": 0, "low_lying": 0, "construction": 0 }, "geometry": { "type": "Polygon", "coordinates": [ [ [ 78.386659288530467, 17.453783114299565 ], [ 78.386078631887315, 17.45553882601401 ], [ 78.384237730204632, 17.455860128505016 ], [ 78.382977517182184, 17.454425747369548 ], [ 78.383558170725564, 17.452670061557058 ], [ 78.385399040392045, 17.452348730977931 ], [ 78.386659288530467, 17.453783114299565 ] ] ] } },
{ "type": "Feature", "properties": { "h3": "8960a259b0fffff", "built_t1": 0.40892193308550184, "built_t0": 0.32713754646840149, "flood_2020": 0, "low_lying": 0, "construction": 0 }, "geometry": { "type": "Polygon", "coordinates": [ [ [ 78.383558170725564, 17.452670061557058 ], [ 78.382977517182184, 17.454425747369548 ], [ 78.381136679371664, 17.454747028465636 ], [ 78.379876527121908, 17.453312651841596 ], [ 78.380457177561865, 17.451556991934854 ], [ 78.382297983355883, 17.451235682746258 ], [ 78.383558170725564, 17.452670061557058 ] ] ] } },
{ "type": "Feature", "properties": { "h3": "8960a259b13ffff", "built_t1": 0.31598513011152418, "built_t0": 0.26765799256505574, "flood_2020": 0, "low_lying": 0, "construction": 0 }, "geometry": { "type": "Polygon", "coordinates": [ [ [ 78.388401239203972, 17.448515824301978 ], [ 78.387820592188902, 17.450271613440286 ], [ 78.385979690672372, 17.45059299349921 ], [ 78.38471946818656, 17.449158612505059 ], [ 78.385300112103991, 17.447402849272127 ], [ 78.387140981605754, 17.447081441127843 ], [ 78.388401239203972, 17.448515824301978 ] ] ] } },
{ "type": "Feature", "properties": { "h3": "8960a259b17ffff", "built_t1": 0.17100371747211895, "built_t0": 0.21189591078066913, "flood_2020": 0, "low_lying": 0, "construction": 0 }, "geometry": { "type": "Polygon", "coordinates": [ [ [ 78.385300112103991, 17.447402849272127 ], [ 78.38471946818656, 17.449158612505059 ], [ 78.3828786305357, 17.449479971173119 ], [ 78.381618468818189, 17.448045594697813 ], [ 78.382199109634371, 17.446289857374069 ], [ 78.384039915270179, 17.44596847061629 ], [ 78.385300112103991, 17.447402849272127 ] ] ] } },
{ "type": "Feature", "properties": { "h3": "8960a259b1bffff", "built_t1": 0.54104477611940294, "built_t0": 0.39925373134328357, "flood_2020": 0, "low_lying": 0, "construction": 0 }, "geometry": { "type": "Polygon", "coordinates": [ [ [ 78.389080875439532, 17.451705998944707 ], [ 78.388500222062319, 17.453461762325158 ], [ 78.386659288530467, 17.453783114299565 ], [ 78.385399040392045, 17.452348730977931 ], [ 78.385979690672372, 17.45059299349921 ], [ 78.387820592188902, 17.450271613440286 ], [ 78.389080875439532, 17.451705998944707 ] ] ] } },
{ "type": "Feature", "properties": { "h3": "8960a259b23ffff", "built_t1": 0.17164179104477612, "built_t0": 0.1417910447761194, "flood_2020": 0, "low_lying": 0, "construction": 0 }, "geometry": { "type": "Polygon", "coordinates": [ [ [ 78.377356309050072, 17.450443905446321 ], [ 78.376775661717133, 17.452199539443466 ], [ 78.374934951672344, 17.45252077776399 ], [ 78.373674920978502, 17.45108641018852 ], [ 78.374255565200784, 17.449330802104775 ], [ 78.376096243228432, 17.449009535682954 ], [ 78.377356309050072, 17.450443905446321 ] ] ] } },
{ "type": "Feature", "properties": { "h3": "8960a259b27ffff", "built_t1": 0.5018587360594795, "built_t0": 0.54646840148698883, "flood_2020": 0, "low_lying": 0, "construction": 0 }, "geometry": { "type": "Polygon", "coordinates": [ [ [ 78.374255565200784, 17.449330802104775 ], [ 78.373674920978502, 17.45108641018852 ], [ 78.371834274827293, 17.451407627128415 ], [ 78.370574304916659, 17.44997326409009 ], [ 78.371154946024674, 17.448217681923587 ], [ 78.372995560158444, 17.447896436878018 ], [ 78.374255565200784, 17.449330802104775 ] ] ] } },
{ "type": "Feature", "properties": { "h3": "8960a259b2bffff", "built_t1": 0.17472118959107807, "built_t0": 0.10408921933085502, "flood_2020": 0, "low_lying": 0, "construction": 0 }, "geometry": { "type": "Polygon", "coordinates": [ [ [ 78.378035753190673, 17.45363391154752 ], [ 78.377455099492735, 17.455389519781257 ], [ 78.375614357430265, 17.455710730001304 ], [ 78.374354301084324, 17.454276360087942 ], [ 78.374934951672344, 17.45252077776399 ], [ 78.376775661717133, 17.452199539443466 ], [ 78.378035753190673, 17.45363391154752 ] ] ] } },
{ "type": "Feature", "properties": { "h3": "8960a259b2fffff", "built_t1": 0.29850746268656714, "built_t0": 0.31716417910447764, "flood_2020": 0, "low_lying": 0, "construction": 0 }, "geometry": { "type": "Polygon", "coordinates": [ [ [ 78.374934951672344, 17.45252077776399 ], [ 78.374354301084324, 17.454276360087942 ], [ 78.372513622915108, 17.454597548922951 ], [ 78.3712536273528, 17.453163183538759 ], [ 78.371834274827293, 17.451407627128415 ], [ 78.373674920978502, 17.45108641018852 ], [ 78.374934951672344, 17.45252077776399 ] ] ] } },
{ "type": "Feature", "properties": { "h3": "8960a259b33ffff", "built_t1": 0.39776951672862454, "built_t0": 0.23791821561338289, "flood_2020": 0, "low_lying": 0, "construction": 0 }, "geometry": { "type": "Polygon", "coordinates": [ [ [ 78.379777695040133, 17.448366931979741 ], [ 78.379197050964478, 17.450122617643487 ], [ 78.377356309050072, 17.450443905446321 ], [ 78.376096243228432, 17.449009535682954 ], [ 78.376676884196328, 17.447253875932425 ], [ 78.37851759409449, 17.446932560031879 ], [ 78.379777695040133, 17.448366931979741 ] ] ] } },
{ "type": "Feature", "properties": { "h3": "8960a259b37ffff", "built_t1": 0.36431226765799257, "built_t0": 0.379182156133829, "flood_2020": 0, "low_lying": 0, "construction": 0 }, "geometry": { "type": "Polygon", "coordinates": [ [ [ 78.376676884196328, 17.447253875932425 ], [ 78.376096243228432, 17.449009535682954 ], [ 78.374255565200784, 17.449330802104775 ], [ 78.372995560158444, 17.447896436878018 ], [ 78.373576198014959, 17.446140803044514 ], [ 78.375416844026049, 17.4458195085206 ], [ 78.376676884196328, 17.447253875932425 ] ] ] } },
{ "type": "Feature", "properties": { "h3": "8960a259b3bffff", "built_t1": 0.059701492537313432, "built_t0": 0.082089552238805971, "flood_2020": 0, "low_lying": 0, "construction": 0 }, "geometry": { "type": "Polygon", "coordinates": [ [ [ 78.380457177561865, 17.451556991934854 ], [ 78.379876527121908, 17.453312651841596 ], [ 78.378035753190673, 17.45363391154752 ], [ 78.376775661717133, 17.452199539443466 ], [ 78.377356309050072, 17.450443905446321 ], [ 78.379197050964478, 17.450122617643487 ], [ 78.380457177561865, 17.451556991934854 ] ] ] } },
{ "type": "Feature", "properties": { "h3": "8960a259b43ffff", "built_t1": 0.76119402985074625, "built_t0": 0.32089552238805968, "flood_2020": 0, "low_lying": 1, "construction": 1 }, "geometry": { "type": "Polygon", "coordinates": [ [ [ 78.390440205783889, 17.458086277894122 ], [ 78.38985953968249, 17.459841989728758 ], [ 78.388018542118346, 17.46016328553652 ], [ 78.38675824267294, 17.458728897592447 ], [ 78.387338905678931, 17.456973211652297 ], [ 78.389179871226617, 17.456651887761609 ], [ 78.390440205783889, 17.458086277894122 ] ] ] } },
{ "type": "Feature", "properties": { "h3": "8960a259b47ffff", "built_t1": 0.75555555555555554, "built_t0": 0.27407407407407408, "flood_2020": 0, "low_lying": 0, "construction": 0 }, "geometry": { "type": "Polygon", "coordinates": [ [ [ 78.387338905678931, 17.456973211652297 ], [ 78.38675824267294, 17.458728897592447 ], [ 78.384917308973527, 17.459050171996125 ], [ 78.383657070297701, 17.45761578854685 ], [ 78.384237730204632, 17.455860128505016 ], [ 78.386078631887315, 17.45553882601401 ], [ 78.387338905678931, 17.456973211652297 ] ] ] } },
{ "type": "Feature", "properties": { "h3": "8960a259b4bffff", "built_t1": 0.85820895522388063, "built_t0": 0.033582089552238806, "flood_2020": 0, "low_lying": 1, "construction": 1 }, "geometry": { "type": "Polygon", "coordinates": [ [ [ 78.391119899893951, 17.461276382159063 ], [ 78.390539227430509, 17.463032068205742 ], [ 78.388698197849365, 17.463353335931405 ], [ 78.387437872749587, 17.461918945692346 ], [ 78.388018542118346, 17.46016328553652 ], [ 78.38985953968249, 17.459841989728758 ], [ 78.391119899893951, 17.461276382159063 ] ] ] } },
{ "type": "Feature", "properties": { "h3": "8960a259b4fffff", "built_t1": 0.8810408921933085, "built_t0": 0.17472118959107807, "flood_2020": 0, "low_lying": 0, "construction": 1 }, "geometry": { "type": "Polygon", "coordinates": [ [ [ 78.388018542118346, 17.46016328553652 ], [ 78.387437872749587, 17.461918945692346 ], [ 78.385596907032863, 17.462240192009538 ], [ 78.384336642703076, 17.460805806257277 ], [ 78.384917308973527, 17.459050171996125 ], [ 78.38675824267294, 17.458728897592447 ], [ 78.388018542118346, 17.46016328553652 ] ] ] } },
{ "type": "Feature", "properties": { "h3": "8960a259b53ffff", "built_t1": 0.63940520446096649, "built_t0": 0.52788104089219334, "flood_2020": 0, "low_lying": 0, "construction": 0 }, "geometry": { "type": "Polygon", "coordinates": [ [ [ 78.392861898021366, 17.456009169092162 ], [ 78.392281235189472, 17.457764932599005 ], [ 78.390440205783889, 17.458086277894122 ], [ 78.389179871226617, 17.456651887761609 ], [ 78.389760530965958, 17.454896150149047 ], [ 78.391601528355991, 17.454574776774585 ], [ 78.392861898021366, 17.456009169092162 ] ] ] } },
{ "type": "Feature", "properties": { "h3": "8960a259b57ffff", "built_t1": 0.64684014869888473, "built_t0": 0.60223048327137552, "flood_2020": 0, "low_lying": 0, "construction": 0 }, "geometry": { "type": "Polygon", "coordinates": [ [ [ 78.389760530965958, 17.454896150149047 ], [ 78.389179871226617, 17.456651887761609 ], [ 78.387338905678931, 17.456973211652297 ], [ 78.386078631887315, 17.45553882601401 ], [ 78.386659288530467, 17.453783114299565 ], [ 78.388500222062319, 17.453461762325158 ], [ 78.389760530965958, 17.454896150149047 ] ] ] } },
{ "type": "Feature", "properties": { "h3": "8960a259b5bffff", "built_t1": 0.58364312267657992, "built_t0": 0.033457249070631967, "flood_2020": 0, "low_lying": 1, "construction": 1 }, "geometry": { "type": "Polygon", "coordinates": [ [ [ 78.393541630508878, 17.45919932721716 ], [ 78.392960961315652, 17.460955064942464 ], [ 78.391119899893951, 17.461276382159063 ], [ 78.38985953968249, 17.459841989728758 ], [ 78.390440205783889, 17.458086277894122 ], [ 78.392281235189472, 17.457764932599005 ], [ 78.393541630508878, 17.45919932721716 ] ] ] } },
{ "type": "Feature", "properties": { "h3": "8960a259b63ffff", "built_t1": 0.80597014925373134, "built_t0": 0.029850746268656716, "flood_2020": 0, "low_lying": 1, "construction": 0 }, "geometry": { "type": "Polygon", "coordinates": [ [ [ 78.381816200470141, 17.457937041551233 ], [ 78.381235537301649, 17.459692649913865 ], [ 78.379394699335123, 17.460013853428411 ], [ 78.378134556555906, 17.458579476675457 ], [ 78.378715216618829, 17.456823894215166 ], [ 78.380556022567418, 17.456502662605335 ], [ 78.381816200470141, 17.457937041551233 ] ] ] } },
{ "type": "Feature", "properties": { "h3": "8960a259b67ffff", "built_t1": 0.27137546468401486, "built_t0": 0.15613382899628253, "flood_2020": 0, "low_lying": 1, "construction": 0 }, "geometry": { "type": "Polygon", "coordinates": [ [ [ 78.378715216618829, 17.456823894215166 ], [ 78.378134556555906, 17.458579476675457 ], [ 78.376293782475216, 17.45890065879583 ], [ 78.37503370047655, 17.457466286555448 ], [ 78.375614357430265, 17.455710730001304 ], [ 78.377455099492735, 17.455389519781257 ], [ 78.378715216618829, 17.456823894215166 ] ] ] } },
{ "type": "Feature", "properties": { "h3": "8960a259b6bffff", "built_t1": 0.5799256505576208, "built_t0": 0.62453531598513012, "flood_2020": 0, "low_lying": 0, "construction": 0 }, "geometry": { "type": "Polygon", "coordinates": [ [ [ 78.382495740857891, 17.461127031170765 ], [ 78.381915071325182, 17.462882613746288 ], [ 78.380074201340193, 17.463203789166347 ], [ 78.378814032907272, 17.461769410105237 ], [ 78.379394699335123, 17.460013853428411 ], [ 78.381235537301649, 17.459692649913865 ], [ 78.382495740857891, 17.461127031170765 ] ] ] } },
{ "type": "Feature", "properties": { "h3": "8960a259b6fffff", "built_t1": 0.25, "built_t0": 0.1044776119402985, "flood_2020": 0, "low_lying": 1, "construction": 0 }, "geometry": { "type": "Polygon", "coordinates": [ [ [ 78.379394699335123, 17.460013853428411 ], [ 78.378814032907272, 17.461769410105237 ], [ 78.376973226807763, 17.462090564126722 ], [ 78.37571311915579, 17.460656189570138 ], [ 78.376293782475216, 17.45890065879583 ], [ 78.378134556555906, 17.458579476675457 ], [ 78.379394699335123, 17.460013853428411 ] ] ] } },
{ "type": "Feature", "properties": { "h3": "8960a259b73ffff", "built_t1": 0.52788104089219334, "built_t0": 0.21189591078066913, "flood_2020": 0, "low_lying": 0, "construction": 0 }, "geometry": { "type": "Polygon", "coordinates": [ [ [ 78.384237730204632, 17.455860128505016 ], [ 78.383657070297701, 17.45761578854685 ], [ 78.381816200470141, 17.457937041551233 ], [ 78.380556022567418, 17.456502662605335 ], [ 78.381136679371664, 17.454747028465636 ], [ 78.382977517182184, 17.454425747369548 ], [ 78.384237730204632, 17.455860128505016 ] ] ] } },
{ "type": "Feature", "properties": { "h3": "8960a259b77ffff", "built_t1": 0.60594795539033453, "built_t0": 0.14126394052044611, "flood_2020": 0, "low_lying": 1, "construction": 0 }, "geometry": { "type": "Polygon", "coordinates": [ [ [ 78.381136679371664, 17.454747028465636 ], [ 78.380556022567418, 17.456502662605335 ], [ 78.378715216618829, 17.456823894215166 ], [ 78.377455099492735, 17.455389519781257 ], [ 78.378035753190673, 17.45363391154752 ], [ 78.379876527121908, 17.453312651841596 ], [ 78.381136679371664, 17.454747028465636 ] ] ] } },
{ "type": "Feature", "properties": { "h3": "8960a259b7bffff", "built_t1": 0.60223048327137552, "built_t0": 0.17100371747211895, "flood_2020": 0, "low_lying": 0, "construction": 0 }, "geometry": { "type": "Polygon", "coordinates": [ [ [ 78.384917308973527, 17.459050171996125 ], [ 78.384336642703076, 17.460805806257277 ], [ 78.382495740857891, 17.461127031170765 ], [ 78.381235537301649, 17.459692649913865 ], [ 78.381816200470141, 17.457937041551233 ], [ 78.383657070297701, 17.45761578854685 ], [ 78.384917308973527, 17.459050171996125 ] ] ] } },
{ "type": "Feature", "properties": { "h3": "8960a259b83ffff", "built_t1": 0.45353159851301117, "built_t0": 0.45724907063197023, "flood_2020": 0, "low_lying": 1, "construction": 0 }, "geometry": { "type": "Polygon", "coordinates": [ [ [ 78.390143160991471, 17.4432483020917 ], [ 78.389562523605349, 17.445004168624408 ], [ 78.387721622258638, 17.445325626241711 ], [ 78.386461390312263, 17.443891245408714 ], [ 78.38704202460292, 17.442135404784814 ], [ 78.388882893936312, 17.441813919084954 ], [ 78.390143160991471, 17.4432483020917 ] ] ] } },
{ "type": "Feature", "properties": { "h3": "8960a259b87ffff", "built_t1": 0.39552238805970147, "built_t0": 0.41044776119402987, "flood_2020": 0, "low_lying": 1, "construction": 0 }, "geometry": { "type": "Polygon", "coordinates": [ [ [ 78.38704202460292, 17.442135404784814 ], [ 78.386461390312263, 17.443891245408714 ], [ 78.3846205528247, 17.444212681639154 ], [ 78.383360381642305, 17.442778305332489 ], [ 78.383941012833859, 17.441022490621179 ], [ 78.385781818307777, 17.440701026303785 ], [ 78.38704202460292, 17.442135404784814 ] ] ] } },
{ "type": "Feature", "properties": { "h3": "8960a259b8bffff", "built_t1": 0.44609665427509293, "built_t0": 0.36431226765799257, "flood_2020": 0, "low_lying": 0, "construction": 0 }, "geometry": { "type": "Polygon", "coordinates": [ [ [ 78.390822816312181, 17.446438553975128 ], [ 78.390242172564555, 17.448194394766421 ], [ 78.388401239203972, 17.448515824301978 ], [ 78.387140981605754, 17.447081441127843 ], [ 78.387721622258638, 17.445325626241711 ], [ 78.389562523605349, 17.445004168624408 ], [ 78.390822816312181, 17.446438553975128 ] ] ] } },
{ "type": "Feature", "properties": { "h3": "8960a259b8fffff", "built_t1": 0.43333333333333335, "built_t0": 0.42592592592592593, "flood_2020": 0, "low_lying": 0, "construction": 0 }, "geometry": { "type": "Polygon", "coordinates": [ [ [ 78.387721622258638, 17.445325626241711 ], [ 78.387140981605754, 17.447081441127843 ], [ 78.385300112103991, 17.447402849272127 ], [ 78.384039915270179, 17.44596847061629 ], [ 78.3846205528247, 17.444212681639154 ], [ 78.386461390312263, 17.443891245408714 ], [ 78.387721622258638, 17.445325626241711 ] ] ] } },
{ "type": "Feature", "properties": { "h3": "8960a259b93ffff", "built_t1": 0.45555555555555555, "built_t0": 0.53703703703703709, "flood_2020": 0, "low_lying": 1, "construction": 0 }, "geometry": { "type": "Polygon", "coordinates": [ [ [ 78.392564728294388, 17.441170876831915 ], [ 78.391984094177189, 17.44292679500461 ], [ 78.390143160991471, 17.4432483020917 ], [ 78.388882893936312, 17.441813919084954 ], [ 78.389463524960917, 17.440058026820839 ], [ 78.39130442613417, 17.439736491654767 ], [ 78.392564728294388, 17.441170876831915 ] ] ] } },
{ "type": "Feature", "properties": { "h3": "8960a259b97ffff", "built_t1": 0.43494423791821563, "built_t0": 0.39776951672862454, "flood_2020": 0, "low_lying": 1, "construction": 0 }, "geometry": { "type": "Polygon", "coordinates": [ [ [ 78.389463524960917, 17.440058026820839 ], [ 78.388882893936312, 17.441813919084954 ], [ 78.38704202460292, 17.442135404784814 ], [ 78.385781818307777, 17.440701026303785 ], [ 78.386362446236191, 17.438945159952109 ], [ 78.388203283556791, 17.438623646168885 ], [ 78.389463524960917, 17.440058026820839 ] ] ] } },
{ "type": "Feature", "properties": { "h3": "8960a259b9bffff", "built_t1": 0.50936329588014984, "built_t0": 0.58052434456928836, "flood_2020": 0, "low_lying": 0, "construction": 0 }, "geometry": { "type": "Polygon", "coordinates": [ [ [ 78.393244421988882, 17.444361182528528 ], [ 78.392663781510905, 17.446117074966185 ], [ 78.390822816312181, 17.446438553975128 ], [ 78.389562523605349, 17.445004168624408 ], [ 78.390143160991471, 17.4432483020917 ], [ 78.391984094177189, 17.44292679500461 ], [ 78.393244421988882, 17.444361182528528 ] ] ] } },
{ "type": "Feature", "properties": { "h3": "8960a259ba3ffff", "built_t1": 0.30970149253731344, "built_t0": 0.41044776119402987, "flood_2020": 0, "low_lying": 0, "construction": 0 }, "geometry": { "type": "Polygon", "coordinates": [ [ [ 78.381519608020994, 17.443099720180811 ], [ 78.38093897356849, 17.444855483245117 ], [ 78.379098231805784, 17.445176848621145 ], [ 78.377838156511316, 17.443742479027662 ], [ 78.378418787858223, 17.44198674187998 ], [ 78.380259497606104, 17.441665348409011 ], [ 78.381519608020994, 17.443099720180811 ] ] ] } },
{ "type": "Feature", "properties": { "h3": "8960a259ba7ffff", "built_t1": 0.54477611940298509, "built_t0": 0.31343283582089554, "flood_2020": 0, "low_lying": 0, "construction": 0 }, "geometry": { "type": "Polygon", "coordinates": [ [ [ 78.378418787858223, 17.44198674187998 ], [ 78.377838156511316, 17.443742479027662 ], [ 78.375997478628861, 17.444063823026717 ], [ 78.37473746410933, 17.442629457977258 ], [ 78.375318092347001, 17.440873746750047 ], [ 78.377158738214334, 17.440552374651691 ], [ 78.378418787858223, 17.44198674187998 ] ] ] } },
{ "type": "Feature", "properties": { "h3": "8960a259babffff", "built_t1": 0.60966542750929364, "built_t0": 0.57620817843866168, "flood_2020": 0, "low_lying": 1, "construction": 0 }, "geometry": { "type": "Polygon", "coordinates": [ [ [ 78.382199109634371, 17.446289857374069 ], [ 78.381618468818189, 17.448045594697813 ], [ 78.379777695040133, 17.448366931979741 ], [ 78.37851759409449, 17.446932560031879 ], [ 78.379098231805784, 17.445176848621145 ], [ 78.38093897356849, 17.444855483245117 ], [ 78.382199109634371, 17.446289857374069 ] ] ] } },
{ "type": "Feature", "properties": { "h3": "8960a259bafffff", "built_t1": 0.41635687732342008, "built_t0": 0.39405204460966542, "flood_2020": 0, "low_lying": 0, "construction": 0 }, "geometry": { "type": "Polygon", "coordinates": [ [ [ 78.379098231805784, 17.445176848621145 ], [ 78.37851759409449, 17.446932560031879 ], [ 78.376676884196328, 17.447253875932425 ], [ 78.375416844026049, 17.4458195085206 ], [ 78.375997478628861, 17.444063823026717 ], [ 78.377838156511316, 17.443742479027662 ], [ 78.379098231805784, 17.445176848621145 ] ] ] } },
{ "type": "Feature", "properties": { "h3": "8960a259bb3ffff", "built_t1": 0.2899628252788104, "built_t0": 0.30111524163568776, "flood_2020": 0, "low_lying": 1, "construction": 0 }, "geometry": { "type": "Polygon", "coordinates": [ [ [ 78.383941012833859, 17.441022490621179 ], [ 78.383360381642305, 17.442778305332489 ], [ 78.381519608020994, 17.443099720180811 ], [ 78.380259497606104, 17.441665348409011 ], [ 78.380840125694945, 17.439909559614154 ], [ 78.38268086730227, 17.439588116674493 ], [ 78.383941012833859, 17.441022490621179 ] ] ] } },
{ "type": "Feature", "properties": { "h3": "8960a259bb7ffff", "built_t1": 0.48698884758364314, "built_t0": 0.37174721189591076, "flood_2020": 0, "low_lying": 0, "construction": 0 }, "geometry": { "type": "Polygon", "coordinates": [ [ [ 78.380840125694945, 17.439909559614154 ], [ 78.380259497606104, 17.441665348409011 ], [ 78.378418787858223, 17.44198674187998 ], [ 78.377158738214334, 17.440552374651691 ], [ 78.37773936319681, 17.438796611777082 ], [ 78.379580040930449, 17.43847519021039 ], [ 78.380840125694945, 17.439909559614154 ] ] ] } },
{ "type": "Feature", "properties": { "h3": "8960a259bbbffff", "built_t1": 0.5018587360594795, "built_t0": 0.53903345724907059, "flood_2020": 0, "low_lying": 1, "construction": 0 }, "geometry": { "type": "Polygon", "coordinates": [ [ [ 78.3846205528247, 17.444212681639154 ], [ 78.384039915270179, 17.44596847061629 ], [ 78.382199109634371, 17.446289857374069 ], [ 78.38093897356849, 17.444855483245117 ], [ 78.381519608020994, 17.443099720180811 ], [ 78.383360381642305, 17.442778305332489 ], [ 78.3846205528247, 17.444212681639154 ] ] ] } },
{ "type": "Feature", "properties": { "h3": "8960a259bc3ffff", "built_t1": 0.49814126394052044, "built_t0": 0.35687732342007433, "flood_2020": 0, "low_lying": 0, "construction": 0 }, "geometry": { "type": "Polygon", "coordinates": [ [ [ 78.394603867252357, 17.450741723703658 ], [ 78.394023214052879, 17.452497564641213 ], [ 78.392182184826481, 17.452818987496219 ], [ 78.39092184081457, 17.451384597490112 ], [ 78.391502490923628, 17.449628782450258 ], [ 78.393343488135912, 17.4493073315187 ], [ 78.394603867252357, 17.450741723703658 ] ] ] } },
{ "type": "Feature", "properties": { "h3": "8960a259bc7ffff", "built_t1": 0.36431226765799257, "built_t0": 0.31598513011152418, "flood_2020": 0, "low_lying": 0, "construction": 0 }, "geometry": { "type": "Polygon", "coordinates": [ [ [ 78.391502490923628, 17.449628782450258 ], [ 78.39092184081457, 17.451384597490112 ], [ 78.389080875439532, 17.451705998944707 ], [ 78.387820592188902, 17.450271613440286 ], [ 78.388401239203972, 17.448515824301978 ], [ 78.390242172564555, 17.448194394766421 ], [ 78.391502490923628, 17.449628782450258 ] ] ] } },
{ "type": "Feature", "properties": { "h3": "8960a259bcbffff", "built_t1": 0.50557620817843862, "built_t0": 0.52416356877323422, "flood_2020": 0, "low_lying": 0, "construction": 0 }, "geometry": { "type": "Polygon", "coordinates": [ [ [ 78.395283618822589, 17.453931959140441 ], [ 78.394702959262446, 17.455687774312885 ], [ 78.392861898021366, 17.456009169092162 ], [ 78.391601528355991, 17.454574776774585 ], [ 78.392182184826481, 17.452818987496219 ], [ 78.394023214052879, 17.452497564641213 ], [ 78.395283618822589, 17.453931959140441 ] ] ] } },
{ "type": "Feature", "properties": { "h3": "8960a259bcfffff", "built_t1": 0.67037037037037039, "built_t0": 0.6333333333333333, "flood_2020": 0, "low_lying": 0, "construction": 0 }, "geometry": { "type": "Polygon", "coordinates": [ [ [ 78.392182184826481, 17.452818987496219 ], [ 78.391601528355991, 17.454574776774585 ], [ 78.389760530965958, 17.454896150149047 ], [ 78.388500222062319, 17.453461762325158 ], [ 78.389080875439532, 17.451705998944707 ], [ 78.39092184081457, 17.451384597490112 ], [ 78.392182184826481, 17.452818987496219 ] ] ] } },
{ "type": "Feature", "properties": { "h3": "8960a259bd3ffff", "built_t1": 0.3888888888888889, "built_t0": 0.18148148148148149, "flood_2020": 0, "low_lying": 1, "construction": 0 }, "geometry": { "type": "Polygon", "coordinates": [ [ [ 78.397025578235443, 17.448664358781169 ], [ 78.39644492830918, 17.450420251371298 ], [ 78.394603867252357, 17.450741723703658 ], [ 78.393343488135912, 17.4493073315187 ], [ 78.393924134974668, 17.44755146482607 ], [ 78.395765164018229, 17.447229964420739 ], [ 78.397025578235443, 17.448664358781169 ] ] ] } },
{ "type": "Feature", "properties": { "h3": "8960a259bd7ffff", "built_t1": 0.37686567164179102, "built_t0": 0.23134328358208955, "flood_2020": 0, "low_lying": 0, "construction": 0 }, "geometry": { "type": "Polygon", "coordinates": [ [ [ 78.393924134974668, 17.44755146482607 ], [ 78.393343488135912, 17.4493073315187 ], [ 78.391502490923628, 17.449628782450258 ], [ 78.390242172564555, 17.448194394766421 ], [ 78.390822816312181, 17.446438553975128 ], [ 78.392663781510905, 17.446117074966185 ], [ 78.393924134974668, 17.44755146482607 ] ] ] } },
{ "type": "Feature", "properties": { "h3": "8960a259bdbffff", "built_t1": 0.44776119402985076, "built_t0": 0.34701492537313433, "flood_2020": 0, "low_lying": 1, "construction": 0 }, "geometry": { "type": "Polygon", "coordinates": [ [ [ 78.397705368179459, 17.451854648048801 ], [ 78.397124711893227, 17.45361051488025 ], [ 78.395283618822589, 17.453931959140441 ], [ 78.394023214052879, 17.452497564641213 ], [ 78.394603867252357, 17.450741723703658 ], [ 78.39644492830918, 17.450420251371298 ], [ 78.397705368179459, 17.451854648048801 ] ] ] } }
]
}
