{
"type": "FeatureCollection",
"name": "HYD-002_cells",
"crs": { "type": "name", "properties": { "name": "urn:ogc:def:crs:OGC:1.3:CRS84" } },
"features": [
{ "type": "Feature", "properties": { "h3": "8960a24a003ffff", "built_t1": 0.059479553903345722, "built_t0": 0.10408921933085502, "flood_2020": 0, "low_lying": 0, "construction": 0 }, "geometry": { "type": "Polygon", "coordinates": [ [ [ 78.342576194973844, 17.435009150867927 ], [ 78.341995588430208, 17.436764525320875 ], [ 78.34015561362699, 17.437085556865711 ], [ 78.33889627738823, 17.435651242107816 ], [ 78.339476880780694, 17.433895893613936 ], [ 78.341316823563957, 17.433574833918744 ], [ 78.342576194973844, 17.435009150867927 ] ] ] } },
{ "type": "Feature", "properties": { "h3": "8960a24a007ffff", "built_t1": 0.2342007434944238, "built_t0": 0.13382899628252787, "flood_2020": 0, "low_lying": 0, "construction": 1 }, "geometry": { "type": "Polygon", "coordinates": [ [ [ 78.339476880780694, 17.433895893613936 ], [ 78.33889627738823, 17.435651242107816 ], [ 78.337056366557192, 17.43597225232876 ], [ 78.335797091139753, 17.434537942210394 ], [ 78.336377691377422, 17.432782619679404 ], [ 78.338217570188206, 17.432461581303716 ], [ 78.339476880780694, 17.433895893613936 ] ] ] } },
{ "type": "Feature", "properties": { "h3": "8960a24a00bffff", "built_t1": 0.1895910780669145, "built_t0": 0.011152416356877323, "flood_2020": 0, "low_lying": 0, "construction": 0 }, "geometry": { "type": "Polygon", "coordinates": [ [ [ 78.343254985486794, 17.438198844709735 ], [ 78.342674372570045, 17.439954193449186 ], [ 78.340834365746318, 17.440275196844475 ], [ 78.339575003860702, 17.438840879649732 ], [ 78.34015561362699, 17.437085556865711 ], [ 78.341995588430208, 17.436764525320875 ], [ 78.343254985486794, 17.438198844709735 ] ] ] } },
{ "type": "Feature", "properties": { "h3": "8960a24a013ffff", "built_t1": 0.16728624535315986, "built_t0": 0.18215613382899629, "flood_2020": 0, "low_lying": 0, "construction": 0 }, "geometry": { "type": "Polygon", "coordinates": [ [ [ 78.344996805041305, 17.432932643733196 ], [ 78.344416201722495, 17.43468806984847 ], [ 78.342576194973844, 17.435009150867927 ], [ 78.341316823563957, 17.433574833918744 ], [ 78.341897423734466, 17.431819433762346 ], [ 78.343737398464029, 17.431498324596109 ], [ 78.344996805041305, 17.432932643733196 ] ] ] } },
{ "type": "Feature", "properties": { "h3": "8960a24a017ffff", "built_t1": 0.27137546468401486, "built_t0": 0.18215613382899629, "flood_2020": 0, "low_lying": 0, "construction": 1 }, "geometry": { "type": "Polygon", "coordinates": [ [ [ 78.341897423734466, 17.431819433762346 ], [ 78.341316823563957, 17.433574833918744 ], [ 78.339476880780694, 17.433895893613936 ], [ 78.338217570188206, 17.432461581303716 ], [ 78.338798167206804, 17.430706207110017 ], [ 78.340638077970681, 17.430385119263676 ], [ 78.341897423734466, 17.431819433762346 ] ] ] } },
{ "type": "Feature", "properties": { "h3": "8960a24a01bffff", "built_t1": 0.011194029850746268, "built_t0": 0.0, "flood_2020": 0, "low_lying": 0, "construction": 0 }, "geometry": { "type": "Polygon", "coordinates": [ [ [ 78.345675633946286, 17.436122391428061 ], [ 78.345095024255087, 17.43787779183624 ], [ 78.343254985486794, 17.438198844709735 ], [ 78.341995588430208, 17.436764525320875 ], [ 78.342576194973844, 17.435009150867927 ], [ 78.344416201722495, 17.43468806984847 ], [ 78.345675633946286, 17.436122391428061 ] ] ] } },
{ "type": "Feature", "properties": { "h3": "8960a24a053ffff", "built_t1": 0.26865671641791045, "built_t0": 0.17910447761194029, "flood_2020": 0, "low_lying": 0, "construction": 0 }, "geometry": { "type": "Polygon", "coordinates": [ [ [ 78.349454103533986, 17.440425370265658 ], [ 78.348873484327214, 17.442180770904521 ], [ 78.347033349581039, 17.442501816970655 ], [ 78.34577386606243, 17.441067490538565 ], [ 78.346354482126003, 17.439312115847507 ], [ 78.348194584852266, 17.438991041640591 ], [ 78.349454103533986, 17.440425370265658 ] ] ] } },
{ "type": "Feature", "properties": { "h3": "8960a24a057ffff", "built_t1": 0.27509293680297398, "built_t0": 0.040892193308550186, "flood_2020": 0, "low_lying": 0, "construction": 0 }, "geometry": { "type": "Polygon", "coordinates": [ [ [ 78.346354482126003, 17.439312115847507 ], [ 78.34577386606243, 17.441067490538565 ], [ 78.343933795273912, 17.441388515266894 ], [ 78.342674372570045, 17.439954193449186 ], [ 78.343254985486794, 17.438198844709735 ], [ 78.345095024255087, 17.43787779183624 ], [ 78.346354482126003, 17.439312115847507 ] ] ] } },
{ "type": "Feature", "properties": { "h3": "8960a24a083ffff", "built_t1": 0.21561338289962825, "built_t0": 0.085501858736059477, "flood_2020": 0, "low_lying": 0, "construction": 0 }, "geometry": { "type": "Polygon", "coordinates": [ [ [ 78.346738595800375, 17.427666210688038 ], [ 78.34615800208033, 17.429421714149701 ], [ 78.344317995410407, 17.429742872783773 ], [ 78.343058614479077, 17.428308556100031 ], [ 78.343639205052966, 17.426553078600659 ], [ 78.345479179705237, 17.426231891822603 ], [ 78.346738595800375, 17.427666210688038 ] ] ] } },
{ "type": "Feature", "properties": { "h3": "8960a24a087ffff", "built_t1": 0.2342007434944238, "built_t0": 0.21933085501858737, "flood_2020": 0, "low_lying": 1, "construction": 0 }, "geometry": { "type": "Polygon", "coordinates": [ [ [ 78.343639205052966, 17.426553078600659 ], [ 78.343058614479077, 17.428308556100031 ], [ 78.341218671768033, 17.428629693413829 ], [ 78.339959351649753, 17.427195381376503 ], [ 78.340539939073892, 17.425439929843265 ], [ 78.342379849766985, 17.425118764381086 ], [ 78.343639205052966, 17.426553078600659 ] ] ] } },
{ "type": "Feature", "properties": { "h3": "8960a24a08bffff", "built_t1": 0.30597014925373134, "built_t0": 0.033582089552238806, "flood_2020": 0, "low_lying": 0, "construction": 0 }, "geometry": { "type": "Polygon", "coordinates": [ [ [ 78.347417443821215, 17.43085603547129 ], [ 78.346836843729449, 17.432611513242307 ], [ 78.344996805041305, 17.432932643733196 ], [ 78.343737398464029, 17.431498324596109 ], [ 78.344317995410407, 17.429742872783773 ], [ 78.34615800208033, 17.429421714149701 ], [ 78.347417443821215, 17.43085603547129 ] ] ] } },
{ "type": "Feature", "properties": { "h3": "8960a24a08fffff", "built_t1": 0.37313432835820898, "built_t0": 0.16044776119402984, "flood_2020": 0, "low_lying": 0, "construction": 0 }, "geometry": { "type": "Polygon", "coordinates": [ [ [ 78.344317995410407, 17.429742872783773 ], [ 78.343737398464029, 17.431498324596109 ], [ 78.341897423734466, 17.431819433762346 ], [ 78.340638077970681, 17.430385119263676 ], [ 78.341218671768033, 17.428629693413829 ], [ 78.343058614479077, 17.428308556100031 ], [ 78.344317995410407, 17.429742872783773 ] ] ] } },
{ "type": "Feature", "properties": { "h3": "8960a24a093ffff", "built_t1": 0.13432835820895522, "built_t0": 0.097014925373134331, "flood_2020": 0, "low_lying": 0, "construction": 0 }, "geometry": { "type": "Polygon", "coordinates": [ [ [ 78.349159224896226, 17.425589447484931 ], [ 78.348578634404703, 17.427345002589345 ], [ 78.346738595800375, 17.427666210688038 ], [ 78.345479179705237, 17.426231891822603 ], [ 78.34605976705349, 17.424476362680313 ], [ 78.347899773641032, 17.424155126441192 ], [ 78.349159224896226, 17.425589447484931 ] ] ] } },
{ "type": "Feature", "properties": { "h3": "8960a24a097ffff", "built_t1": 0.29259259259259257, "built_t0": 0.37037037037037035, "flood_2020": 0, "low_lying": 1, "construction": 0 }, "geometry": { "type": "Polygon", "coordinates": [ [ [ 78.34605976705349, 17.424476362680313 ], [ 78.345479179705237, 17.426231891822603 ], [ 78.343639205052966, 17.426553078600659 ], [ 78.342379849766985, 17.425118764381086 ], [ 78.342960433968372, 17.423363261204727 ], [ 78.34480037660353, 17.423042046281868 ], [ 78.34605976705349, 17.424476362680313 ] ] ] } },
{ "type": "Feature", "properties": { "h3": "8960a24a09bffff", "built_t1": 0.029739776951672861, "built_t0": 0.0, "flood_2020": 0, "low_lying": 0, "construction": 0 }, "geometry": { "type": "Polygon", "coordinates": [ [ [ 78.349838111305488, 17.428779326092055 ], [ 78.349257514442911, 17.430534855512203 ], [ 78.347417443821215, 17.43085603547129 ], [ 78.34615800208033, 17.429421714149701 ], [ 78.346738595800375, 17.427666210688038 ], [ 78.348578634404703, 17.427345002589345 ], [ 78.349838111305488, 17.428779326092055 ] ] ] } },
{ "type": "Feature", "properties": { "h3": "8960a24a0a3ffff", "built_t1": 0.16728624535315986, "built_t0": 0.055762081784386616, "flood_2020": 0, "low_lying": 0, "construction": 0 }, "geometry": { "type": "Polygon", "coordinates": [ [ [ 78.338119472904694, 17.427516497374789 ], [ 78.337538882260006, 17.429271897258328 ], [ 78.335699035468906, 17.429592963789524 ], [ 78.334439811342534, 17.4281586585934 ], [ 78.33502039883102, 17.426403284680006 ], [ 78.336860213602947, 17.426082189992453 ], [ 78.338119472904694, 17.427516497374789 ] ] ] } },
{ "type": "Feature", "properties": { "h3": "8960a24a0abffff", "built_t1": 0.32713754646840149, "built_t0": 0.092936802973977689, "flood_2020": 0, "low_lying": 0, "construction": 1 }, "geometry": { "type": "Polygon", "coordinates": [ [ [ 78.338798167206804, 17.430706207110017 ], [ 78.338217570188206, 17.432461581303716 ], [ 78.336377691377422, 17.432782619679404 ], [ 78.335118441605815, 17.431348312016748 ], [ 78.335699035468906, 17.429592963789524 ], [ 78.337538882260006, 17.429271897258328 ], [ 78.338798167206804, 17.430706207110017 ] ] ] } },
{ "type": "Feature", "properties": { "h3": "8960a24a0b3ffff", "built_t1": 0.27715355805243447, "built_t0": 0.19850187265917604, "flood_2020": 0, "low_lying": 1, "construction": 0 }, "geometry": { "type": "Polygon", "coordinates": [ [ [ 78.340539939073892, 17.425439929843265 ], [ 78.339959351649753, 17.427195381376503 ], [ 78.338119472904694, 17.427516497374789 ], [ 78.336860213602947, 17.426082189992453 ], [ 78.337440797873754, 17.424326764429164 ], [ 78.339280644600507, 17.424005620278113 ], [ 78.340539939073892, 17.425439929843265 ] ] ] } },
{ "type": "Feature", "properties": { "h3": "8960a24a0b7ffff", "built_t1": 0.26022304832713755, "built_t0": 0.1449814126394052, "flood_2020": 0, "low_lying": 0, "construction": 0 }, "geometry": { "type": "Polygon", "coordinates": [ [ [ 78.337440797873754, 17.424326764429164 ], [ 78.336860213602947, 17.426082189992453 ], [ 78.33502039883102, 17.426403284680006 ], [ 78.333761200349301, 17.424968981961239 ], [ 78.334341781463095, 17.42321358237168 ], [ 78.336181564216488, 17.422892459527013 ], [ 78.337440797873754, 17.424326764429164 ] ] ] } },
{ "type": "Feature", "properties": { "h3": "8960a24a0bbffff", "built_t1": 0.19702602230483271, "built_t0": 0.044609665427509292, "flood_2020": 0, "low_lying": 0, "construction": 0 }, "geometry": { "type": "Polygon", "coordinates": [ [ [ 78.341218671768033, 17.428629693413829 ], [ 78.340638077970681, 17.430385119263676 ], [ 78.338798167206804, 17.430706207110017 ], [ 78.337538882260006, 17.429271897258328 ], [ 78.338119472904694, 17.427516497374789 ], [ 78.339959351649753, 17.427195381376503 ], [ 78.341218671768033, 17.428629693413829 ] ] ] } },
{ "type": "Feature", "properties": { "h3": "8960a24a0c3ffff", "built_t1": 0.029739776951672861, "built_t0": 0.022304832713754646, "flood_2020": 0, "low_lying": 0, "construction": 0 }, "geometry": { "type": "Polygon", "coordinates": [ [ [ 78.351195941950039, 17.435159013577117 ], [ 78.350615332345498, 17.436914491598685 ], [ 78.348775197687402, 17.437235615280969 ], [ 78.347515704653205, 17.435801289079567 ], [ 78.348096311116677, 17.434045837009233 ], [ 78.349936413756311, 17.433724685188949 ], [ 78.351195941950039, 17.435159013577117 ] ] ] } },
{ "type": "Feature", "properties": { "h3": "8960a24a0c7ffff", "built_t1": 0.26765799256505574, "built_t0": 0.01858736059479554, "flood_2020": 0, "low_lying": 0, "construction": 0 }, "geometry": { "type": "Polygon", "coordinates": [ [ [ 78.348096311116677, 17.434045837009233 ], [ 78.347515704653205, 17.435801289079567 ], [ 78.345675633946286, 17.436122391428061 ], [ 78.344416201722495, 17.43468806984847 ], [ 78.344996805041305, 17.432932643733196 ], [ 78.346836843729449, 17.432611513242307 ], [ 78.348096311116677, 17.434045837009233 ] ] ] } },
{ "type": "Feature", "properties": { "h3": "8960a24a0cbffff", "built_t1": 0.41044776119402987, "built_t0": 0.18656716417910449, "flood_2020": 0, "low_lying": 0, "construction": 0 }, "geometry": { "type": "Polygon", "coordinates": [ [ [ 78.351874886186593, 17.438348822413342 ], [ 78.351294270211127, 17.440104274720554 ], [ 78.349454103533986, 17.440425370265658 ], [ 78.348194584852266, 17.438991041640591 ], [ 78.348775197687402, 17.437235615280969 ], [ 78.350615332345498, 17.436914491598685 ], [ 78.351874886186593, 17.438348822413342 ] ] ] } },
{ "type": "Feature", "properties": { "h3": "8960a24a0cfffff", "built_t1": 0.16791044776119404, "built_t0": 0.037313432835820892, "flood_2020": 0, "low_lying": 0, "construction": 0 }, "geometry": { "type": "Polygon", "coordinates": [ [ [ 78.348775197687402, 17.437235615280969 ], [ 78.348194584852266, 17.438991041640591 ], [ 78.346354482126003, 17.439312115847507 ], [ 78.345095024255087, 17.43787779183624 ], [ 78.345675633946286, 17.436122391428061 ], [ 78.347515704653205, 17.435801289079567 ], [ 78.348775197687402, 17.437235615280969 ] ] ] } },
{ "type": "Feature", "properties": { "h3": "8960a24a0d3ffff", "built_t1": 0.05204460966542751, "built_t0": 0.048327137546468404, "flood_2020": 0, "low_lying": 0, "construction": 0 }, "geometry": { "type": "Polygon", "coordinates": [ [ [ 78.353616714905755, 17.433082310745753 ], [ 78.353036108533999, 17.43483784042267 ], [ 78.351195941950039, 17.435159013577117 ], [ 78.349936413756311, 17.433724685188949 ], [ 78.350517016989869, 17.431969181463057 ], [ 78.35235715155622, 17.431647980174187 ], [ 78.353616714905755, 17.433082310745753 ] ] ] } },
{ "type": "Feature", "properties": { "h3": "8960a24a0d7ffff", "built_t1": 0.05204460966542751, "built_t0": 0.0, "flood_2020": 0, "low_lying": 0, "construction": 0 }, "geometry": { "type": "Polygon", "coordinates": [ [ [ 78.350517016989869, 17.431969181463057 ], [ 78.349936413756311, 17.433724685188949 ], [ 78.348096311116677, 17.434045837009233 ], [ 78.346836843729449, 17.432611513242307 ], [ 78.347417443821215, 17.43085603547129 ], [ 78.349257514442911, 17.430534855512203 ], [ 78.350517016989869, 17.431969181463057 ] ] ] } },
{ "type": "Feature", "properties": { "h3": "8960a24a0dbffff", "built_t1": 0.16356877323420074, "built_t0": 0.10037174721189591, "flood_2020": 0, "low_lying": 0, "construction": 0 }, "geometry": { "type": "Polygon", "coordinates": [ [ [ 78.354295697530716, 17.436272173423525 ], [ 78.353715084788732, 17.438027677392508 ], [ 78.351874886186593, 17.438348822413342 ], [ 78.350615332345498, 17.436914491598685 ], [ 78.351195941950039, 17.435159013577117 ], [ 78.353036108533999, 17.43483784042267 ], [ 78.354295697530716, 17.436272173423525 ] ] ] } },
{ "type": "Feature", "properties": { "h3": "8960a24a403ffff", "built_t1": 0.53358208955223885, "built_t0": 0.27238805970149255, "flood_2020": 0, "low_lying": 1, "construction": 0 }, "geometry": { "type": "Polygon", "coordinates": [ [ [ 78.359521068123229, 17.420471477597758 ], [ 78.358940484199437, 17.422227213548471 ], [ 78.357100285902959, 17.422548591348296 ], [ 78.355840703545041, 17.421114261322554 ], [ 78.356421284337884, 17.419358551329569 ], [ 78.358261450620475, 17.419037145404463 ], [ 78.359521068123229, 17.420471477597758 ] ] ] } },
{ "type": "Feature", "properties": { "h3": "8960a24a407ffff", "built_t1": 0.38805970149253732, "built_t0": 0.34701492537313433, "flood_2020": 0, "low_lying": 1, "construction": 0 }, "geometry": { "type": "Polygon", "coordinates": [ [ [ 78.356421284337884, 17.419358551329569 ], [ 78.355840703545041, 17.421114261322554 ], [ 78.35400056917311, 17.421435617795876 ], [ 78.352741047609086, 17.420001292405729 ], [ 78.353321625267299, 17.418245608374257 ], [ 78.355161727625045, 17.41792422377128 ], [ 78.356421284337884, 17.419358551329569 ] ] ] } },
{ "type": "Feature", "properties": { "h3": "8960a24a40bffff", "built_t1": 0.28731343283582089, "built_t0": 0.052238805970149252, "flood_2020": 0, "low_lying": 0, "construction": 0 }, "geometry": { "type": "Polygon", "coordinates": [ [ [ 78.36020012734771, 17.42366154820121 ], [ 78.359619537055679, 17.425417258483268 ], [ 78.357779306744732, 17.425738608158635 ], [ 78.356519698741167, 17.424304275676263 ], [ 78.357100285902959, 17.422548591348296 ], [ 78.358940484199437, 17.422227213548471 ], [ 78.36020012734771, 17.42366154820121 ] ] ] } },
{ "type": "Feature", "properties": { "h3": "8960a24a40fffff", "built_t1": 0.34701492537313433, "built_t0": 0.089552238805970144, "flood_2020": 0, "low_lying": 1, "construction": 0 }, "geometry": { "type": "Polygon", "coordinates": [ [ [ 78.357100285902959, 17.422548591348296 ], [ 78.356519698741167, 17.424304275676263 ], [ 78.354679532354481, 17.424625604020747 ], [ 78.353419985145209, 17.423191276165952 ], [ 78.35400056917311, 17.421435617795876 ], [ 78.355840703545041, 17.421114261322554 ], [ 78.357100285902959, 17.422548591348296 ] ] ] } },
{ "type": "Feature", "properties": { "h3": "8960a24a413ffff", "built_t1": 0.58148148148148149, "built_t0": 0.51851851851851849, "flood_2020": 0, "low_lying": 1, "construction": 0 }, "geometry": { "type": "Polygon", "coordinates": [ [ [ 78.361941879007205, 17.418394262778978 ], [ 78.361361298323558, 17.420150050345793 ], [ 78.359521068123229, 17.420471477597758 ], [ 78.358261450620475, 17.419037145404463 ], [ 78.358842028175999, 17.417281383795153 ], [ 78.360682226363295, 17.416959928421491 ], [ 78.361941879007205, 17.418394262778978 ] ] ] } },
{ "type": "Feature", "properties": { "h3": "8960a24a417ffff", "built_t1": 0.49442379182156132, "built_t0": 0.44609665427509293, "flood_2020": 0, "low_lying": 1, "construction": 0 }, "geometry": { "type": "Polygon", "coordinates": [ [ [ 78.358842028175999, 17.417281383795153 ], [ 78.358261450620475, 17.419037145404463 ], [ 78.356421284337884, 17.419358551329569 ], [ 78.355161727625045, 17.41792422377128 ], [ 78.355742302048881, 17.416168488123297 ], [ 78.357582436318125, 17.415847054072128 ], [ 78.358842028175999, 17.417281383795153 ] ] ] } },
{ "type": "Feature", "properties": { "h3": "8960a24a41bffff", "built_t1": 0.27985074626865669, "built_t0": 0.093283582089552244, "flood_2020": 0, "low_lying": 1, "construction": 0 }, "geometry": { "type": "Polygon", "coordinates": [ [ [ 78.362620976612774, 17.421584387165542 ], [ 78.362040389561614, 17.423340149070143 ], [ 78.36020012734771, 17.42366154820121 ], [ 78.358940484199437, 17.422227213548471 ], [ 78.359521068123229, 17.420471477597758 ], [ 78.361361298323558, 17.420150050345793 ], [ 78.362620976612774, 17.421584387165542 ] ] ] } },
{ "type": "Feature", "properties": { "h3": "8960a24a423ffff", "built_t1": 0.64684014869888473, "built_t0": 0.71003717472118955, "flood_2020": 0, "low_lying": 0, "construction": 0 }, "geometry": { "type": "Polygon", "coordinates": [ [ [ 78.350900977168791, 17.420322627557283 ], [ 78.350320396278363, 17.422078259965634 ], [ 78.348480357761488, 17.422399545662582 ], [ 78.347220932151274, 17.420965227088669 ], [ 78.34780150990062, 17.419209620645866 ], [ 78.34964151640213, 17.418888306811301 ], [ 78.350900977168791, 17.420322627557283 ] ] ] } },
{ "type": "Feature", "properties": { "h3": "8960a24a427ffff", "built_t1": 0.28464419475655428, "built_t0": 0.23595505617977527, "flood_2020": 0, "low_lying": 0, "construction": 0 }, "geometry": { "type": "Polygon", "coordinates": [ [ [ 78.34780150990062, 17.419209620645866 ], [ 78.347220932151274, 17.420965227088669 ], [ 78.345380957579991, 17.421286491468983 ], [ 78.344121592774584, 17.419852177548371 ], [ 78.344702167379182, 17.418096597074925 ], [ 78.346542109934816, 17.417775304552602 ], [ 78.34780150990062, 17.419209620645866 ] ] ] } },
{ "type": "Feature", "properties": { "h3": "8960a24a42bffff", "built_t1": 0.17537313432835822, "built_t0": 0.11194029850746269, "flood_2020": 0, "low_lying": 1, "construction": 0 }, "geometry": { "type": "Polygon", "coordinates": [ [ [ 78.351579882689848, 17.423512583184273 ], [ 78.350999295429048, 17.425268189924818 ], [ 78.349159224896226, 17.425589447484931 ], [ 78.347899773641032, 17.424155126441192 ], [ 78.348480357761488, 17.422399545662582 ], [ 78.350320396278363, 17.422078259965634 ], [ 78.351579882689848, 17.423512583184273 ] ] ] } },
{ "type": "Feature", "properties": { "h3": "8960a24a42fffff", "built_t1": 0.34944237918215615, "built_t0": 0.33085501858736061, "flood_2020": 0, "low_lying": 0, "construction": 0 }, "geometry": { "type": "Polygon", "coordinates": [ [ [ 78.348480357761488, 17.422399545662582 ], [ 78.347899773641032, 17.424155126441192 ], [ 78.34605976705349, 17.424476362680313 ], [ 78.34480037660353, 17.423042046281868 ], [ 78.345380957579991, 17.421286491468983 ], [ 78.347220932151274, 17.420965227088669 ], [ 78.348480357761488, 17.422399545662582 ] ] ] } },
{ "type": "Feature", "properties": { "h3": "8960a24a433ffff", "built_t1": 0.57037037037037042, "built_t0": 0.56666666666666665, "flood_2020": 0, "low_lying": 0, "construction": 0 }, "geometry": { "type": "Polygon", "coordinates": [ [ [ 78.353321625267299, 17.418245608374257 ], [ 78.352741047609086, 17.420001292405729 ], [ 78.350900977168791, 17.420322627557283 ], [ 78.34964151640213, 17.418888306811301 ], [ 78.350222090922145, 17.417132648745184 ], [ 78.352062129347914, 17.41681128545957 ], [ 78.353321625267299, 17.418245608374257 ] ] ] } },
{ "type": "Feature", "properties": { "h3": "8960a24a437ffff", "built_t1": 0.63940520446096649, "built_t0": 0.40520446096654272, "flood_2020": 0, "low_lying": 0, "construction": 0 }, "geometry": { "type": "Polygon", "coordinates": [ [ [ 78.350222090922145, 17.417132648745184 ], [ 78.34964151640213, 17.418888306811301 ], [ 78.34780150990062, 17.419209620645866 ], [ 78.346542109934816, 17.417775304552602 ], [ 78.347122681312996, 17.416019672455651 ], [ 78.34896265579971, 17.415698330482673 ], [ 78.350222090922145, 17.417132648745184 ] ] ] } },
{ "type": "Feature", "properties": { "h3": "8960a24a43bffff", "built_t1": 0.37546468401486988, "built_t0": 0.58364312267657992, "flood_2020": 0, "low_lying": 1, "construction": 0 }, "geometry": { "type": "Polygon", "coordinates": [ [ [ 78.35400056917311, 17.421435617795876 ], [ 78.353419985145209, 17.423191276165952 ], [ 78.351579882689848, 17.423512583184273 ], [ 78.350320396278363, 17.422078259965634 ], [ 78.350900977168791, 17.420322627557283 ], [ 78.352741047609086, 17.420001292405729 ], [ 78.35400056917311, 17.421435617795876 ] ] ] } },
{ "type": "Feature", "properties": { "h3": "8960a24a443ffff", "built_t1": 0.10037174721189591, "built_t0": 0.070631970260223054, "flood_2020": 0, "low_lying": 0, "construction": 0 }, "geometry": { "type": "Polygon", "coordinates": [ [ [ 78.363979229659734, 17.427964566285432 ], [ 78.363398629873615, 17.429720276835422 ], [ 78.361558303630872, 17.430041619727138 ], [ 78.360298609189826, 17.428607280188011 ], [ 78.36087920585004, 17.42685159558464 ], [ 78.362719500078086, 17.426530224573639 ], [ 78.363979229659734, 17.427964566285432 ] ] ] } },
{ "type": "Feature", "properties": { "h3": "8960a24a447ffff", "built_t1": 0.29739776951672864, "built_t0": 0.033457249070631967, "flood_2020": 0, "low_lying": 0, "construction": 0 }, "geometry": { "type": "Polygon", "coordinates": [ [ [ 78.36087920585004, 17.42685159558464 ], [ 78.360298609189826, 17.428607280188011 ], [ 78.358458346863884, 17.428928601739695 ], [ 78.357198713214046, 17.427494266811539 ], [ 78.357779306744732, 17.425738608158635 ], [ 78.359619537055679, 17.425417258483268 ], [ 78.36087920585004, 17.42685159558464 ] ] ] } },
{ "type": "Feature", "properties": { "h3": "8960a24a44bffff", "built_t1": 0.15413533834586465, "built_t0": 0.17669172932330826, "flood_2020": 0, "low_lying": 1, "construction": 0 }, "geometry": { "type": "Polygon", "coordinates": [ [ [ 78.364658385102373, 17.431154620976972 ], [ 78.36407777894884, 17.432910305834625 ], [ 78.362237420690818, 17.433231620607874 ], [ 78.360977700602504, 17.43179727864181 ], [ 78.361558303630872, 17.430041619727138 ], [ 78.363398629873615, 17.429720276835422 ], [ 78.364658385102373, 17.431154620976972 ] ] ] } },
{ "type": "Feature", "properties": { "h3": "8960a24a44fffff", "built_t1": 0.30111524163568776, "built_t0": 0.040892193308550186, "flood_2020": 0, "low_lying": 0, "construction": 0 }, "geometry": { "type": "Polygon", "coordinates": [ [ [ 78.361558303630872, 17.430041619727138 ], [ 78.360977700602504, 17.43179727864181 ], [ 78.359137406260984, 17.43211857207061 ], [ 78.357877746964292, 17.43068423470752 ], [ 78.358458346863884, 17.428928601739695 ], [ 78.360298609189826, 17.428607280188011 ], [ 78.361558303630872, 17.430041619727138 ] ] ] } },
{ "type": "Feature", "properties": { "h3": "8960a24a453ffff", "built_t1": 0.1037037037037037, "built_t0": 0.059259259259259262, "flood_2020": 0, "low_lying": 0, "construction": 0 }, "geometry": { "type": "Polygon", "coordinates": [ [ [ 78.366400184339454, 17.425887411755259 ], [ 78.365819587797773, 17.427643173934008 ], [ 78.363979229659734, 17.427964566285432 ], [ 78.362719500078086, 17.426530224573639 ], [ 78.363300093496733, 17.42477448834131 ], [ 78.365140419620957, 17.424453067874225 ], [ 78.366400184339454, 17.425887411755259 ] ] ] } },
{ "type": "Feature", "properties": { "h3": "8960a24a457ffff", "built_t1": 0.081784386617100371, "built_t0": 0.033457249070631967, "flood_2020": 0, "low_lying": 0, "construction": 0 }, "geometry": { "type": "Polygon", "coordinates": [ [ [ 78.363300093496733, 17.42477448834131 ], [ 78.362719500078086, 17.426530224573639 ], [ 78.36087920585004, 17.42685159558464 ], [ 78.359619537055679, 17.425417258483268 ], [ 78.36020012734771, 17.42366154820121 ], [ 78.362040389561614, 17.423340149070143 ], [ 78.363300093496733, 17.42477448834131 ] ] ] } },
{ "type": "Feature", "properties": { "h3": "8960a24a45bffff", "built_t1": 0.11895910780669144, "built_t0": 0.089219330855018583, "flood_2020": 0, "low_lying": 1, "construction": 0 }, "geometry": { "type": "Polygon", "coordinates": [ [ [ 78.367079378163197, 17.429077520247645 ], [ 78.366498775254797, 17.430833256740463 ], [ 78.364658385102373, 17.431154620976972 ], [ 78.363398629873615, 17.429720276835422 ], [ 78.363979229659734, 17.427964566285432 ], [ 78.365819587797773, 17.427643173934008 ], [ 78.367079378163197, 17.429077520247645 ] ] ] } },
{ "type": "Feature", "properties": { "h3": "8960a24a463ffff", "built_t1": 0.23048327137546468, "built_t0": 0.0, "flood_2020": 0, "low_lying": 0, "construction": 0 }, "geometry": { "type": "Polygon", "coordinates": [ [ [ 78.355358514812025, 17.427815567027956 ], [ 78.354777918044846, 17.42957117404513 ], [ 78.352937751557704, 17.429892424799377 ], [ 78.351678213854797, 17.428458096667953 ], [ 78.352258807485953, 17.42670251560526 ], [ 78.354098941956906, 17.426381236719369 ], [ 78.355358514812025, 17.427815567027956 ] ] ] } },
{ "type": "Feature", "properties": { "h3": "8960a24a467ffff", "built_t1": 0.052434456928838954, "built_t0": 0.0037453183520599251, "flood_2020": 0, "low_lying": 0, "construction": 0 }, "geometry": { "type": "Polygon", "coordinates": [ [ [ 78.352258807485953, 17.42670251560526 ], [ 78.351678213854797, 17.428458096667953 ], [ 78.349838111305488, 17.428779326092055 ], [ 78.348578634404703, 17.427345002589345 ], [ 78.349159224896226, 17.425589447484931 ], [ 78.350999295429048, 17.425268189924818 ], [ 78.352258807485953, 17.42670251560526 ] ] ] } },
{ "type": "Feature", "properties": { "h3": "8960a24a46bffff", "built_t1": 0.048507462686567165, "built_t0": 0.052238805970149252, "flood_2020": 0, "low_lying": 0, "construction": 0 }, "geometry": { "type": "Polygon", "coordinates": [ [ [ 78.356037516546408, 17.43100550679668 ], [ 78.355456913409654, 17.432761088122341 ], [ 78.353616714905755, 17.433082310745753 ], [ 78.35235715155622, 17.431647980174187 ], [ 78.352937751557704, 17.429892424799377 ], [ 78.354777918044846, 17.42957117404513 ], [ 78.356037516546408, 17.43100550679668 ] ] ] } },
{ "type": "Feature", "properties": { "h3": "8960a24a46fffff", "built_t1": 0.03717472118959108, "built_t0": 0.0, "flood_2020": 0, "low_lying": 0, "construction": 0 }, "geometry": { "type": "Polygon", "coordinates": [ [ [ 78.352937751557704, 17.429892424799377 ], [ 78.35235715155622, 17.431647980174187 ], [ 78.350517016989869, 17.431969181463057 ], [ 78.349257514442911, 17.430534855512203 ], [ 78.349838111305488, 17.428779326092055 ], [ 78.351678213854797, 17.428458096667953 ], [ 78.352937751557704, 17.429892424799377 ] ] ] } },
{ "type": "Feature", "properties": { "h3": "8960a24a473ffff", "built_t1": 0.28518518518518521, "built_t0": 0.0037037037037037038, "flood_2020": 0, "low_lying": 0, "construction": 0 }, "geometry": { "type": "Polygon", "coordinates": [ [ [ 78.357779306744732, 17.425738608158635 ], [ 78.357198713214046, 17.427494266811539 ], [ 78.355358514812025, 17.427815567027956 ], [ 78.354098941956906, 17.426381236719369 ], [ 78.354679532354481, 17.424625604020747 ], [ 78.356519698741167, 17.424304275676263 ], [ 78.357779306744732, 17.425738608158635 ] ] ] } },
{ "type": "Feature", "properties": { "h3": "8960a24a477ffff", "built_t1": 0.055555555555555552, "built_t0": 0.0, "flood_2020": 0, "low_lying": 1, "construction": 0 }, "geometry": { "type": "Polygon", "coordinates": [ [ [ 78.354679532354481, 17.424625604020747 ], [ 78.354098941956906, 17.426381236719369 ], [ 78.352258807485953, 17.42670251560526 ], [ 78.350999295429048, 17.425268189924818 ], [ 78.351579882689848, 17.423512583184273 ], [ 78.353419985145209, 17.423191276165952 ], [ 78.354679532354481, 17.424625604020747 ] ] ] } },
{ "type": "Feature", "properties": { "h3": "8960a24a47bffff", "built_t1": 0.055762081784386616, "built_t0": 0.0037174721189591076, "flood_2020": 0, "low_lying": 0, "construction": 0 }, "geometry": { "type": "Polygon", "coordinates": [ [ [ 78.358458346863884, 17.428928601739695 ], [ 78.357877746964292, 17.43068423470752 ], [ 78.356037516546408, 17.43100550679668 ], [ 78.354777918044846, 17.42957117404513 ], [ 78.355358514812025, 17.427815567027956 ], [ 78.357198713214046, 17.427494266811539 ], [ 78.358458346863884, 17.428928601739695 ] ] ] } },
{ "type": "Feature", "properties": { "h3": "8960a24a483ffff", "built_t1": 0.2537313432835821, "built_t0": 0.0037313432835820895, "flood_2020": 0, "low_lying": 1, "construction": 0 }, "geometry": { "type": "Polygon", "coordinates": [ [ [ 78.363683601839824, 17.413126745561325 ], [ 78.363103030765416, 17.414882610383447 ], [ 78.36126280067937, 17.415204115202453 ], [ 78.360003173680184, 17.413769783318074 ], [ 78.360583741628673, 17.412013944456898 ], [ 78.362423939703135, 17.411692411518992 ], [ 78.363683601839824, 17.413126745561325 ] ] ] } },
{ "type": "Feature", "properties": { "h3": "8960a24a487ffff", "built_t1": 0.15185185185185185, "built_t0": 0.011111111111111112, "flood_2020": 0, "low_lying": 1, "construction": 0 }, "geometry": { "type": "Polygon", "coordinates": [ [ [ 78.360583741628673, 17.412013944456898 ], [ 78.360003173680184, 17.413769783318074 ], [ 78.358163007505382, 17.414091266814232 ], [ 78.356903441291806, 17.412656939572329 ], [ 78.357484006110724, 17.410901126675881 ], [ 78.359324140273642, 17.410579615056456 ], [ 78.360583741628673, 17.412013944456898 ] ] ] } },
{ "type": "Feature", "properties": { "h3": "8960a24a48bffff", "built_t1": 0.43866171003717475, "built_t0": 0.17843866171003717, "flood_2020": 0, "low_lying": 1, "construction": 0 }, "geometry": { "type": "Polygon", "coordinates": [ [ [ 78.364362718546687, 17.41631694690172 ], [ 78.363782141105403, 17.418072786078053 ], [ 78.361941879007205, 17.418394262778978 ], [ 78.360682226363295, 17.416959928421491 ], [ 78.36126280067937, 17.415204115202453 ], [ 78.363103030765416, 17.414882610383447 ], [ 78.364362718546687, 17.41631694690172 ] ] ] } },
{ "type": "Feature", "properties": { "h3": "8960a24a48fffff", "built_t1": 0.47388059701492535, "built_t0": 0.041044776119402986, "flood_2020": 0, "low_lying": 1, "construction": 0 }, "geometry": { "type": "Polygon", "coordinates": [ [ [ 78.36126280067937, 17.415204115202453 ], [ 78.360682226363295, 17.416959928421491 ], [ 78.358842028175999, 17.417281383795153 ], [ 78.357582436318125, 17.415847054072128 ], [ 78.358163007505382, 17.414091266814232 ], [ 78.360003173680184, 17.413769783318074 ], [ 78.36126280067937, 17.415204115202453 ] ] ] } },
{ "type": "Feature", "properties": { "h3": "8960a24a493ffff", "built_t1": 0.26022304832713755, "built_t0": 0.096654275092936809, "flood_2020": 0, "low_lying": 0, "construction": 0 }, "geometry": { "type": "Polygon", "coordinates": [ [ [ 78.366104431649276, 17.41104927488156 ], [ 78.365523863818709, 17.412805191300187 ], [ 78.363683601839824, 17.413126745561325 ], [ 78.362423939703135, 17.411692411518992 ], [ 78.36300450441064, 17.409936521061098 ], [ 78.364844734378778, 17.409614938684662 ], [ 78.366104431649276, 17.41104927488156 ] ] ] } },
{ "type": "Feature", "properties": { "h3": "8960a24a497ffff", "built_t1": 0.29629629629629628, "built_t0": 0.15185185185185185, "flood_2020": 0, "low_lying": 0, "construction": 0 }, "geometry": { "type": "Polygon", "coordinates": [ [ [ 78.36300450441064, 17.409936521061098 ], [ 78.362423939703135, 17.411692411518992 ], [ 78.360583741628673, 17.412013944456898 ], [ 78.359324140273642, 17.410579615056456 ], [ 78.359904701854475, 17.408823750563148 ], [ 78.361744867917906, 17.408502189505541 ], [ 78.36300450441064, 17.409936521061098 ] ] ] } },
{ "type": "Feature", "properties": { "h3": "8960a24a49bffff", "built_t1": 0.46840148698884759, "built_t0": 0.36802973977695169, "flood_2020": 0, "low_lying": 0, "construction": 0 }, "geometry": { "type": "Polygon", "coordinates": [ [ [ 78.36678358673359, 17.414239529975848 ], [ 78.366203012536843, 17.415995420755099 ], [ 78.364362718546687, 17.41631694690172 ], [ 78.363103030765416, 17.414882610383447 ], [ 78.363683601839824, 17.413126745561325 ], [ 78.365523863818709, 17.412805191300187 ], [ 78.36678358673359, 17.414239529975848 ] ] ] } },
{ "type": "Feature", "properties": { "h3": "8960a24a4a3ffff", "built_t1": 0.61278195488721809, "built_t0": 0.32706766917293234, "flood_2020": 0, "low_lying": 1, "construction": 0 }, "geometry": { "type": "Polygon", "coordinates": [ [ [ 78.355063339035311, 17.412978401750362 ], [ 78.354482770980511, 17.414734163043313 ], [ 78.352642700636423, 17.415055575776726 ], [ 78.35138323036108, 17.413621255348353 ], [ 78.351963795279843, 17.411865520024204 ], [ 78.353803833610868, 17.411544079159501 ], [ 78.355063339035311, 17.412978401750362 ] ] ] } },
{ "type": "Feature", "properties": { "h3": "8960a24a4a7ffff", "built_t1": 0.62313432835820892, "built_t0": 0.42537313432835822, "flood_2020": 0, "low_lying": 1, "construction": 0 }, "geometry": { "type": "Polygon", "coordinates": [ [ [ 78.351963795279843, 17.411865520024204 ], [ 78.35138323036108, 17.413621255348353 ], [ 78.349543223949269, 17.413942646768788 ], [ 78.348283814470449, 17.412508331000598 ], [ 78.348864376249523, 17.410752621649049 ], [ 78.350704350647959, 17.410431202092941 ], [ 78.351963795279843, 17.411865520024204 ] ] ] } },
{ "type": "Feature", "properties": { "h3": "8960a24a4abffff", "built_t1": 0.6, "built_t0": 0.27037037037037037, "flood_2020": 0, "low_lying": 1, "construction": 0 }, "geometry": { "type": "Polygon", "coordinates": [ [ [ 78.355742302048881, 17.416168488123297 ], [ 78.355161727625045, 17.41792422377128 ], [ 78.353321625267299, 17.418245608374257 ], [ 78.352062129347914, 17.41681128545957 ], [ 78.352642700636423, 17.415055575776726 ], [ 78.354482770980511, 17.414734163043313 ], [ 78.355742302048881, 17.416168488123297 ] ] ] } },
{ "type": "Feature", "properties": { "h3": "8960a24a4afffff", "built_t1": 0.4925373134328358, "built_t0": 0.1455223880597015, "flood_2020": 0, "low_lying": 1, "construction": 0 }, "geometry": { "type": "Polygon", "coordinates": [ [ [ 78.352642700636423, 17.415055575776726 ], [ 78.352062129347914, 17.41681128545957 ], [ 78.350222090922145, 17.417132648745184 ], [ 78.34896265579971, 17.415698330482673 ], [ 78.349543223949269, 17.413942646768788 ], [ 78.35138323036108, 17.413621255348353 ], [ 78.352642700636423, 17.415055575776726 ] ] ] } },
{ "type": "Feature", "properties": { "h3": "8960a24a4b3ffff", "built_t1": 0.40520446096654272, "built_t0": 0.28252788104089221, "flood_2020": 0, "low_lying": 1, "construction": 0 }, "geometry": { "type": "Polygon", "coordinates": [ [ [ 78.357484006110724, 17.410901126675881 ], [ 78.356903441291806, 17.412656939572329 ], [ 78.355063339035311, 17.412978401750362 ], [ 78.353803833610868, 17.411544079159501 ], [ 78.354384395296606, 17.409788292231664 ], [ 78.356224465540862, 17.409466801925937 ], [ 78.357484006110724, 17.410901126675881 ] ] ] } },
{ "type": "Feature", "properties": { "h3": "8960a24a4b7ffff", "built_t1": 0.57933579335793361, "built_t0": 0.39852398523985239, "flood_2020": 0, "low_lying": 1, "construction": 0 }, "geometry": { "type": "Polygon", "coordinates": [ [ [ 78.354384395296606, 17.409788292231664 ], [ 78.353803833610868, 17.411544079159501 ], [ 78.351963795279843, 17.411865520024204 ], [ 78.350704350647959, 17.410431202092941 ], [ 78.351284909196906, 17.4086754411375 ], [ 78.353124915515409, 17.408353972140752 ], [ 78.354384395296606, 17.409788292231664 ] ] ] } },
{ "type": "Feature", "properties": { "h3": "8960a24a4bbffff", "built_t1": 0.30855018587360594, "built_t0": 0.23791821561338289, "flood_2020": 0, "low_lying": 1, "construction": 0 }, "geometry": { "type": "Polygon", "coordinates": [ [ [ 78.358163007505382, 17.414091266814232 ], [ 78.357582436318125, 17.415847054072128 ], [ 78.355742302048881, 17.416168488123297 ], [ 78.354482770980511, 17.414734163043313 ], [ 78.355063339035311, 17.412978401750362 ], [ 78.356903441291806, 17.412656939572329 ], [ 78.358163007505382, 17.414091266814232 ] ] ] } },
{ "type": "Feature", "properties": { "h3": "8960a24a4c3ffff", "built_t1": 0.620817843866171, "built_t0": 0.055762081784386616, "flood_2020": 0, "low_lying": 0, "construction": 0 }, "geometry": { "type": "Polygon", "coordinates": [ [ [ 78.368141954739244, 17.42061997062919 ], [ 78.367561367810282, 17.422375810099588 ], [ 78.365721009795848, 17.422697280019555 ], [ 78.364461270723709, 17.42126293858195 ], [ 78.365041854531825, 17.419507125061418 ], [ 78.366882180533821, 17.419185627028515 ], [ 78.368141954739244, 17.42061997062919 ] ] ] } },
{ "type": "Feature", "properties": { "h3": "8960a24a4c7ffff", "built_t1": 0.16296296296296298, "built_t0": 0.025925925925925925, "flood_2020": 0, "low_lying": 1, "construction": 0 }, "geometry": { "type": "Polygon", "coordinates": [ [ [ 78.365041854531825, 17.419507125061418 ], [ 78.364461270723709, 17.42126293858195 ], [ 78.362620976612774, 17.421584387165542 ], [ 78.361361298323558, 17.420150050345793 ], [ 78.361941879007205, 17.418394262778978 ], [ 78.363782141105403, 17.418072786078053 ], [ 78.365041854531825, 17.419507125061418 ] ] ] } },
{ "type": "Feature", "properties": { "h3": "8960a24a4cbffff", "built_t1": 0.044609665427509292, "built_t0": 0.011152416356877323, "flood_2020": 0, "low_lying": 0, "construction": 0 }, "geometry": { "type": "Polygon", "coordinates": [ [ [ 78.368821167661864, 17.423810156146477 ], [ 78.368240574366837, 17.425565969947385 ], [ 78.366400184339454, 17.425887411755259 ], [ 78.365140419620957, 17.424453067874225 ], [ 78.365721009795848, 17.422697280019555 ], [ 78.367561367810282, 17.422375810099588 ], [ 78.368821167661864, 17.423810156146477 ] ] ] } },
{ "type": "Feature", "properties": { "h3": "8960a24a4cfffff", "built_t1": 0.26119402985074625, "built_t0": 0.011194029850746268, "flood_2020": 0, "low_lying": 0, "construction": 0 }, "geometry": { "type": "Polygon", "coordinates": [ [ [ 78.365721009795848, 17.422697280019555 ], [ 78.365140419620957, 17.424453067874225 ], [ 78.363300093496733, 17.42477448834131 ], [ 78.362040389561614, 17.423340149070143 ], [ 78.362620976612774, 17.421584387165542 ], [ 78.364461270723709, 17.42126293858195 ], [ 78.365721009795848, 17.422697280019555 ] ] ] } },
{ "type": "Feature", "properties": { "h3": "8960a24a4d3ffff", "built_t1": 0.60966542750929364, "built_t0": 0.31226765799256506, "flood_2020": 0, "low_lying": 1, "construction": 0 }, "geometry": { "type": "Polygon", "coordinates": [ [ [ 78.370562928318776, 17.418542560180025 ], [ 78.369982344637933, 17.42029845125953 ], [ 78.368141954739244, 17.42061997062919 ], [ 78.366882180533821, 17.419185627028515 ], [ 78.367462761096704, 17.417429761898685 ], [ 78.369303118983851, 17.417108214419709 ], [ 78.370562928318776, 17.418542560180025 ] ] ] } },
{ "type": "Feature", "properties": { "h3": "8960a24a4d7ffff", "built_t1": 0.2808988764044944, "built_t0": 0.24344569288389514, "flood_2020": 0, "low_lying": 1, "construction": 0 }, "geometry": { "type": "Polygon", "coordinates": [ [ [ 78.367462761096704, 17.417429761898685 ], [ 78.366882180533821, 17.419185627028515 ], [ 78.365041854531825, 17.419507125061418 ], [ 78.363782141105403, 17.418072786078053 ], [ 78.364362718546687, 17.41631694690172 ], [ 78.366203012536843, 17.415995420755099 ], [ 78.367462761096704, 17.417429761898685 ] ] ] } },
{ "type": "Feature", "properties": { "h3": "8960a24a4dbffff", "built_t1": 0.34200743494423791, "built_t0": 0.0037174721189591076, "flood_2020": 0, "low_lying": 0, "construction": 0 }, "geometry": { "type": "Polygon", "coordinates": [ [ [ 78.371242179618875, 17.421732799468934 ], [ 78.370661589572663, 17.423488664885362 ], [ 78.368821167661864, 17.423810156146477 ], [ 78.367561367810282, 17.422375810099588 ], [ 78.368141954739244, 17.42061997062919 ], [ 78.369982344637933, 17.42029845125953 ], [ 78.371242179618875, 17.421732799468934 ] ] ] } },
{ "type": "Feature", "properties": { "h3": "8960a24a50bffff", "built_t1": 0.36802973977695169, "built_t0": 0.24907063197026022, "flood_2020": 0, "low_lying": 1, "construction": 0 }, "geometry": { "type": "Polygon", "coordinates": [ [ [ 78.338503856618999, 17.415870500007845 ], [ 78.33792328831467, 17.417626028531092 ], [ 78.336083505622753, 17.417947228990062 ], [ 78.334824323252661, 17.416512929080785 ], [ 78.335404888401456, 17.414757426538337 ], [ 78.337244639076786, 17.414436197924221 ], [ 78.338503856618999, 17.415870500007845 ] ] ] } },
{ "type": "Feature", "properties": { "h3": "8960a24a51bffff", "built_t1": 0.47583643122676578, "built_t0": 0.4200743494423792, "flood_2020": 0, "low_lying": 0, "construction": 0 }, "geometry": { "type": "Polygon", "coordinates": [ [ [ 78.340924236345231, 17.413793669948582 ], [ 78.34034367126155, 17.415549250095737 ], [ 78.338503856618999, 17.415870500007845 ], [ 78.337244639076786, 17.414436197924221 ], [ 78.337825201007803, 17.412680643757678 ], [ 78.339664983634592, 17.412359365694023 ], [ 78.340924236345231, 17.413793669948582 ] ] ] } },
{ "type": "Feature", "properties": { "h3": "8960a24a543ffff", "built_t1": 0.33333333333333331, "built_t0": 0.21111111111111111, "flood_2020": 0, "low_lying": 1, "construction": 0 }, "geometry": { "type": "Polygon", "coordinates": [ [ [ 78.342281682155971, 17.420173420616823 ], [ 78.341701104327086, 17.421928949460131 ], [ 78.339861225651447, 17.422250143071501 ], [ 78.338601956822359, 17.420815835989355 ], [ 78.339182531500015, 17.419060333119393 ], [ 78.341022378158826, 17.418739111358089 ], [ 78.342281682155971, 17.420173420616823 ] ] ] } },
{ "type": "Feature", "properties": { "h3": "8960a24a547ffff", "built_t1": 0.30111524163568776, "built_t0": 0.15241635687732341, "flood_2020": 0, "low_lying": 0, "construction": 0 }, "geometry": { "type": "Polygon", "coordinates": [ [ [ 78.339182531500015, 17.419060333119393 ], [ 78.338601956822359, 17.420815835989355 ], [ 78.336762142113301, 17.421137008293957 ], [ 78.335502934099935, 17.41970270588283 ], [ 78.336083505622753, 17.417947228990062 ], [ 78.33792328831467, 17.417626028531092 ], [ 78.339182531500015, 17.419060333119393 ] ] ] } },
{ "type": "Feature", "properties": { "h3": "8960a24a54bffff", "built_t1": 0.4200743494423792, "built_t0": 0.52416356877323422, "flood_2020": 0, "low_lying": 1, "construction": 0 }, "geometry": { "type": "Polygon", "coordinates": [ [ [ 78.342960433968372, 17.423363261204727 ], [ 78.342379849766985, 17.425118764381086 ], [ 78.340539939073892, 17.425439929843265 ], [ 78.339280644600507, 17.424005620278113 ], [ 78.339861225651447, 17.422250143071501 ], [ 78.341701104327086, 17.421928949460131 ], [ 78.342960433968372, 17.423363261204727 ] ] ] } },
{ "type": "Feature", "properties": { "h3": "8960a24a54fffff", "built_t1": 0.34074074074074073, "built_t0": 0.30740740740740741, "flood_2020": 0, "low_lying": 0, "construction": 0 }, "geometry": { "type": "Polygon", "coordinates": [ [ [ 78.339861225651447, 17.422250143071501 ], [ 78.339280644600507, 17.424005620278113 ], [ 78.337440797873754, 17.424326764429164 ], [ 78.336181564216488, 17.422892459527013 ], [ 78.336762142113301, 17.421137008293957 ], [ 78.338601956822359, 17.420815835989355 ], [ 78.339861225651447, 17.422250143071501 ] ] ] } },
{ "type": "Feature", "properties": { "h3": "8960a24a553ffff", "built_t1": 0.39405204460966542, "built_t0": 0.2899628252788104, "flood_2020": 0, "low_lying": 0, "construction": 0 }, "geometry": { "type": "Polygon", "coordinates": [ [ [ 78.344702167379182, 17.418096597074925 ], [ 78.344121592774584, 17.419852177548371 ], [ 78.342281682155971, 17.420173420616823 ], [ 78.341022378158826, 17.418739111358089 ], [ 78.341602949615137, 17.416983556857826 ], [ 78.343442828217761, 17.416662285642968 ], [ 78.344702167379182, 17.418096597074925 ] ] ] } },
{ "type": "Feature", "properties": { "h3": "8960a24a557ffff", "built_t1": 0.46268656716417911, "built_t0": 0.47014925373134331, "flood_2020": 0, "low_lying": 1, "construction": 0 }, "geometry": { "type": "Polygon", "coordinates": [ [ [ 78.341602949615137, 17.416983556857826 ], [ 78.341022378158826, 17.418739111358089 ], [ 78.339182531500015, 17.419060333119393 ], [ 78.33792328831467, 17.417626028531092 ], [ 78.338503856618999, 17.415870500007845 ], [ 78.34034367126155, 17.415549250095737 ], [ 78.341602949615137, 17.416983556857826 ] ] ] } },
{ "type": "Feature", "properties": { "h3": "8960a24a55bffff", "built_t1": 0.52985074626865669, "built_t0": 0.48507462686567165, "flood_2020": 0, "low_lying": 0, "construction": 0 }, "geometry": { "type": "Polygon", "coordinates": [ [ [ 78.345380957579991, 17.421286491468983 ], [ 78.34480037660353, 17.423042046281868 ], [ 78.342960433968372, 17.423363261204727 ], [ 78.341701104327086, 17.421928949460131 ], [ 78.342281682155971, 17.420173420616823 ], [ 78.344121592774584, 17.419852177548371 ], [ 78.345380957579991, 17.421286491468983 ] ] ] } },
{ "type": "Feature", "properties": { "h3": "8960a24a57bffff", "built_t1": 0.21348314606741572, "built_t0": 0.07116104868913857, "flood_2020": 0, "low_lying": 0, "construction": 0 }, "geometry": { "type": "Polygon", "coordinates": [ [ [ 78.336762142113301, 17.421137008293957 ], [ 78.336181564216488, 17.422892459527013 ], [ 78.334341781463095, 17.42321358237168 ], [ 78.333082608625446, 17.42177928214112 ], [ 78.333663183364564, 17.420023856885443 ], [ 78.335502934099935, 17.41970270588283 ], [ 78.336762142113301, 17.421137008293957 ] ] ] } },
{ "type": "Feature", "properties": { "h3": "8960a24a5c3ffff", "built_t1": 0.19776119402985073, "built_t0": 0.15671641791044777, "flood_2020": 0, "low_lying": 0, "construction": 0 }, "geometry": { "type": "Polygon", "coordinates": [ [ [ 78.346443871998019, 17.412829701112816 ], [ 78.345863306991006, 17.414585358853877 ], [ 78.344023396450496, 17.41490667951901 ], [ 78.342764082932447, 17.413472370586568 ], [ 78.343344644793262, 17.411716738822104 ], [ 78.345184523319219, 17.411395390013364 ], [ 78.346443871998019, 17.412829701112816 ] ] ] } },
{ "type": "Feature", "properties": { "h3": "8960a24a5c7ffff", "built_t1": 0.6278195488721805, "built_t0": 0.35338345864661652, "flood_2020": 0, "low_lying": 0, "construction": 0 }, "geometry": { "type": "Polygon", "coordinates": [ [ [ 78.343344644793262, 17.411716738822104 ], [ 78.342764082932447, 17.413472370586568 ], [ 78.340924236345231, 17.413793669948582 ], [ 78.339664983634592, 17.412359365694023 ], [ 78.340245542345627, 17.410603759909996 ], [ 78.342085356917977, 17.410282432399978 ], [ 78.343344644793262, 17.411716738822104 ] ] ] } },
{ "type": "Feature", "properties": { "h3": "8960a24a5cbffff", "built_t1": 0.40892193308550184, "built_t0": 0.35687732342007433, "flood_2020": 0, "low_lying": 0, "construction": 0 }, "geometry": { "type": "Polygon", "coordinates": [ [ [ 78.347122681312996, 17.416019672455651 ], [ 78.346542109934816, 17.417775304552602 ], [ 78.344702167379182, 17.418096597074925 ], [ 78.343442828217761, 17.416662285642968 ], [ 78.344023396450496, 17.41490667951901 ], [ 78.345863306991006, 17.414585358853877 ], [ 78.347122681312996, 17.416019672455651 ] ] ] } },
{ "type": "Feature", "properties": { "h3": "8960a24a5cfffff", "built_t1": 0.49629629629629629, "built_t0": 0.33333333333333331, "flood_2020": 0, "low_lying": 0, "construction": 0 }, "geometry": { "type": "Polygon", "coordinates": [ [ [ 78.344023396450496, 17.41490667951901 ], [ 78.343442828217761, 17.416662285642968 ], [ 78.341602949615137, 17.416983556857826 ], [ 78.34034367126155, 17.415549250095737 ], [ 78.340924236345231, 17.413793669948582 ], [ 78.342764082932447, 17.413472370586568 ], [ 78.344023396450496, 17.41490667951901 ] ] ] } },
{ "type": "Feature", "properties": { "h3": "8960a24a5d3ffff", "built_t1": 0.37174721189591076, "built_t0": 0.47583643122676578, "flood_2020": 0, "low_lying": 0, "construction": 0 }, "geometry": { "type": "Polygon", "coordinates": [ [ [ 78.348864376249523, 17.410752621649049 ], [ 78.348283814470449, 17.412508331000598 ], [ 78.346443871998019, 17.412829701112816 ], [ 78.345184523319219, 17.411395390013364 ], [ 78.345765081955008, 17.409639706638217 ], [ 78.34760499241375, 17.409318308385981 ], [ 78.348864376249523, 17.410752621649049 ] ] ] } },
{ "type": "Feature", "properties": { "h3": "8960a24a5d7ffff", "built_t1": 0.71747211895910779, "built_t0": 0.17843866171003717, "flood_2020": 0, "low_lying": 0, "construction": 0 }, "geometry": { "type": "Polygon", "coordinates": [ [ [ 78.345765081955008, 17.409639706638217 ], [ 78.345184523319219, 17.411395390013364 ], [ 78.343344644793262, 17.411716738822104 ], [ 78.342085356917977, 17.410282432399978 ], [ 78.342665912406872, 17.408526775005079 ], [ 78.344505758918814, 17.40820539805193 ], [ 78.345765081955008, 17.409639706638217 ] ] ] } },
{ "type": "Feature", "properties": { "h3": "8960a24a5dbffff", "built_t1": 0.71111111111111114, "built_t0": 0.21481481481481482, "flood_2020": 0, "low_lying": 1, "construction": 0 }, "geometry": { "type": "Polygon", "coordinates": [ [ [ 78.349543223949269, 17.413942646768788 ], [ 78.34896265579971, 17.415698330482673 ], [ 78.347122681312996, 17.416019672455651 ], [ 78.345863306991006, 17.414585358853877 ], [ 78.346443871998019, 17.412829701112816 ], [ 78.348283814470449, 17.412508331000598 ], [ 78.349543223949269, 17.413942646768788 ] ] ] } },
{ "type": "Feature", "properties": { "h3": "8960a24a603ffff", "built_t1": 0.73880597014925375, "built_t0": 0.69029850746268662, "flood_2020": 0, "low_lying": 1, "construction": 0 }, "geometry": { "type": "Polygon", "coordinates": [ [ [ 78.364274887551744, 17.442801483470699 ], [ 78.36369425905113, 17.444557039530142 ], [ 78.361853836641743, 17.444878220475534 ], [ 78.360594074751674, 17.443443873480984 ], [ 78.361174700126455, 17.441688343353864 ], [ 78.363015090518019, 17.441367134288818 ], [ 78.364274887551744, 17.442801483470699 ] ] ] } },
{ "type": "Feature", "properties": { "h3": "8960a24a607ffff", "built_t1": 0.52788104089219334, "built_t0": 0.4795539033457249, "flood_2020": 0, "low_lying": 1, "construction": 0 }, "geometry": { "type": "Polygon", "coordinates": [ [ [ 78.361174700126455, 17.441688343353864 ], [ 78.360594074751674, 17.443443873480984 ], [ 78.358753716264687, 17.443765033069159 ], [ 78.357494015171454, 17.442330690654106 ], [ 78.358074637416735, 17.440575186463128 ], [ 78.359914963885615, 17.440253998750904 ], [ 78.361174700126455, 17.441688343353864 ] ] ] } },
{ "type": "Feature", "properties": { "h3": "8960a24a613ffff", "built_t1": 0.71747211895910779, "built_t0": 0.7397769516728625, "flood_2020": 0, "low_lying": 1, "construction": 0 }, "geometry": { "type": "Polygon", "coordinates": [ [ [ 78.366695967114495, 17.440724645327659 ], [ 78.366115341858901, 17.442480253048089 ], [ 78.364274887551744, 17.442801483470699 ], [ 78.363015090518019, 17.441367134288818 ], [ 78.36359571265065, 17.439611552500519 ], [ 78.365436134940836, 17.439290293961832 ], [ 78.366695967114495, 17.440724645327659 ] ] ] } },
{ "type": "Feature", "properties": { "h3": "8960a24a617ffff", "built_t1": 0.51481481481481484, "built_t0": 0.42962962962962964, "flood_2020": 0, "low_lying": 1, "construction": 0 }, "geometry": { "type": "Polygon", "coordinates": [ [ [ 78.36359571265065, 17.439611552500519 ], [ 78.363015090518019, 17.441367134288818 ], [ 78.361174700126455, 17.441688343353864 ], [ 78.359914963885615, 17.440253998750904 ], [ 78.360495582891645, 17.438498442898556 ], [ 78.362335941265968, 17.438177205713068 ], [ 78.36359571265065, 17.439611552500519 ] ] ] } },
{ "type": "Feature", "properties": { "h3": "8960a24a623ffff", "built_t1": 0.25278810408921931, "built_t0": 0.20446096654275092, "flood_2020": 0, "low_lying": 0, "construction": 0 }, "geometry": { "type": "Polygon", "coordinates": [ [ [ 78.355653720613958, 17.442651828889822 ], [ 78.355073095131601, 17.444407281412822 ], [ 78.353232832491443, 17.444728370168836 ], [ 78.35197322735381, 17.443294034533722 ], [ 78.352553849700186, 17.441538607950875 ], [ 78.354394080321057, 17.441217491062854 ], [ 78.355653720613958, 17.442651828889822 ] ] ] } },
{ "type": "Feature", "properties": { "h3": "8960a24a627ffff", "built_t1": 0.15555555555555556, "built_t0": 0.055555555555555552, "flood_2020": 0, "low_lying": 0, "construction": 0 }, "geometry": { "type": "Polygon", "coordinates": [ [ [ 78.352553849700186, 17.441538607950875 ], [ 78.35197322735381, 17.443294034533722 ], [ 78.350133028657098, 17.443615101942402 ], [ 78.348873484327214, 17.442180770904521 ], [ 78.349454103533986, 17.440425370265658 ], [ 78.351294270211127, 17.440104274720554 ], [ 78.352553849700186, 17.441538607950875 ] ] ] } },
{ "type": "Feature", "properties": { "h3": "8960a24a633ffff", "built_t1": 0.10820895522388059, "built_t0": 0.16044776119402984, "flood_2020": 0, "low_lying": 1, "construction": 0 }, "geometry": { "type": "Polygon", "coordinates": [ [ [ 78.358074637416735, 17.440575186463128 ], [ 78.357494015171454, 17.442330690654106 ], [ 78.355653720613958, 17.442651828889822 ], [ 78.354394080321057, 17.441217491062854 ], [ 78.354974699433242, 17.439462012811831 ], [ 78.356814961972319, 17.4391408464477 ], [ 78.358074637416735, 17.440575186463128 ] ] ] } },
{ "type": "Feature", "properties": { "h3": "8960a24a637ffff", "built_t1": 0.24444444444444444, "built_t0": 0.040740740740740744, "flood_2020": 0, "low_lying": 0, "construction": 0 }, "geometry": { "type": "Polygon", "coordinates": [ [ [ 78.354974699433242, 17.439462012811831 ], [ 78.354394080321057, 17.441217491062854 ], [ 78.352553849700186, 17.441538607950875 ], [ 78.351294270211127, 17.440104274720554 ], [ 78.351874886186593, 17.438348822413342 ], [ 78.353715084788732, 17.438027677392508 ], [ 78.354974699433242, 17.439462012811831 ] ] ] } },
{ "type": "Feature", "properties": { "h3": "8960a24a63bffff", "built_t1": 0.38661710037174724, "built_t0": 0.19330855018587362, "flood_2020": 0, "low_lying": 1, "construction": 0 }, "geometry": { "type": "Polygon", "coordinates": [ [ [ 78.358753716264687, 17.443765033069159 ], [ 78.358173087649959, 17.445520511528507 ], [ 78.356332761073489, 17.445841621636607 ], [ 78.355073095131601, 17.444407281412822 ], [ 78.355653720613958, 17.442651828889822 ], [ 78.357494015171454, 17.442330690654106 ], [ 78.358753716264687, 17.443765033069159 ] ] ] } },
{ "type": "Feature", "properties": { "h3": "8960a24a683ffff", "built_t1": 0.41851851851851851, "built_t0": 0.47407407407407409, "flood_2020": 0, "low_lying": 1, "construction": 0 }, "geometry": { "type": "Polygon", "coordinates": [ [ [ 78.368437823653764, 17.435457667418987 ], [ 78.367857208012012, 17.437213352509833 ], [ 78.366016753829129, 17.43753466051896 ], [ 78.364756947304372, 17.436100311550394 ], [ 78.365337559825278, 17.434344652395104 ], [ 78.367177981992683, 17.4340233162727 ], [ 78.368437823653764, 17.435457667418987 ] ] ] } },
{ "type": "Feature", "properties": { "h3": "8960a24a687ffff", "built_t1": 0.055970149253731345, "built_t0": 0.048507462686567165, "flood_2020": 0, "low_lying": 1, "construction": 0 }, "geometry": { "type": "Polygon", "coordinates": [ [ [ 78.365337559825278, 17.434344652395104 ], [ 78.364756947304372, 17.436100311550394 ], [ 78.36291655703053, 17.43642159820596 ], [ 78.361656811294324, 17.434987253823767 ], [ 78.362237420690818, 17.433231620607874 ], [ 78.36407777894884, 17.432910305834625 ], [ 78.365337559825278, 17.434344652395104 ] ] ] } },
{ "type": "Feature", "properties": { "h3": "8960a24a68bffff", "built_t1": 0.47565543071161048, "built_t0": 0.5280898876404494, "flood_2020": 0, "low_lying": 1, "construction": 0 }, "geometry": { "type": "Polygon", "coordinates": [ [ [ 78.36911707532181, 17.438647706056198 ], [ 78.368536453313453, 17.440403365431013 ], [ 78.366695967114495, 17.440724645327659 ], [ 78.365436134940836, 17.439290293961832 ], [ 78.366016753829129, 17.43753466051896 ], [ 78.367857208012012, 17.437213352509833 ], [ 78.36911707532181, 17.438647706056198 ] ] ] } },
{ "type": "Feature", "properties": { "h3": "8960a24a68fffff", "built_t1": 0.62825278810408924, "built_t0": 0.61710037174721188, "flood_2020": 0, "low_lying": 1, "construction": 0 }, "geometry": { "type": "Polygon", "coordinates": [ [ [ 78.366016753829129, 17.43753466051896 ], [ 78.365436134940836, 17.439290293961832 ], [ 78.36359571265065, 17.439611552500519 ], [ 78.362335941265968, 17.438177205713068 ], [ 78.36291655703053, 17.43642159820596 ], [ 78.364756947304372, 17.436100311550394 ], [ 78.366016753829129, 17.43753466051896 ] ] ] } },
{ "type": "Feature", "properties": { "h3": "8960a24a693ffff", "built_t1": 0.57777777777777772, "built_t0": 0.57407407407407407, "flood_2020": 0, "low_lying": 1, "construction": 0 }, "geometry": { "type": "Polygon", "coordinates": [ [ [ 78.370858922116426, 17.43338057321041 ], [ 78.370278309723403, 17.435136309942639 ], [ 78.368437823653764, 17.435457667418987 ], [ 78.367177981992683, 17.4340233162727 ], [ 78.367758591267759, 17.43226760547585 ], [ 78.369599045322758, 17.431946219889795 ], [ 78.370858922116426, 17.43338057321041 ] ] ] } },
{ "type": "Feature", "properties": { "h3": "8960a24a697ffff", "built_t1": 0.1449814126394052, "built_t0": 0.28624535315985128, "flood_2020": 0, "low_lying": 1, "construction": 0 }, "geometry": { "type": "Polygon", "coordinates": [ [ [ 78.367758591267759, 17.43226760547585 ], [ 78.367177981992683, 17.4340233162727 ], [ 78.365337559825278, 17.434344652395104 ], [ 78.36407777894884, 17.432910305834625 ], [ 78.364658385102373, 17.431154620976972 ], [ 78.366498775254797, 17.430833256740463 ], [ 78.367758591267759, 17.43226760547585 ] ] ] } },
{ "type": "Feature", "properties": { "h3": "8960a24a69bffff", "built_t1": 0.30483271375464682, "built_t0": 0.31970260223048325, "flood_2020": 0, "low_lying": 1, "construction": 0 }, "geometry": { "type": "Polygon", "coordinates": [ [ [ 78.371538212165603, 17.436570665666167 ], [ 78.370957593406644, 17.43832637668875 ], [ 78.36911707532181, 17.438647706056198 ], [ 78.367857208012012, 17.437213352509833 ], [ 78.368437823653764, 17.435457667418987 ], [ 78.370278309723403, 17.435136309942639 ], [ 78.371538212165603, 17.436570665666167 ] ] ] } },
{ "type": "Feature", "properties": { "h3": "8960a24a6a3ffff", "built_t1": 0.28518518518518521, "built_t0": 0.12222222222222222, "flood_2020": 0, "low_lying": 0, "construction": 0 }, "geometry": { "type": "Polygon", "coordinates": [ [ [ 78.359816484936701, 17.43530851913053 ], [ 78.35923587229945, 17.437064100698063 ], [ 78.357395577848123, 17.437385316535117 ], [ 78.356135928051927, 17.435950978930148 ], [ 78.356716537558228, 17.434195423306008 ], [ 78.35855679999257, 17.433874179343313 ], [ 78.359816484936701, 17.43530851913053 ] ] ] } },
{ "type": "Feature", "properties": { "h3": "8960a24a6a7ffff", "built_t1": 0.26492537313432835, "built_t0": 0.074626865671641784, "flood_2020": 0, "low_lying": 0, "construction": 0 }, "geometry": { "type": "Polygon", "coordinates": [ [ [ 78.356716537558228, 17.434195423306008 ], [ 78.356135928051927, 17.435950978930148 ], [ 78.354295697530716, 17.436272173423525 ], [ 78.353036108533999, 17.43483784042267 ], [ 78.353616714905755, 17.433082310745753 ], [ 78.355456913409654, 17.432761088122341 ], [ 78.356716537558228, 17.434195423306008 ] ] ] } },
{ "type": "Feature", "properties": { "h3": "8960a24a6abffff", "built_t1": 0.17100371747211895, "built_t0": 0.070631970260223054, "flood_2020": 0, "low_lying": 1, "construction": 0 }, "geometry": { "type": "Polygon", "coordinates": [ [ [ 78.360495582891645, 17.438498442898556 ], [ 78.359914963885615, 17.440253998750904 ], [ 78.358074637416735, 17.440575186463128 ], [ 78.356814961972319, 17.4391408464477 ], [ 78.357395577848123, 17.437385316535117 ], [ 78.35923587229945, 17.437064100698063 ], [ 78.360495582891645, 17.438498442898556 ] ] ] } },
{ "type": "Feature", "properties": { "h3": "8960a24a6afffff", "built_t1": 0.16044776119402984, "built_t0": 0.11194029850746269, "flood_2020": 0, "low_lying": 0, "construction": 0 }, "geometry": { "type": "Polygon", "coordinates": [ [ [ 78.357395577848123, 17.437385316535117 ], [ 78.356814961972319, 17.4391408464477 ], [ 78.354974699433242, 17.439462012811831 ], [ 78.353715084788732, 17.438027677392508 ], [ 78.354295697530716, 17.436272173423525 ], [ 78.356135928051927, 17.435950978930148 ], [ 78.357395577848123, 17.437385316535117 ] ] ] } },
{ "type": "Feature", "properties": { "h3": "8960a24a6b3ffff", "built_t1": 0.25555555555555554, "built_t0": 0.14814814814814814, "flood_2020": 0, "low_lying": 0, "construction": 0 }, "geometry": { "type": "Polygon", "coordinates": [ [ [ 78.362237420690818, 17.433231620607874 ], [ 78.361656811294324, 17.434987253823767 ], [ 78.359816484936701, 17.43530851913053 ], [ 78.35855679999257, 17.433874179343313 ], [ 78.359137406260984, 17.43211857207061 ], [ 78.360977700602504, 17.43179727864181 ], [ 78.362237420690818, 17.433231620607874 ] ] ] } },
{ "type": "Feature", "properties": { "h3": "8960a24a6b7ffff", "built_t1": 0.063197026022304828, "built_t0": 0.0074349442379182153, "flood_2020": 0, "low_lying": 0, "construction": 0 }, "geometry": { "type": "Polygon", "coordinates": [ [ [ 78.359137406260984, 17.43211857207061 ], [ 78.35855679999257, 17.433874179343313 ], [ 78.356716537558228, 17.434195423306008 ], [ 78.355456913409654, 17.432761088122341 ], [ 78.356037516546408, 17.43100550679668 ], [ 78.357877746964292, 17.43068423470752 ], [ 78.359137406260984, 17.43211857207061 ] ] ] } },
{ "type": "Feature", "properties": { "h3": "8960a24a6bbffff", "built_t1": 0.31343283582089554, "built_t0": 0.22014925373134328, "flood_2020": 0, "low_lying": 1, "construction": 0 }, "geometry": { "type": "Polygon", "coordinates": [ [ [ 78.36291655703053, 17.43642159820596 ], [ 78.362335941265968, 17.438177205713068 ], [ 78.360495582891645, 17.438498442898556 ], [ 78.35923587229945, 17.437064100698063 ], [ 78.359816484936701, 17.43530851913053 ], [ 78.361656811294324, 17.434987253823767 ], [ 78.36291655703053, 17.43642159820596 ] ] ] } },
{ "type": "Feature", "properties": { "h3": "8960a258a2bffff", "built_t1": 0.71641791044776115, "built_t0": 0.35820895522388058, "flood_2020": 0, "low_lying": 0, "construction": 0 }, "geometry": { "type": "Polygon", "coordinates": [ [ [ 78.368525290099555, 17.40897170317303 ], [ 78.367944725515031, 17.41072767118154 ], [ 78.366104431649276, 17.41104927488156 ], [ 78.364844734378778, 17.409614938684662 ], [ 78.365425295843139, 17.407858996636687 ], [ 78.367265557699028, 17.40753736482495 ], [ 78.368525290099555, 17.40897170317303 ] ] ] } },
{ "type": "Feature", "properties": { "h3": "8960a258a2fffff", "built_t1": 0.75836431226765799, "built_t0": 0.58736059479553904, "flood_2020": 0, "low_lying": 0, "construction": 0 }, "geometry": { "type": "Polygon", "coordinates": [ [ [ 78.365425295843139, 17.407858996636687 ], [ 78.364844734378778, 17.409614938684662 ], [ 78.36300450441064, 17.409936521061098 ], [ 78.361744867917906, 17.408502189505541 ], [ 78.362325426258479, 17.406746273421948 ], [ 78.36416562421644, 17.406424662929386 ], [ 78.365425295843139, 17.407858996636687 ] ] ] } },
{ "type": "Feature", "properties": { "h3": "8960a258a63ffff", "built_t1": 0.22761194029850745, "built_t0": 0.11194029850746269, "flood_2020": 0, "low_lying": 1, "construction": 0 }, "geometry": { "type": "Polygon", "coordinates": [ [ [ 78.372304660131448, 17.41327473243668 ], [ 78.37172408606564, 17.415030700765325 ], [ 78.369883696299297, 17.415352297687161 ], [ 78.368623912609763, 17.413917954386736 ], [ 78.369204483559756, 17.412162012011198 ], [ 78.371044841315978, 17.411840386982835 ], [ 78.372304660131448, 17.41327473243668 ] ] ] } },
{ "type": "Feature", "properties": { "h3": "8960a258a67ffff", "built_t1": 0.45555555555555555, "built_t0": 0.17407407407407408, "flood_2020": 0, "low_lying": 0, "construction": 0 }, "geometry": { "type": "Polygon", "coordinates": [ [ [ 78.369204483559756, 17.412162012011198 ], [ 78.368623912609763, 17.413917954386736 ], [ 78.36678358673359, 17.414239529975848 ], [ 78.365523863818709, 17.412805191300187 ], [ 78.366104431649276, 17.41104927488156 ], [ 78.367944725515031, 17.41072767118154 ], [ 78.369204483559756, 17.412162012011198 ] ] ] } },
{ "type": "Feature", "properties": { "h3": "8960a258a6bffff", "built_t1": 0.42910447761194032, "built_t0": 0.40298507462686567, "flood_2020": 0, "low_lying": 1, "construction": 0 }, "geometry": { "type": "Polygon", "coordinates": [ [ [ 78.372983930526317, 17.416465048681928 ], [ 78.37240335009578, 17.418220991363928 ], [ 78.370562928318776, 17.418542560180025 ], [ 78.369303118983851, 17.417108214419709 ], [ 78.369883696299297, 17.415352297687161 ], [ 78.37172408606564, 17.415030700765325 ], [ 78.372983930526317, 17.416465048681928 ] ] ] } },
{ "type": "Feature", "properties": { "h3": "8960a258a6fffff", "built_t1": 0.29368029739776952, "built_t0": 0.25650557620817843, "flood_2020": 0, "low_lying": 1, "construction": 0 }, "geometry": { "type": "Polygon", "coordinates": [ [ [ 78.369883696299297, 17.415352297687161 ], [ 78.369303118983851, 17.417108214419709 ], [ 78.367462761096704, 17.417429761898685 ], [ 78.366203012536843, 17.415995420755099 ], [ 78.36678358673359, 17.414239529975848 ], [ 78.368623912609763, 17.413917954386736 ], [ 78.369883696299297, 17.415352297687161 ] ] ] } },
{ "type": "Feature", "properties": { "h3": "8960a258b43ffff", "built_t1": 0.15241635687732341, "built_t0": 0.2899628252788104, "flood_2020": 0, "low_lying": 1, "construction": 0 }, "geometry": { "type": "Polygon", "coordinates": [ [ [ 78.359225681356165, 17.405633533542094 ], [ 78.358645126143003, 17.407389423657492 ], [ 78.356805023991413, 17.407710963401016 ], [ 78.355545509064669, 17.406276641153848 ], [ 78.35612606114681, 17.404520777010443 ], [ 78.357966131287611, 17.40419920914205 ], [ 78.359225681356165, 17.405633533542094 ] ] ] } },
{ "type": "Feature", "properties": { "h3": "8960a258b4bffff", "built_t1": 0.69776119402985071, "built_t0": 0.55597014925373134, "flood_2020": 0, "low_lying": 1, "construction": 0 }, "geometry": { "type": "Polygon", "coordinates": [ [ [ 78.359904701854475, 17.408823750563148 ], [ 78.359324140273642, 17.410579615056456 ], [ 78.357484006110724, 17.410901126675881 ], [ 78.356224465540862, 17.409466801925937 ], [ 78.356805023991413, 17.407710963401016 ], [ 78.358645126143003, 17.407389423657492 ], [ 78.359904701854475, 17.408823750563148 ] ] ] } },
{ "type": "Feature", "properties": { "h3": "8960a258b4fffff", "built_t1": 0.66791044776119401, "built_t0": 0.52985074626865669, "flood_2020": 0, "low_lying": 1, "construction": 0 }, "geometry": { "type": "Polygon", "coordinates": [ [ [ 78.356805023991413, 17.407710963401016 ], [ 78.356224465540862, 17.409466801925937 ], [ 78.354384395296606, 17.409788292231664 ], [ 78.353124915515409, 17.408353972140752 ], [ 78.353705470832054, 17.406598159588025 ], [ 78.355545509064669, 17.406276641153848 ], [ 78.356805023991413, 17.407710963401016 ] ] ] } },
{ "type": "Feature", "properties": { "h3": "8960a258b5bffff", "built_t1": 0.54104477611940294, "built_t0": 0.60074626865671643, "flood_2020": 0, "low_lying": 1, "construction": 0 }, "geometry": { "type": "Polygon", "coordinates": [ [ [ 78.362325426258479, 17.406746273421948 ], [ 78.361744867917906, 17.408502189505541 ], [ 78.359904701854475, 17.408823750563148 ], [ 78.358645126143003, 17.407389423657492 ], [ 78.359225681356165, 17.405633533542094 ], [ 78.361065815409106, 17.405311944363998 ], [ 78.362325426258479, 17.406746273421948 ] ] ] } },
{ "type": "Feature", "properties": { "h3": "8960a258b6bffff", "built_t1": 0.74721189591078063, "built_t0": 0.61710037174721188, "flood_2020": 0, "low_lying": 0, "construction": 0 }, "geometry": { "type": "Polygon", "coordinates": [ [ [ 78.351284909196906, 17.4086754411375 ], [ 78.350704350647959, 17.410431202092941 ], [ 78.348864376249523, 17.410752621649049 ], [ 78.34760499241375, 17.409318308385981 ], [ 78.348185547822297, 17.407562573406764 ], [ 78.350025490207912, 17.407241125714226 ], [ 78.351284909196906, 17.4086754411375 ] ] ] } },
{ "type": "Feature", "properties": { "h3": "8960a258b6fffff", "built_t1": 0.46096654275092935, "built_t0": 0.48327137546468402, "flood_2020": 0, "low_lying": 0, "construction": 0 }, "geometry": { "type": "Polygon", "coordinates": [ [ [ 78.348185547822297, 17.407562573406764 ], [ 78.34760499241375, 17.409318308385981 ], [ 78.345765081955008, 17.409639706638217 ], [ 78.344505758918814, 17.40820539805193 ], [ 78.345086311183337, 17.406449689052749 ], [ 78.346926189628959, 17.406128262659678 ], [ 78.348185547822297, 17.407562573406764 ] ] ] } },
{ "type": "Feature", "properties": { "h3": "8960a258b7bffff", "built_t1": 0.84386617100371752, "built_t0": 0.81040892193308545, "flood_2020": 0, "low_lying": 1, "construction": 0 }, "geometry": { "type": "Polygon", "coordinates": [ [ [ 78.353705470832054, 17.406598159588025 ], [ 78.353124915515409, 17.408353972140752 ], [ 78.351284909196906, 17.4086754411375 ], [ 78.350025490207912, 17.407241125714226 ], [ 78.350606042387042, 17.405485339137527 ], [ 78.352446016693577, 17.405163842007937 ], [ 78.353705470832054, 17.406598159588025 ] ] ] } },
{ "type": "Feature", "properties": { "h3": "8960a259923ffff", "built_t1": 0.10820895522388059, "built_t0": 0.070895522388059698, "flood_2020": 0, "low_lying": 1, "construction": 0 }, "geometry": { "type": "Polygon", "coordinates": [ [ [ 78.372600740063334, 17.428113208351338 ], [ 78.372020137286469, 17.429869022411498 ], [ 78.370179651349815, 17.430190457457964 ], [ 78.368919800204111, 17.428756106551081 ], [ 78.369500399865174, 17.427000318429716 ], [ 78.37134085378861, 17.4266788552763 ], [ 78.372600740063334, 17.428113208351338 ] ] ] } },
{ "type": "Feature", "properties": { "h3": "8960a259927ffff", "built_t1": 0.24907063197026022, "built_t0": 0.0074349442379182153, "flood_2020": 0, "low_lying": 0, "construction": 1 }, "geometry": { "type": "Polygon", "coordinates": [ [ [ 78.369500399865174, 17.427000318429716 ], [ 78.368919800204111, 17.428756106551081 ], [ 78.367079378163197, 17.429077520247645 ], [ 78.365819587797773, 17.427643173934008 ], [ 78.366400184339454, 17.425887411755259 ], [ 78.368240574366837, 17.425565969947385 ], [ 78.369500399865174, 17.427000318429716 ] ] ] } },
{ "type": "Feature", "properties": { "h3": "8960a25992bffff", "built_t1": 0.41635687732342008, "built_t0": 0.36059479553903345, "flood_2020": 0, "low_lying": 1, "construction": 0 }, "geometry": { "type": "Polygon", "coordinates": [ [ [ 78.373280049208944, 17.431303377903092 ], [ 78.372699440066839, 17.433059166270052 ], [ 78.370858922116426, 17.43338057321041 ], [ 78.369599045322758, 17.431946219889795 ], [ 78.370179651349815, 17.430190457457964 ], [ 78.372020137286469, 17.429869022411498 ], [ 78.373280049208944, 17.431303377903092 ] ] ] } },
{ "type": "Feature", "properties": { "h3": "8960a25992fffff", "built_t1": 0.16044776119402984, "built_t0": 0.14925373134328357, "flood_2020": 0, "low_lying": 1, "construction": 0 }, "geometry": { "type": "Polygon", "coordinates": [ [ [ 78.370179651349815, 17.430190457457964 ], [ 78.369599045322758, 17.431946219889795 ], [ 78.367758591267759, 17.43226760547585 ], [ 78.366498775254797, 17.430833256740463 ], [ 78.367079378163197, 17.429077520247645 ], [ 78.368919800204111, 17.428756106551081 ], [ 78.370179651349815, 17.430190457457964 ] ] ] } },
{ "type": "Feature", "properties": { "h3": "8960a259933ffff", "built_t1": 0.085501858736059477, "built_t0": 0.081784386617100371, "flood_2020": 0, "low_lying": 1, "construction": 0 }, "geometry": { "type": "Polygon", "coordinates": [ [ [ 78.375021857400114, 17.426035858165747 ], [ 78.374441257875688, 17.427791723847637 ], [ 78.372600740063334, 17.428113208351338 ], [ 78.37134085378861, 17.4266788552763 ], [ 78.371921450200162, 17.42492301553299 ], [ 78.373761936000193, 17.424601502925984 ], [ 78.375021857400114, 17.426035858165747 ] ] ] } },
{ "type": "Feature", "properties": { "h3": "8960a259937ffff", "built_t1": 0.052434456928838954, "built_t0": 0.018726591760299626, "flood_2020": 0, "low_lying": 0, "construction": 0 }, "geometry": { "type": "Polygon", "coordinates": [ [ [ 78.371921450200162, 17.42492301553299 ], [ 78.37134085378861, 17.4266788552763 ], [ 78.369500399865174, 17.427000318429716 ], [ 78.368240574366837, 17.425565969947385 ], [ 78.368821167661864, 17.423810156146477 ], [ 78.370661589572663, 17.423488664885362 ], [ 78.371921450200162, 17.42492301553299 ] ] ] } },
{ "type": "Feature", "properties": { "h3": "8960a25993bffff", "built_t1": 0.40221402214022139, "built_t0": 0.39483394833948338, "flood_2020": 0, "low_lying": 1, "construction": 0 }, "geometry": { "type": "Polygon", "coordinates": [ [ [ 78.375701204923217, 17.429226081506801 ], [ 78.375120599034219, 17.430981921501932 ], [ 78.373280049208944, 17.431303377903092 ], [ 78.372020137286469, 17.429869022411498 ], [ 78.372600740063334, 17.428113208351338 ], [ 78.374441257875688, 17.427791723847637 ], [ 78.375701204923217, 17.429226081506801 ] ] ] } },
{ "type": "Feature", "properties": { "h3": "8960a259967ffff", "built_t1": 0.46268656716417911, "built_t0": 0.34701492537313433, "flood_2020": 0, "low_lying": 1, "construction": 0 }, "geometry": { "type": "Polygon", "coordinates": [ [ [ 78.373959377637689, 17.434493524167365 ], [ 78.373378762130343, 17.436249286831124 ], [ 78.371538212165603, 17.436570665666167 ], [ 78.370278309723403, 17.435136309942639 ], [ 78.370858922116426, 17.43338057321041 ], [ 78.372699440066839, 17.433059166270052 ], [ 78.373959377637689, 17.434493524167365 ] ] ] } },
{ "type": "Feature", "properties": { "h3": "8960a2599a3ffff", "built_t1": 0.30855018587360594, "built_t0": 0.22304832713754646, "flood_2020": 0, "low_lying": 0, "construction": 0 }, "geometry": { "type": "Polygon", "coordinates": [ [ [ 78.376763636736612, 17.420768106542535 ], [ 78.37618304683069, 17.422524049509914 ], [ 78.374342529160032, 17.422845611567322 ], [ 78.373082633407108, 17.421411258757779 ], [ 78.373663220202303, 17.419655341732415 ], [ 78.375503705862045, 17.419333751574456 ], [ 78.376763636736612, 17.420768106542535 ] ] ] } },
{ "type": "Feature", "properties": { "h3": "8960a2599a7ffff", "built_t1": 0.53159851301115246, "built_t0": 0.21933085501858737, "flood_2020": 0, "low_lying": 0, "construction": 0 }, "geometry": { "type": "Polygon", "coordinates": [ [ [ 78.373663220202303, 17.419655341732415 ], [ 78.373082633407108, 17.421411258757779 ], [ 78.371242179618875, 17.421732799468934 ], [ 78.369982344637933, 17.42029845125953 ], [ 78.370562928318776, 17.418542560180025 ], [ 78.37240335009578, 17.418220991363928 ], [ 78.373663220202303, 17.419655341732415 ] ] ] } },
{ "type": "Feature", "properties": { "h3": "8960a2599abffff", "built_t1": 0.10408921933085502, "built_t0": 0.059479553903345722, "flood_2020": 0, "low_lying": 0, "construction": 0 }, "geometry": { "type": "Polygon", "coordinates": [ [ [ 78.377443003352084, 17.423958406911019 ], [ 78.376862407082257, 17.425714324208069 ], [ 78.375021857400114, 17.426035858165747 ], [ 78.373761936000193, 17.424601502925984 ], [ 78.374342529160032, 17.422845611567322 ], [ 78.37618304683069, 17.422524049509914 ], [ 78.377443003352084, 17.423958406911019 ] ] ] } },
{ "type": "Feature", "properties": { "h3": "8960a2599afffff", "built_t1": 0.089219330855018583, "built_t0": 0.11895910780669144, "flood_2020": 0, "low_lying": 1, "construction": 0 }, "geometry": { "type": "Polygon", "coordinates": [ [ [ 78.374342529160032, 17.422845611567322 ], [ 78.373761936000193, 17.424601502925984 ], [ 78.371921450200162, 17.42492301553299 ], [ 78.370661589572663, 17.423488664885362 ], [ 78.371242179618875, 17.421732799468934 ], [ 78.373082633407108, 17.421411258757779 ], [ 78.374342529160032, 17.422845611567322 ] ] ] } },
{ "type": "Feature", "properties": { "h3": "8960a2599b7ffff", "built_t1": 0.44074074074074077, "built_t0": 0.32592592592592595, "flood_2020": 0, "low_lying": 1, "construction": 0 }, "geometry": { "type": "Polygon", "coordinates": [ [ [ 78.376084289404034, 17.417577782946793 ], [ 78.375503705862045, 17.419333751574456 ], [ 78.373663220202303, 17.419655341732415 ], [ 78.37240335009578, 17.418220991363928 ], [ 78.372983930526317, 17.416465048681928 ], [ 78.37482438417571, 17.416143430422611 ], [ 78.376084289404034, 17.417577782946793 ] ] ] } }
]
}
