{
"type": "FeatureCollection",
"name": "HYD-004_cells",
"crs": { "type": "name", "properties": { "name": "urn:ogc:def:crs:OGC:1.3:CRS84" } },
"features": [
{ "type": "Feature", "properties": { "h3": "8960a24a203ffff", "built_t1": 0.19702602230483271, "built_t0": 0.0, "flood_2020": 0, "low_lying": 0, "construction": 1 }, "geometry": { "type": "Polygon", "coordinates": [ [ [ 78.34732813334459, 17.457336518052877 ], [ 78.346747482190068, 17.459091712300793 ], [ 78.344907283231478, 17.459412546815702 ], [ 78.343647767452183, 17.457978215227289 ], [ 78.344228415460663, 17.456223046913049 ], [ 78.346068582395375, 17.455902184253414 ], [ 78.34732813334459, 17.457336518052877 ] ] ] } },
{ "type": "Feature", "properties": { "h3": "8960a24a207ffff", "built_t1": 0.24907063197026022, "built_t0": 0.0, "flood_2020": 0, "low_lying": 0, "construction": 1 }, "geometry": { "type": "Polygon", "coordinates": [ [ [ 78.344228415460663, 17.456223046913049 ], [ 78.343647767452183, 17.457978215227289 ], [ 78.341807632463656, 17.458299028387618 ], [ 78.340548177508651, 17.456864701382671 ], [ 78.341128822367452, 17.455109559005926 ], [ 78.342968925331803, 17.454788717696498 ], [ 78.344228415460663, 17.456223046913049 ] ] ] } },
{ "type": "Feature", "properties": { "h3": "8960a24a20bffff", "built_t1": 0.097378277153558054, "built_t0": 0.1198501872659176, "flood_2020": 0, "low_lying": 0, "construction": 0 }, "geometry": { "type": "Polygon", "coordinates": [ [ [ 78.348007058790145, 17.460526048464111 ], [ 78.347426401262751, 17.462281216928329 ], [ 78.345586170279731, 17.462602023299347 ], [ 78.34432662884943, 17.461167689349892 ], [ 78.344907283231478, 17.459412546815702 ], [ 78.346747482190068, 17.459091712300793 ], [ 78.348007058790145, 17.460526048464111 ] ] ] } },
{ "type": "Feature", "properties": { "h3": "8960a24a20fffff", "built_t1": 0.055762081784386616, "built_t0": 0.10408921933085502, "flood_2020": 0, "low_lying": 0, "construction": 1 }, "geometry": { "type": "Polygon", "coordinates": [ [ [ 78.344907283231478, 17.459412546815702 ], [ 78.34432662884943, 17.461167689349892 ], [ 78.34248646183616, 17.461488474361932 ], [ 78.341226981230562, 17.460054144987929 ], [ 78.341807632463656, 17.458299028387618 ], [ 78.343647767452183, 17.457978215227289 ], [ 78.344907283231478, 17.459412546815702 ] ] ] } },
{ "type": "Feature", "properties": { "h3": "8960a24a213ffff", "built_t1": 0.12222222222222222, "built_t0": 0.033333333333333333, "flood_2020": 0, "low_lying": 0, "construction": 1 }, "geometry": { "type": "Polygon", "coordinates": [ [ [ 78.349749012167393, 17.455260388083239 ], [ 78.349168364242544, 17.457015634038285 ], [ 78.34732813334459, 17.457336518052877 ], [ 78.346068582395375, 17.455902184253414 ], [ 78.346649227177025, 17.454146964231846 ], [ 78.34848942605197, 17.453826052076121 ], [ 78.349749012167393, 17.455260388083239 ] ] ] } },
{ "type": "Feature", "properties": { "h3": "8960a24a217ffff", "built_t1": 0.055970149253731345, "built_t0": 0.0037313432835820895, "flood_2020": 0, "low_lying": 0, "construction": 1 }, "geometry": { "type": "Polygon", "coordinates": [ [ [ 78.346649227177025, 17.454146964231846 ], [ 78.346068582395375, 17.455902184253414 ], [ 78.344228415460663, 17.456223046913049 ], [ 78.342968925331803, 17.454788717696498 ], [ 78.343549566966672, 17.453033523612227 ], [ 78.345389701878062, 17.452712632807074 ], [ 78.346649227177025, 17.454146964231846 ] ] ] } },
{ "type": "Feature", "properties": { "h3": "8960a24a21bffff", "built_t1": 0.20522388059701493, "built_t0": 0.33955223880597013, "flood_2020": 0, "low_lying": 0, "construction": 0 }, "geometry": { "type": "Polygon", "coordinates": [ [ [ 78.35042797600866, 17.458449972412069 ], [ 78.349847321711664, 17.460205192589822 ], [ 78.348007058790145, 17.460526048464111 ], [ 78.346747482190068, 17.459091712300793 ], [ 78.34732813334459, 17.457336518052877 ], [ 78.349168364242544, 17.457015634038285 ], [ 78.35042797600866, 17.458449972412069 ] ] ] } },
{ "type": "Feature", "properties": { "h3": "8960a24a243ffff", "built_t1": 0.12313432835820895, "built_t0": 0.25, "flood_2020": 0, "low_lying": 0, "construction": 0 }, "geometry": { "type": "Polygon", "coordinates": [ [ [ 78.351785961529202, 17.46482907078455 ], [ 78.351205294488039, 17.466584239377681 ], [ 78.349364967517687, 17.466905038973707 ], [ 78.348105339614094, 17.465470698115208 ], [ 78.348686003514302, 17.463715555444665 ], [ 78.350526298459954, 17.463394727709908 ], [ 78.351785961529202, 17.46482907078455 ] ] ] } },
{ "type": "Feature", "properties": { "h3": "8960a24a247ffff", "built_t1": 0.35185185185185186, "built_t0": 0.42592592592592593, "flood_2020": 0, "low_lying": 1, "construction": 0 }, "geometry": { "type": "Polygon", "coordinates": [ [ [ 78.348686003514302, 17.463715555444665 ], [ 78.348105339614094, 17.465470698115208 ], [ 78.346265076606088, 17.465791476343114 ], [ 78.345005509524142, 17.46435714004345 ], [ 78.345586170279731, 17.462602023299347 ], [ 78.347426401262751, 17.462281216928329 ], [ 78.348686003514302, 17.463715555444665 ] ] ] } },
{ "type": "Feature", "properties": { "h3": "8960a24a24bffff", "built_t1": 0.23970037453183521, "built_t0": 0.15355805243445692, "flood_2020": 0, "low_lying": 1, "construction": 0 }, "geometry": { "type": "Polygon", "coordinates": [ [ [ 78.352464983209757, 17.468018584786478 ], [ 78.351884309796546, 17.469773727572264 ], [ 78.350043950800952, 17.470094499030399 ], [ 78.348784297244734, 17.468660155840524 ], [ 78.349364967517687, 17.466905038973707 ], [ 78.351205294488039, 17.466584239377681 ], [ 78.352464983209757, 17.468018584786478 ] ] ] } },
{ "type": "Feature", "properties": { "h3": "8960a24a24fffff", "built_t1": 0.14869888475836432, "built_t0": 0.20446096654275092, "flood_2020": 0, "low_lying": 1, "construction": 0 }, "geometry": { "type": "Polygon", "coordinates": [ [ [ 78.349364967517687, 17.466905038973707 ], [ 78.348784297244734, 17.468660155840524 ], [ 78.34694400221116, 17.468980905926145 ], [ 78.345684409477002, 17.467546567287126 ], [ 78.346265076606088, 17.465791476343114 ], [ 78.348105339614094, 17.465470698115208 ], [ 78.349364967517687, 17.466905038973707 ] ] ] } },
{ "type": "Feature", "properties": { "h3": "8960a24a253ffff", "built_t1": 0.27985074626865669, "built_t0": 0.27238805970149255, "flood_2020": 0, "low_lying": 0, "construction": 0 }, "geometry": { "type": "Polygon", "coordinates": [ [ [ 78.354206984237578, 17.462753001368434 ], [ 78.353626320430394, 17.464508221681303 ], [ 78.351785961529202, 17.46482907078455 ], [ 78.350526298459954, 17.463394727709908 ], [ 78.351106959129041, 17.461639533319453 ], [ 78.352947286006398, 17.461318656081065 ], [ 78.354206984237578, 17.462753001368434 ] ] ] } },
{ "type": "Feature", "properties": { "h3": "8960a24a257ffff", "built_t1": 0.40520446096654272, "built_t0": 0.43494423791821563, "flood_2020": 0, "low_lying": 0, "construction": 0 }, "geometry": { "type": "Polygon", "coordinates": [ [ [ 78.351106959129041, 17.461639533319453 ], [ 78.350526298459954, 17.463394727709908 ], [ 78.348686003514302, 17.463715555444665 ], [ 78.347426401262751, 17.462281216928329 ], [ 78.348007058790145, 17.460526048464111 ], [ 78.349847321711664, 17.460205192589822 ], [ 78.351106959129041, 17.461639533319453 ] ] ] } },
{ "type": "Feature", "properties": { "h3": "8960a24a25bffff", "built_t1": 0.28624535315985128, "built_t0": 0.14869888475836432, "flood_2020": 0, "low_lying": 0, "construction": 0 }, "geometry": { "type": "Polygon", "coordinates": [ [ [ 78.354886044313872, 17.465942569305646 ], [ 78.354305374135308, 17.467697763817561 ], [ 78.352464983209757, 17.468018584786478 ], [ 78.351205294488039, 17.466584239377681 ], [ 78.351785961529202, 17.46482907078455 ], [ 78.353626320430394, 17.464508221681303 ], [ 78.354886044313872, 17.465942569305646 ] ] ] } },
{ "type": "Feature", "properties": { "h3": "8960a24a263ffff", "built_t1": 0.48507462686567165, "built_t0": 0.56716417910447758, "flood_2020": 0, "low_lying": 1, "construction": 0 }, "geometry": { "type": "Polygon", "coordinates": [ [ [ 78.343165310485574, 17.464677896908004 ], [ 78.342584646503965, 17.46643296192541 ], [ 78.340744479415818, 17.466753669280326 ], [ 78.339485008336283, 17.465319339768733 ], [ 78.34006566916679, 17.463564300681757 ], [ 78.341905804228801, 17.463243565175787 ], [ 78.343165310485574, 17.464677896908004 ] ] ] } },
{ "type": "Feature", "properties": { "h3": "8960a24a26bffff", "built_t1": 0.47388059701492535, "built_t0": 0.51119402985074625, "flood_2020": 0, "low_lying": 1, "construction": 0 }, "geometry": { "type": "Polygon", "coordinates": [ [ [ 78.343844178412581, 17.467867296005007 ], [ 78.343263508056779, 17.469622335215924 ], [ 78.34142330894187, 17.469943014420576 ], [ 78.340163812210378, 17.468508682564419 ], [ 78.340744479415818, 17.466753669280326 ], [ 78.342584646503965, 17.46643296192541 ], [ 78.343844178412581, 17.467867296005007 ] ] ] } },
{ "type": "Feature", "properties": { "h3": "8960a24a273ffff", "built_t1": 0.34572490706319703, "built_t0": 0.32713754646840149, "flood_2020": 0, "low_lying": 1, "construction": 0 }, "geometry": { "type": "Polygon", "coordinates": [ [ [ 78.345586170279731, 17.462602023299347 ], [ 78.345005509524142, 17.46435714004345 ], [ 78.343165310485574, 17.464677896908004 ], [ 78.341905804228801, 17.463243565175787 ], [ 78.34248646183616, 17.461488474361932 ], [ 78.34432662884943, 17.461167689349892 ], [ 78.345586170279731, 17.462602023299347 ] ] ] } },
{ "type": "Feature", "properties": { "h3": "8960a24a277ffff", "built_t1": 0.34814814814814815, "built_t0": 0.13333333333333333, "flood_2020": 0, "low_lying": 1, "construction": 1 }, "geometry": { "type": "Polygon", "coordinates": [ [ [ 78.34248646183616, 17.461488474361932 ], [ 78.341905804228801, 17.463243565175787 ], [ 78.34006566916679, 17.463564300681757 ], [ 78.338806223738629, 17.462129973525585 ], [ 78.339386878194162, 17.460374908645772 ], [ 78.341226981230562, 17.460054144987929 ], [ 78.34248646183616, 17.461488474361932 ] ] ] } },
{ "type": "Feature", "properties": { "h3": "8960a24a27bffff", "built_t1": 0.40148698884758366, "built_t0": 0.4200743494423792, "flood_2020": 0, "low_lying": 1, "construction": 0 }, "geometry": { "type": "Polygon", "coordinates": [ [ [ 78.346265076606088, 17.465791476343114 ], [ 78.345684409477002, 17.467546567287126 ], [ 78.343844178412581, 17.467867296005007 ], [ 78.342584646503965, 17.46643296192541 ], [ 78.343165310485574, 17.464677896908004 ], [ 78.345005509524142, 17.46435714004345 ], [ 78.346265076606088, 17.465791476343114 ] ] ] } },
{ "type": "Feature", "properties": { "h3": "8960a24a283ffff", "built_t1": 0.19702602230483271, "built_t0": 0.16356877323420074, "flood_2020": 0, "low_lying": 0, "construction": 0 }, "geometry": { "type": "Polygon", "coordinates": [ [ [ 78.351490936735317, 17.449994495288728 ], [ 78.350910298413879, 17.451749818705188 ], [ 78.349070067604629, 17.452070780353825 ], [ 78.347810507139314, 17.450636446724211 ], [ 78.348391142319727, 17.448881149244663 ], [ 78.350231341107403, 17.448560159457685 ], [ 78.351490936735317, 17.449994495288728 ] ] ] } },
{ "type": "Feature", "properties": { "h3": "8960a24a287ffff", "built_t1": 0.27881040892193309, "built_t0": 0.15241635687732341, "flood_2020": 0, "low_lying": 0, "construction": 0 }, "geometry": { "type": "Polygon", "coordinates": [ [ [ 78.348391142319727, 17.448881149244663 ], [ 78.347810507139314, 17.450636446724211 ], [ 78.345970340286797, 17.450957387021891 ], [ 78.344710840637518, 17.449523057982638 ], [ 78.34529147267331, 17.447767786443833 ], [ 78.347131607503911, 17.447446818003417 ], [ 78.348391142319727, 17.448881149244663 ] ] ] } },
{ "type": "Feature", "properties": { "h3": "8960a24a28bffff", "built_t1": 0.22592592592592592, "built_t0": 0.1111111111111111, "flood_2020": 0, "low_lying": 0, "construction": 0 }, "geometry": { "type": "Polygon", "coordinates": [ [ [ 78.352169919691718, 17.45318415691656 ], [ 78.351589274998773, 17.454939454572163 ], [ 78.349749012167393, 17.455260388083239 ], [ 78.34848942605197, 17.453826052076121 ], [ 78.349070067604629, 17.452070780353825 ], [ 78.350910298413879, 17.451749818705188 ], [ 78.352169919691718, 17.45318415691656 ] ] ] } },
{ "type": "Feature", "properties": { "h3": "8960a24a28fffff", "built_t1": 0.21268656716417911, "built_t0": 0.20895522388059701, "flood_2020": 0, "low_lying": 0, "construction": 0 }, "geometry": { "type": "Polygon", "coordinates": [ [ [ 78.349070067604629, 17.452070780353825 ], [ 78.34848942605197, 17.453826052076121 ], [ 78.346649227177025, 17.454146964231846 ], [ 78.345389701878062, 17.452712632807074 ], [ 78.345970340286797, 17.450957387021891 ], [ 78.347810507139314, 17.450636446724211 ], [ 78.349070067604629, 17.452070780353825 ] ] ] } },
{ "type": "Feature", "properties": { "h3": "8960a24a293ffff", "built_t1": 0.13059701492537312, "built_t0": 0.082089552238805971, "flood_2020": 0, "low_lying": 0, "construction": 0 }, "geometry": { "type": "Polygon", "coordinates": [ [ [ 78.353911834560989, 17.447918109046402 ], [ 78.353331199472919, 17.449673484150409 ], [ 78.351490936735317, 17.449994495288728 ], [ 78.350231341107403, 17.448560159457685 ], [ 78.350811973057318, 17.446804810290384 ], [ 78.352652203774213, 17.446483771017292 ], [ 78.353911834560989, 17.447918109046402 ] ] ] } },
{ "type": "Feature", "properties": { "h3": "8960a24a297ffff", "built_t1": 0.32835820895522388, "built_t0": 0.22388059701492538, "flood_2020": 0, "low_lying": 0, "construction": 0 }, "geometry": { "type": "Polygon", "coordinates": [ [ [ 78.350811973057318, 17.446804810290384 ], [ 78.350231341107403, 17.448560159457685 ], [ 78.348391142319727, 17.448881149244663 ], [ 78.347131607503911, 17.447446818003417 ], [ 78.347712236312091, 17.445691494776671 ], [ 78.349552403078732, 17.44537047685051 ], [ 78.350811973057318, 17.446804810290384 ] ] ] } },
{ "type": "Feature", "properties": { "h3": "8960a24a29bffff", "built_t1": 0.10820895522388059, "built_t0": 0.10074626865671642, "flood_2020": 0, "low_lying": 0, "construction": 0 }, "geometry": { "type": "Polygon", "coordinates": [ [ [ 78.35459085590945, 17.451107824562655 ], [ 78.354010214450597, 17.452863173912213 ], [ 78.352169919691718, 17.45318415691656 ], [ 78.350910298413879, 17.451749818705188 ], [ 78.351490936735317, 17.449994495288728 ], [ 78.353331199472919, 17.449673484150409 ], [ 78.35459085590945, 17.451107824562655 ] ] ] } },
{ "type": "Feature", "properties": { "h3": "8960a24a2bbffff", "built_t1": 0.059701492537313432, "built_t0": 0.029850746268656716, "flood_2020": 0, "low_lying": 0, "construction": 1 }, "geometry": { "type": "Polygon", "coordinates": [ [ [ 78.345970340286797, 17.450957387021891 ], [ 78.345389701878062, 17.452712632807074 ], [ 78.343549566966672, 17.453033523612227 ], [ 78.342290102487652, 17.451599196778368 ], [ 78.342870737748882, 17.449843976934112 ], [ 78.344710840637518, 17.449523057982638 ], [ 78.345970340286797, 17.450957387021891 ] ] ] } },
{ "type": "Feature", "properties": { "h3": "8960a24a2c3ffff", "built_t1": 0.11070110701107011, "built_t0": 0.11070110701107011, "flood_2020": 0, "low_lying": 0, "construction": 0 }, "geometry": { "type": "Polygon", "coordinates": [ [ [ 78.355948956445673, 17.45748718542789 ], [ 78.35536830224531, 17.459242483238459 ], [ 78.353527943442216, 17.45956340997726 ], [ 78.352268270862737, 17.458129067037738 ], [ 78.352848921927134, 17.456373795153027 ], [ 78.354689248707842, 17.456052840281835 ], [ 78.355948956445673, 17.45748718542789 ] ] ] } },
{ "type": "Feature", "properties": { "h3": "8960a24a2c7ffff", "built_t1": 0.11895910780669144, "built_t0": 0.12267657992565056, "flood_2020": 0, "low_lying": 0, "construction": 1 }, "geometry": { "type": "Polygon", "coordinates": [ [ [ 78.352848921927134, 17.456373795153027 ], [ 78.352268270862737, 17.458129067037738 ], [ 78.35042797600866, 17.458449972412069 ], [ 78.349168364242544, 17.457015634038285 ], [ 78.349749012167393, 17.455260388083239 ], [ 78.351589274998773, 17.454939454572163 ], [ 78.352848921927134, 17.456373795153027 ] ] ] } },
{ "type": "Feature", "properties": { "h3": "8960a24a2cbffff", "built_t1": 0.57407407407407407, "built_t0": 0.65925925925925921, "flood_2020": 0, "low_lying": 0, "construction": 0 }, "geometry": { "type": "Polygon", "coordinates": [ [ [ 78.356628035634685, 17.460676830735153 ], [ 78.356047375063639, 17.462432102761166 ], [ 78.354206984237578, 17.462753001368434 ], [ 78.352947286006398, 17.461318656081065 ], [ 78.353527943442216, 17.45956340997726 ], [ 78.35536830224531, 17.459242483238459 ], [ 78.356628035634685, 17.460676830735153 ] ] ] } },
{ "type": "Feature", "properties": { "h3": "8960a24a2cfffff", "built_t1": 0.4925373134328358, "built_t0": 0.64179104477611937, "flood_2020": 0, "low_lying": 0, "construction": 0 }, "geometry": { "type": "Polygon", "coordinates": [ [ [ 78.353527943442216, 17.45956340997726 ], [ 78.352947286006398, 17.461318656081065 ], [ 78.351106959129041, 17.461639533319453 ], [ 78.349847321711664, 17.460205192589822 ], [ 78.35042797600866, 17.458449972412069 ], [ 78.352268270862737, 17.458129067037738 ], [ 78.353527943442216, 17.45956340997726 ] ] ] } },
{ "type": "Feature", "properties": { "h3": "8960a24a2d3ffff", "built_t1": 0.0037313432835820895, "built_t0": 0.0, "flood_2020": 0, "low_lying": 0, "construction": 0 }, "geometry": { "type": "Polygon", "coordinates": [ [ [ 78.358369998131266, 17.455410859681113 ], [ 78.357789347168577, 17.45716620919185 ], [ 78.355948956445673, 17.45748718542789 ], [ 78.354689248707842, 17.456052840281835 ], [ 78.355269896537465, 17.45429751669678 ], [ 78.357110255238851, 17.453976512331948 ], [ 78.358369998131266, 17.455410859681113 ] ] ] } },
{ "type": "Feature", "properties": { "h3": "8960a24a2d7ffff", "built_t1": 0.014981273408239701, "built_t0": 0.0, "flood_2020": 0, "low_lying": 0, "construction": 1 }, "geometry": { "type": "Polygon", "coordinates": [ [ [ 78.355269896537465, 17.45429751669678 ], [ 78.354689248707842, 17.456052840281835 ], [ 78.352848921927134, 17.456373795153027 ], [ 78.351589274998773, 17.454939454572163 ], [ 78.352169919691718, 17.45318415691656 ], [ 78.354010214450597, 17.452863173912213 ], [ 78.355269896537465, 17.45429751669678 ] ] ] } },
{ "type": "Feature", "properties": { "h3": "8960a24a2dbffff", "built_t1": 0.011194029850746268, "built_t0": 0.0037313432835820895, "flood_2020": 0, "low_lying": 0, "construction": 0 }, "geometry": { "type": "Polygon", "coordinates": [ [ [ 78.359049115712352, 17.458600558894485 ], [ 78.358468458379676, 17.460355882627073 ], [ 78.356628035634685, 17.460676830735153 ], [ 78.35536830224531, 17.459242483238459 ], [ 78.355948956445673, 17.45748718542789 ], [ 78.357789347168577, 17.45716620919185 ], [ 78.359049115712352, 17.458600558894485 ] ] ] } },
{ "type": "Feature", "properties": { "h3": "8960a24a60bffff", "built_t1": 0.71375464684014867, "built_t0": 0.620817843866171, "flood_2020": 0, "low_lying": 0, "construction": 0 }, "geometry": { "type": "Polygon", "coordinates": [ [ [ 78.36495408173451, 17.445991391095614 ], [ 78.364373446865912, 17.447746921416197 ], [ 78.362532992438176, 17.448068074242737 ], [ 78.361273204898268, 17.446633724867407 ], [ 78.361853836641743, 17.444878220475534 ], [ 78.36369425905113, 17.444557039530142 ], [ 78.36495408173451, 17.445991391095614 ] ] ] } },
{ "type": "Feature", "properties": { "h3": "8960a24a60fffff", "built_t1": 0.27611940298507465, "built_t0": 0.23880597014925373, "flood_2020": 0, "low_lying": 1, "construction": 0 }, "geometry": { "type": "Polygon", "coordinates": [ [ [ 78.361853836641743, 17.444878220475534 ], [ 78.361273204898268, 17.446633724867407 ], [ 78.359432814392605, 17.446954856332344 ], [ 78.358173087649959, 17.445520511528507 ], [ 78.358753716264687, 17.443765033069159 ], [ 78.360594074751674, 17.443443873480984 ], [ 78.361853836641743, 17.444878220475534 ] ] ] } },
{ "type": "Feature", "properties": { "h3": "8960a24a61bffff", "built_t1": 0.45724907063197023, "built_t0": 0.3903345724907063, "flood_2020": 0, "low_lying": 0, "construction": 0 }, "geometry": { "type": "Polygon", "coordinates": [ [ [ 78.36737519968203, 17.443914606800313 ], [ 78.366794568059177, 17.445670188788274 ], [ 78.36495408173451, 17.445991391095614 ], [ 78.36369425905113, 17.444557039530142 ], [ 78.364274887551744, 17.442801483470699 ], [ 78.366115341858901, 17.442480253048089 ], [ 78.36737519968203, 17.443914606800313 ] ] ] } },
{ "type": "Feature", "properties": { "h3": "8960a24a62bffff", "built_t1": 0.71375464684014867, "built_t0": 0.64312267657992561, "flood_2020": 0, "low_lying": 1, "construction": 0 }, "geometry": { "type": "Polygon", "coordinates": [ [ [ 78.356332761073489, 17.445841621636607 ], [ 78.355752129221003, 17.447597048421581 ], [ 78.353911834560989, 17.447918109046402 ], [ 78.352652203774213, 17.446483771017292 ], [ 78.353232832491443, 17.444728370168836 ], [ 78.355073095131601, 17.444407281412822 ], [ 78.356332761073489, 17.445841621636607 ] ] ] } },
{ "type": "Feature", "properties": { "h3": "8960a24a62fffff", "built_t1": 0.24253731343283583, "built_t0": 0.13432835820895522, "flood_2020": 0, "low_lying": 0, "construction": 0 }, "geometry": { "type": "Polygon", "coordinates": [ [ [ 78.353232832491443, 17.444728370168836 ], [ 78.352652203774213, 17.446483771017292 ], [ 78.350811973057318, 17.446804810290384 ], [ 78.349552403078732, 17.44537047685051 ], [ 78.350133028657098, 17.443615101942402 ], [ 78.35197322735381, 17.443294034533722 ], [ 78.353232832491443, 17.444728370168836 ] ] ] } },
{ "type": "Feature", "properties": { "h3": "8960a24a63bffff", "built_t1": 0.38661710037174724, "built_t0": 0.19330855018587362, "flood_2020": 0, "low_lying": 1, "construction": 0 }, "geometry": { "type": "Polygon", "coordinates": [ [ [ 78.358753716264687, 17.443765033069159 ], [ 78.358173087649959, 17.445520511528507 ], [ 78.356332761073489, 17.445841621636607 ], [ 78.355073095131601, 17.444407281412822 ], [ 78.355653720613958, 17.442651828889822 ], [ 78.357494015171454, 17.442330690654106 ], [ 78.358753716264687, 17.443765033069159 ] ] ] } },
{ "type": "Feature", "properties": { "h3": "8960a24a643ffff", "built_t1": 0.62313432835820892, "built_t0": 0.64552238805970152, "flood_2020": 0, "low_lying": 0, "construction": 0 }, "geometry": { "type": "Polygon", "coordinates": [ [ [ 78.36873372266615, 17.45029445965411 ], [ 78.368153078308822, 17.452049990147028 ], [ 78.3663125279475, 17.452371136226255 ], [ 78.365052653963019, 17.45093677992611 ], [ 78.365633295199558, 17.449181275354448 ], [ 78.367473813542247, 17.448860101161543 ], [ 78.36873372266615, 17.45029445965411 ] ] ] } },
{ "type": "Feature", "properties": { "h3": "8960a24a647ffff", "built_t1": 0.62825278810408924, "built_t0": 0.61338289962825276, "flood_2020": 0, "low_lying": 0, "construction": 0 }, "geometry": { "type": "Polygon", "coordinates": [ [ [ 78.365633295199558, 17.449181275354448 ], [ 78.365052653963019, 17.45093677992611 ], [ 78.363212167516338, 17.451257904634591 ], [ 78.361952354326021, 17.449823552889317 ], [ 78.362532992438176, 17.448068074242737 ], [ 78.364373446865912, 17.447746921416197 ], [ 78.365633295199558, 17.449181275354448 ] ] ] } },
{ "type": "Feature", "properties": { "h3": "8960a24a64bffff", "built_t1": 0.07434944237918216, "built_t0": 0.14869888475836432, "flood_2020": 0, "low_lying": 0, "construction": 0 }, "geometry": { "type": "Polygon", "coordinates": [ [ [ 78.369413013083971, 17.453484350993502 ], [ 78.36883236235947, 17.455239855723871 ], [ 78.366991779978989, 17.455560973690247 ], [ 78.365731880343063, 17.454126615038994 ], [ 78.3663125279475, 17.452371136226255 ], [ 78.368153078308822, 17.452049990147028 ], [ 78.369413013083971, 17.453484350993502 ] ] ] } },
{ "type": "Feature", "properties": { "h3": "8960a24a64fffff", "built_t1": 0.57249070631970256, "built_t0": 0.57249070631970256, "flood_2020": 0, "low_lying": 0, "construction": 0 }, "geometry": { "type": "Polygon", "coordinates": [ [ [ 78.3663125279475, 17.452371136226255 ], [ 78.365731880343063, 17.454126615038994 ], [ 78.363891361876895, 17.454447711630255 ], [ 78.36263152303556, 17.453013357525865 ], [ 78.363212167516338, 17.451257904634591 ], [ 78.365052653963019, 17.45093677992611 ], [ 78.3663125279475, 17.452371136226255 ] ] ] } },
{ "type": "Feature", "properties": { "h3": "8960a24a653ffff", "built_t1": 0.58736059479553904, "built_t0": 0.65427509293680297, "flood_2020": 0, "low_lying": 0, "construction": 0 }, "geometry": { "type": "Polygon", "coordinates": [ [ [ 78.371154946024674, 17.448217681923587 ], [ 78.370574304916659, 17.44997326409009 ], [ 78.36873372266615, 17.45029445965411 ], [ 78.367473813542247, 17.448860101161543 ], [ 78.368054451532373, 17.447104544916083 ], [ 78.36989500176513, 17.446783321241998 ], [ 78.371154946024674, 17.448217681923587 ] ] ] } },
{ "type": "Feature", "properties": { "h3": "8960a24a657ffff", "built_t1": 0.13754646840148699, "built_t0": 0.11895910780669144, "flood_2020": 0, "low_lying": 0, "construction": 0 }, "geometry": { "type": "Polygon", "coordinates": [ [ [ 78.368054451532373, 17.447104544916083 ], [ 78.367473813542247, 17.448860101161543 ], [ 78.365633295199558, 17.449181275354448 ], [ 78.364373446865912, 17.447746921416197 ], [ 78.36495408173451, 17.445991391095614 ], [ 78.366794568059177, 17.445670188788274 ], [ 78.368054451532373, 17.447104544916083 ] ] ] } },
{ "type": "Feature", "properties": { "h3": "8960a24a65bffff", "built_t1": 0.34444444444444444, "built_t0": 0.3925925925925926, "flood_2020": 0, "low_lying": 0, "construction": 0 }, "geometry": { "type": "Polygon", "coordinates": [ [ [ 78.371834274827293, 17.451407627128415 ], [ 78.3712536273528, 17.453163183538759 ], [ 78.369413013083971, 17.453484350993502 ], [ 78.368153078308822, 17.452049990147028 ], [ 78.36873372266615, 17.45029445965411 ], [ 78.370574304916659, 17.44997326409009 ], [ 78.371834274827293, 17.451407627128415 ] ] ] } },
{ "type": "Feature", "properties": { "h3": "8960a24a663ffff", "built_t1": 0.25, "built_t0": 0.16417910447761194, "flood_2020": 0, "low_lying": 0, "construction": 0 }, "geometry": { "type": "Polygon", "coordinates": [ [ [ 78.360111931801114, 17.450144656231828 ], [ 78.359531290447634, 17.451900083197842 ], [ 78.35769089983151, 17.452221137053105 ], [ 78.356431182589873, 17.450786792068236 ], [ 78.357011820812446, 17.449031391031323 ], [ 78.358852179408473, 17.448710309050028 ], [ 78.360111931801114, 17.450144656231828 ] ] ] } },
{ "type": "Feature", "properties": { "h3": "8960a24a667ffff", "built_t1": 0.24074074074074073, "built_t0": 0.24444444444444444, "flood_2020": 0, "low_lying": 0, "construction": 0 }, "geometry": { "type": "Polygon", "coordinates": [ [ [ 78.357011820812446, 17.449031391031323 ], [ 78.356431182589873, 17.450786792068236 ], [ 78.35459085590945, 17.451107824562655 ], [ 78.353331199472919, 17.449673484150409 ], [ 78.353911834560989, 17.447918109046402 ], [ 78.355752129221003, 17.447597048421581 ], [ 78.357011820812446, 17.449031391031323 ] ] ] } },
{ "type": "Feature", "properties": { "h3": "8960a24a66bffff", "built_t1": 0.0, "built_t0": 0.0037174721189591076, "flood_2020": 0, "low_lying": 0, "construction": 0 }, "geometry": { "type": "Polygon", "coordinates": [ [ [ 78.360791068490869, 17.45333443274675 ], [ 78.360210420768041, 17.45508983395106 ], [ 78.358369998131266, 17.455410859681113 ], [ 78.357110255238851, 17.453976512331948 ], [ 78.35769089983151, 17.452221137053105 ], [ 78.359531290447634, 17.451900083197842 ], [ 78.360791068490869, 17.45333443274675 ] ] ] } },
{ "type": "Feature", "properties": { "h3": "8960a24a66fffff", "built_t1": 0.0, "built_t0": 0.0, "flood_2020": 0, "low_lying": 0, "construction": 0 }, "geometry": { "type": "Polygon", "coordinates": [ [ [ 78.35769089983151, 17.452221137053105 ], [ 78.357110255238851, 17.453976512331948 ], [ 78.355269896537465, 17.45429751669678 ], [ 78.354010214450597, 17.452863173912213 ], [ 78.35459085590945, 17.451107824562655 ], [ 78.356431182589873, 17.450786792068236 ], [ 78.35769089983151, 17.452221137053105 ] ] ] } },
{ "type": "Feature", "properties": { "h3": "8960a24a673ffff", "built_t1": 0.27715355805243447, "built_t0": 0.28464419475655428, "flood_2020": 0, "low_lying": 0, "construction": 0 }, "geometry": { "type": "Polygon", "coordinates": [ [ [ 78.362532992438176, 17.448068074242737 ], [ 78.361952354326021, 17.449823552889317 ], [ 78.360111931801114, 17.450144656231828 ], [ 78.358852179408473, 17.448710309050028 ], [ 78.359432814392605, 17.446954856332344 ], [ 78.361273204898268, 17.446633724867407 ], [ 78.362532992438176, 17.448068074242737 ] ] ] } },
{ "type": "Feature", "properties": { "h3": "8960a24a677ffff", "built_t1": 0.33457249070631973, "built_t0": 0.15985130111524162, "flood_2020": 0, "low_lying": 1, "construction": 0 }, "geometry": { "type": "Polygon", "coordinates": [ [ [ 78.359432814392605, 17.446954856332344 ], [ 78.358852179408473, 17.448710309050028 ], [ 78.357011820812446, 17.449031391031323 ], [ 78.355752129221003, 17.447597048421581 ], [ 78.356332761073489, 17.445841621636607 ], [ 78.358173087649959, 17.445520511528507 ], [ 78.359432814392605, 17.446954856332344 ] ] ] } },
{ "type": "Feature", "properties": { "h3": "8960a24a67bffff", "built_t1": 0.096296296296296297, "built_t0": 0.1037037037037037, "flood_2020": 0, "low_lying": 0, "construction": 0 }, "geometry": { "type": "Polygon", "coordinates": [ [ [ 78.363212167516338, 17.451257904634591 ], [ 78.36263152303556, 17.453013357525865 ], [ 78.360791068490869, 17.45333443274675 ], [ 78.359531290447634, 17.451900083197842 ], [ 78.360111931801114, 17.450144656231828 ], [ 78.361952354326021, 17.449823552889317 ], [ 78.363212167516338, 17.451257904634591 ] ] ] } },
{ "type": "Feature", "properties": { "h3": "8960a24a6cfffff", "built_t1": 0.055555555555555552, "built_t0": 0.088888888888888892, "flood_2020": 0, "low_lying": 0, "construction": 0 }, "geometry": { "type": "Polygon", "coordinates": [ [ [ 78.37047563650664, 17.44502771332936 ], [ 78.36989500176513, 17.446783321241998 ], [ 78.368054451532373, 17.447104544916083 ], [ 78.366794568059177, 17.445670188788274 ], [ 78.36737519968203, 17.443914606800313 ], [ 78.369215717897632, 17.443593355015363 ], [ 78.37047563650664, 17.44502771332936 ] ] ] } },
{ "type": "Feature", "properties": { "h3": "8960a24b0a3ffff", "built_t1": null, "built_t0": null, "flood_2020": 0, "low_lying": 0, "construction": 0 }, "geometry": { "type": "Polygon", "coordinates": [ [ [ 78.369325611002836, 17.479965322828789 ], [ 78.36874490920593, 17.481720543471091 ], [ 78.366904166457928, 17.482041365633751 ], [ 78.365644157532557, 17.480606995268296 ], [ 78.366224856208746, 17.478851800518605 ], [ 78.368065566931932, 17.478530950241606 ], [ 78.369325611002836, 17.479965322828789 ] ] ] } },
{ "type": "Feature", "properties": { "h3": "8960a24b0a7ffff", "built_t1": null, "built_t0": null, "flood_2020": 0, "low_lying": 0, "construction": 0 }, "geometry": { "type": "Polygon", "coordinates": [ [ [ 78.366224856208746, 17.478851800518605 ], [ 78.365644157532557, 17.480606995268296 ], [ 78.363803478710352, 17.480927796025846 ], [ 78.362543530590372, 17.479493430152274 ], [ 78.363124226142247, 17.47773826129902 ], [ 78.364964872939325, 17.477417432422765 ], [ 78.366224856208746, 17.478851800518605 ] ] ] } },
{ "type": "Feature", "properties": { "h3": "8960a24b0b3ffff", "built_t1": null, "built_t0": null, "flood_2020": 0, "low_lying": 0, "construction": 0 }, "geometry": { "type": "Polygon", "coordinates": [ [ [ 78.371747084191384, 17.477889178766016 ], [ 78.371166385644983, 17.479644451146296 ], [ 78.369325611002836, 17.479965322828789 ], [ 78.368065566931932, 17.478530950241606 ], [ 78.368646262360514, 17.476775703753752 ], [ 78.370487004978699, 17.476454803960497 ], [ 78.371747084191384, 17.477889178766016 ] ] ] } },
{ "type": "Feature", "properties": { "h3": "8960a24b0b7ffff", "built_t1": null, "built_t0": null, "flood_2020": 0, "low_lying": 0, "construction": 0 }, "geometry": { "type": "Polygon", "coordinates": [ [ [ 78.368646262360514, 17.476775703753752 ], [ 78.368065566931932, 17.478530950241606 ], [ 78.366224856208746, 17.478851800518605 ], [ 78.364964872939325, 17.477417432422765 ], [ 78.365545565246478, 17.475662211831143 ], [ 78.367386243945376, 17.475341333439008 ], [ 78.368646262360514, 17.476775703753752 ] ] ] } },
{ "type": "Feature", "properties": { "h3": "8960a24b103ffff", "built_t1": null, "built_t0": null, "flood_2020": 0, "low_lying": 0, "construction": 0 }, "geometry": { "type": "Polygon", "coordinates": [ [ [ 78.352081016336271, 17.479662738157721 ], [ 78.351500320572555, 17.481417751709412 ], [ 78.349659897431167, 17.481738389233989 ], [ 78.348400202082189, 17.480304041345786 ], [ 78.348980894704951, 17.478549053702373 ], [ 78.35082128581854, 17.478228388038755 ], [ 78.352081016336271, 17.479662738157721 ] ] ] } },
{ "type": "Feature", "properties": { "h3": "8960a24b113ffff", "built_t1": null, "built_t0": null, "flood_2020": 0, "low_lying": 0, "construction": 0 }, "geometry": { "type": "Polygon", "coordinates": [ [ [ 78.354502163940097, 17.477586985804823 ], [ 78.353921471410956, 17.479342051108421 ], [ 78.352081016336271, 17.479662738157721 ], [ 78.35082128581854, 17.478228388038755 ], [ 78.351401975209612, 17.476473348643243 ], [ 78.353242398257379, 17.476152633458483 ], [ 78.354502163940097, 17.477586985804823 ] ] ] } },
{ "type": "Feature", "properties": { "h3": "8960a24b117ffff", "built_t1": null, "built_t0": null, "flood_2020": 0, "low_lying": 0, "construction": 0 }, "geometry": { "type": "Polygon", "coordinates": [ [ [ 78.351401975209612, 17.476473348643243 ], [ 78.35082128581854, 17.478228388038755 ], [ 78.348980894704951, 17.478549053702373 ], [ 78.347721225010574, 17.477114708110228 ], [ 78.348301911259966, 17.47535969462664 ], [ 78.350142270346311, 17.475039000823159 ], [ 78.351401975209612, 17.476473348643243 ] ] ] } },
{ "type": "Feature", "properties": { "h3": "8960a24b11bffff", "built_t1": null, "built_t0": null, "flood_2020": 0, "low_lying": 0, "construction": 0 }, "geometry": { "type": "Polygon", "coordinates": [ [ [ 78.355181262748545, 17.480776405745626 ], [ 78.354600563847498, 17.482531445201765 ], [ 78.352760076745312, 17.482852104116397 ], [ 78.351500320572555, 17.481417751709412 ], [ 78.352081016336271, 17.479662738157721 ], [ 78.353921471410956, 17.479342051108421 ], [ 78.355181262748545, 17.480776405745626 ] ] ] } },
{ "type": "Feature", "properties": { "h3": "8960a24b183ffff", "built_t1": null, "built_t0": null, "flood_2020": 0, "low_lying": 0, "construction": 0 }, "geometry": { "type": "Polygon", "coordinates": [ [ [ 78.356244222311702, 17.472321634734847 ], [ 78.355663539390591, 17.474076777614773 ], [ 78.353823084414586, 17.474397542317483 ], [ 78.352563344386112, 17.472963192272825 ], [ 78.353144024171357, 17.471208075304414 ], [ 78.354984447121822, 17.470887282469004 ], [ 78.356244222311702, 17.472321634734847 ] ] ] } },
{ "type": "Feature", "properties": { "h3": "8960a24b187ffff", "built_t1": 0.825, "built_t0": 0.225, "flood_2020": 0, "low_lying": 0, "construction": 0 }, "geometry": { "type": "Polygon", "coordinates": [ [ [ 78.353144024171357, 17.471208075304414 ], [ 78.352563344386112, 17.472963192272825 ], [ 78.350722953364723, 17.473283935593862 ], [ 78.349463274155241, 17.471849590083444 ], [ 78.350043950800952, 17.470094499030399 ], [ 78.351884309796546, 17.469773727572264 ], [ 78.353144024171357, 17.471208075304414 ] ] ] } },
{ "type": "Feature", "properties": { "h3": "8960a24b18bffff", "built_t1": null, "built_t0": null, "flood_2020": 0, "low_lying": 0, "construction": 0 }, "geometry": { "type": "Polygon", "coordinates": [ [ [ 78.356923340234545, 17.475511132185112 ], [ 78.356342650942153, 17.47726624923402 ], [ 78.354502163940097, 17.477586985804823 ], [ 78.353242398257379, 17.476152633458483 ], [ 78.353823084414586, 17.474397542317483 ], [ 78.355663539390591, 17.474076777614773 ], [ 78.356923340234545, 17.475511132185112 ] ] ] } },
{ "type": "Feature", "properties": { "h3": "8960a24b18fffff", "built_t1": null, "built_t0": null, "flood_2020": 0, "low_lying": 0, "construction": 0 }, "geometry": { "type": "Polygon", "coordinates": [ [ [ 78.353823084414586, 17.474397542317483 ], [ 78.353242398257379, 17.476152633458483 ], [ 78.351401975209612, 17.476473348643243 ], [ 78.350142270346311, 17.475039000823159 ], [ 78.350722953364723, 17.473283935593862 ], [ 78.352563344386112, 17.472963192272825 ], [ 78.353823084414586, 17.474397542317483 ] ] ] } },
{ "type": "Feature", "properties": { "h3": "8960a24b193ffff", "built_t1": 0.61029411764705888, "built_t0": 0.43382352941176472, "flood_2020": 0, "low_lying": 0, "construction": 0 }, "geometry": { "type": "Polygon", "coordinates": [ [ [ 78.358665388892888, 17.470245625905129 ], [ 78.358084709210004, 17.472000820517401 ], [ 78.356244222311702, 17.472321634734847 ], [ 78.354984447121822, 17.470887282469004 ], [ 78.355565123671695, 17.469132113768062 ], [ 78.357405578545354, 17.468811271421501 ], [ 78.358665388892888, 17.470245625905129 ] ] ] } },
{ "type": "Feature", "properties": { "h3": "8960a24b197ffff", "built_t1": 0.7076271186440678, "built_t0": 0.55932203389830504, "flood_2020": 0, "low_lying": 0, "construction": 0 }, "geometry": { "type": "Polygon", "coordinates": [ [ [ 78.355565123671695, 17.469132113768062 ], [ 78.354984447121822, 17.470887282469004 ], [ 78.353144024171357, 17.471208075304414 ], [ 78.351884309796546, 17.469773727572264 ], [ 78.352464983209757, 17.468018584786478 ], [ 78.354305374135308, 17.467697763817561 ], [ 78.355565123671695, 17.469132113768062 ] ] ] } },
{ "type": "Feature", "properties": { "h3": "8960a24b19bffff", "built_t1": null, "built_t0": null, "flood_2020": 0, "low_lying": 0, "construction": 0 }, "geometry": { "type": "Polygon", "coordinates": [ [ [ 78.359344545211457, 17.473435177308346 ], [ 78.358763859158032, 17.475190346095985 ], [ 78.356923340234545, 17.475511132185112 ], [ 78.355663539390591, 17.474076777614773 ], [ 78.356244222311702, 17.472321634734847 ], [ 78.358084709210004, 17.472000820517401 ], [ 78.359344545211457, 17.473435177308346 ] ] ] } },
{ "type": "Feature", "properties": { "h3": "8960a24b1a3ffff", "built_t1": null, "built_t0": null, "flood_2020": 0, "low_lying": 0, "construction": 0 }, "geometry": { "type": "Polygon", "coordinates": [ [ [ 78.347622947095573, 17.472170312027604 ], [ 78.347042267219578, 17.473925351341361 ], [ 78.345201972101748, 17.47424602376833 ], [ 78.343942388887783, 17.472811685026461 ], [ 78.344523065617736, 17.471056671632056 ], [ 78.346363328708591, 17.47073597106003 ], [ 78.347622947095573, 17.472170312027604 ] ] ] } },
{ "type": "Feature", "properties": { "h3": "8960a24b1a7ffff", "built_t1": 0.31707317073170732, "built_t0": 0.65853658536585369, "flood_2020": 0, "low_lying": 1, "construction": 0 }, "geometry": { "type": "Polygon", "coordinates": [ [ [ 78.344523065617736, 17.471056671632056 ], [ 78.343942388887783, 17.472811685026461 ], [ 78.3421021577456, 17.473132336081676 ], [ 78.340842635361554, 17.471698001891802 ], [ 78.34142330894187, 17.469943014420576 ], [ 78.343263508056779, 17.469622335215924 ], [ 78.344523065617736, 17.471056671632056 ] ] ] } },
{ "type": "Feature", "properties": { "h3": "8960a24b1abffff", "built_t1": null, "built_t0": null, "flood_2020": 0, "low_lying": 0, "construction": 0 }, "geometry": { "type": "Polygon", "coordinates": [ [ [ 78.348301911259966, 17.47535969462664 ], [ 78.347721225010574, 17.477114708110228 ], [ 78.345880897865186, 17.477435352392941 ], [ 78.344621288997644, 17.476001011336198 ], [ 78.345201972101748, 17.47424602376833 ], [ 78.347042267219578, 17.473925351341361 ], [ 78.348301911259966, 17.47535969462664 ] ] ] } },
{ "type": "Feature", "properties": { "h3": "8960a24b1b3ffff", "built_t1": 0.14893617021276595, "built_t0": 0.028368794326241134, "flood_2020": 0, "low_lying": 1, "construction": 1 }, "geometry": { "type": "Polygon", "coordinates": [ [ [ 78.350043950800952, 17.470094499030399 ], [ 78.349463274155241, 17.471849590083444 ], [ 78.347622947095573, 17.472170312027604 ], [ 78.346363328708591, 17.47073597106003 ], [ 78.34694400221116, 17.468980905926145 ], [ 78.348784297244734, 17.468660155840524 ], [ 78.350043950800952, 17.470094499030399 ] ] ] } },
{ "type": "Feature", "properties": { "h3": "8960a24b1b7ffff", "built_t1": 0.21848739495798319, "built_t0": 0.22268907563025211, "flood_2020": 0, "low_lying": 1, "construction": 0 }, "geometry": { "type": "Polygon", "coordinates": [ [ [ 78.34694400221116, 17.468980905926145 ], [ 78.346363328708591, 17.47073597106003 ], [ 78.344523065617736, 17.471056671632056 ], [ 78.343263508056779, 17.469622335215924 ], [ 78.343844178412581, 17.467867296005007 ], [ 78.345684409477002, 17.467546567287126 ], [ 78.34694400221116, 17.468980905926145 ] ] ] } },
{ "type": "Feature", "properties": { "h3": "8960a24b1bbffff", "built_t1": null, "built_t0": null, "flood_2020": 0, "low_lying": 0, "construction": 0 }, "geometry": { "type": "Polygon", "coordinates": [ [ [ 78.350722953364723, 17.473283935593862 ], [ 78.350142270346311, 17.475039000823159 ], [ 78.348301911259966, 17.47535969462664 ], [ 78.347042267219578, 17.473925351341361 ], [ 78.347622947095573, 17.472170312027604 ], [ 78.349463274155241, 17.471849590083444 ], [ 78.350722953364723, 17.473283935593862 ] ] ] } },
{ "type": "Feature", "properties": { "h3": "8960a24b1c3ffff", "built_t1": null, "built_t0": null, "flood_2020": 0, "low_lying": 0, "construction": 0 }, "geometry": { "type": "Polygon", "coordinates": [ [ [ 78.360702915701111, 17.479814209509485 ], [ 78.360122216906689, 17.481569326617798 ], [ 78.358281633931142, 17.481890056452716 ], [ 78.357021781777206, 17.480455697305889 ], [ 78.357602477440807, 17.478700606098023 ], [ 78.359443028390032, 17.478379848136409 ], [ 78.360702915701111, 17.479814209509485 ] ] ] } },
{ "type": "Feature", "properties": { "h3": "8960a24b1c7ffff", "built_t1": null, "built_t0": null, "flood_2020": 0, "low_lying": 0, "construction": 0 }, "geometry": { "type": "Polygon", "coordinates": [ [ [ 78.357602477440807, 17.478700606098023 ], [ 78.357021781777206, 17.480455697305889 ], [ 78.355181262748545, 17.480776405745626 ], [ 78.353921471410956, 17.479342051108421 ], [ 78.354502163940097, 17.477586985804823 ], [ 78.356342650942153, 17.47726624923402 ], [ 78.357602477440807, 17.478700606098023 ] ] ] } },
{ "type": "Feature", "properties": { "h3": "8960a24b1cfffff", "built_t1": null, "built_t0": null, "flood_2020": 0, "low_lying": 0, "construction": 0 }, "geometry": { "type": "Polygon", "coordinates": [ [ [ 78.358281633931142, 17.481890056452716 ], [ 78.357700931896375, 17.483645121809513 ], [ 78.355860380840539, 17.483965802118973 ], [ 78.354600563847498, 17.482531445201765 ], [ 78.355181262748545, 17.480776405745626 ], [ 78.357021781777206, 17.480455697305889 ], [ 78.358281633931142, 17.481890056452716 ] ] ] } },
{ "type": "Feature", "properties": { "h3": "8960a24b1d3ffff", "built_t1": null, "built_t0": null, "flood_2020": 0, "low_lying": 0, "construction": 0 }, "geometry": { "type": "Polygon", "coordinates": [ [ [ 78.363124226142247, 17.47773826129902 ], [ 78.362543530590372, 17.479493430152274 ], [ 78.360702915701111, 17.479814209509485 ], [ 78.359443028390032, 17.478379848136409 ], [ 78.360023720813984, 17.476624705183408 ], [ 78.361864303677805, 17.476303897703087 ], [ 78.363124226142247, 17.47773826129902 ] ] ] } },
{ "type": "Feature", "properties": { "h3": "8960a24b1d7ffff", "built_t1": null, "built_t0": null, "flood_2020": 0, "low_lying": 0, "construction": 0 }, "geometry": { "type": "Polygon", "coordinates": [ [ [ 78.360023720813984, 17.476624705183408 ], [ 78.359443028390032, 17.478379848136409 ], [ 78.357602477440807, 17.478700606098023 ], [ 78.356342650942153, 17.47726624923402 ], [ 78.356923340234545, 17.475511132185112 ], [ 78.358763859158032, 17.475190346095985 ], [ 78.360023720813984, 17.476624705183408 ] ] ] } },
{ "type": "Feature", "properties": { "h3": "8960a24b1dbffff", "built_t1": null, "built_t0": null, "flood_2020": 0, "low_lying": 0, "construction": 0 }, "geometry": { "type": "Polygon", "coordinates": [ [ [ 78.363803478710352, 17.480927796025846 ], [ 78.363222776788717, 17.482682939030777 ], [ 78.361382129873448, 17.483003690265686 ], [ 78.360122216906689, 17.481569326617798 ], [ 78.360702915701111, 17.479814209509485 ], [ 78.362543530590372, 17.479493430152274 ], [ 78.363803478710352, 17.480927796025846 ] ] ] } },
{ "type": "Feature", "properties": { "h3": "8960a24b427ffff", "built_t1": 0.38709677419354838, "built_t0": 0.29032258064516131, "flood_2020": 0, "low_lying": 1, "construction": 0 }, "geometry": { "type": "Polygon", "coordinates": [ [ [ 78.379011675537484, 17.471660139128925 ], [ 78.378430986755745, 17.473415566683549 ], [ 78.376590116466843, 17.473736586906298 ], [ 78.375329966981923, 17.472302207674279 ], [ 78.375910652654497, 17.470546806011484 ], [ 78.377751490922066, 17.470225757688716 ], [ 78.379011675537484, 17.471660139128925 ] ] ] } },
{ "type": "Feature", "properties": { "h3": "8960a24b503ffff", "built_t1": 0.69776119402985071, "built_t0": 0.76119402985074625, "flood_2020": 0, "low_lying": 1, "construction": 0 }, "geometry": { "type": "Polygon", "coordinates": [ [ [ 78.369029651780977, 17.465130345426505 ], [ 78.36844897870526, 17.4668857211032 ], [ 78.366608332155593, 17.467206705233583 ], [ 78.365348390704213, 17.465772341801134 ], [ 78.365929060659184, 17.464016992031372 ], [ 78.367769675187134, 17.463695979786976 ], [ 78.369029651780977, 17.465130345426505 ] ] ] } },
{ "type": "Feature", "properties": { "h3": "8960a24b507ffff", "built_t1": 0.44029850746268656, "built_t0": 0.38432835820895522, "flood_2020": 0, "low_lying": 0, "construction": 0 }, "geometry": { "type": "Polygon", "coordinates": [ [ [ 78.365929060659184, 17.464016992031372 ], [ 78.365348390704213, 17.465772341801134 ], [ 78.363507808074758, 17.466093304543602 ], [ 78.362247927423169, 17.46465894563455 ], [ 78.362828594253784, 17.462903621775553 ], [ 78.36466914486121, 17.462582630914696 ], [ 78.365929060659184, 17.464016992031372 ] ] ] } },
{ "type": "Feature", "properties": { "h3": "8960a24b50bffff", "built_t1": 0.29739776951672864, "built_t0": 0.4200743494423792, "flood_2020": 0, "low_lying": 0, "construction": 0 }, "geometry": { "type": "Polygon", "coordinates": [ [ [ 78.369708980952907, 17.468320089050476 ], [ 78.369128301509477, 17.470075438918101 ], [ 78.367287622937525, 17.4703963949353 ], [ 78.366027655832156, 17.468962029197918 ], [ 78.366608332155593, 17.467206705233583 ], [ 78.36844897870526, 17.4668857211032 ], [ 78.369708980952907, 17.468320089050476 ] ] ] } },
{ "type": "Feature", "properties": { "h3": "8960a24b50fffff", "built_t1": 0.38518518518518519, "built_t0": 0.52962962962962967, "flood_2020": 0, "low_lying": 0, "construction": 0 }, "geometry": { "type": "Polygon", "coordinates": [ [ [ 78.366608332155593, 17.467206705233583 ], [ 78.366027655832156, 17.468962029197918 ], [ 78.364187041180102, 17.469282963822792 ], [ 78.362927134874951, 17.467848602600782 ], [ 78.363507808074758, 17.466093304543602 ], [ 78.365348390704213, 17.465772341801134 ], [ 78.366608332155593, 17.467206705233583 ] ] ] } },
{ "type": "Feature", "properties": { "h3": "8960a24b513ffff", "built_t1": 0.39405204460966542, "built_t0": 0.36059479553903345, "flood_2020": 0, "low_lying": 1, "construction": 0 }, "geometry": { "type": "Polygon", "coordinates": [ [ [ 78.371451000048125, 17.463053884411295 ], [ 78.370870330222331, 17.46480931179379 ], [ 78.369029651780977, 17.465130345426505 ], [ 78.367769675187134, 17.463695979786976 ], [ 78.368350341895095, 17.461940578311221 ], [ 78.370190988315599, 17.461619516568096 ], [ 78.371451000048125, 17.463053884411295 ] ] ] } },
{ "type": "Feature", "properties": { "h3": "8960a24b517ffff", "built_t1": 0.63568773234200748, "built_t0": 0.68401486988847582, "flood_2020": 0, "low_lying": 1, "construction": 0 }, "geometry": { "type": "Polygon", "coordinates": [ [ [ 78.368350341895095, 17.461940578311221 ], [ 78.367769675187134, 17.463695979786976 ], [ 78.365929060659184, 17.464016992031372 ], [ 78.36466914486121, 17.462582630914696 ], [ 78.365249808447686, 17.460827255349503 ], [ 78.367090390954488, 17.460506214990286 ], [ 78.368350341895095, 17.461940578311221 ] ] ] } },
{ "type": "Feature", "properties": { "h3": "8960a24b51bffff", "built_t1": 0.17472118959107807, "built_t0": 0.27137546468401486, "flood_2020": 0, "low_lying": 1, "construction": 0 }, "geometry": { "type": "Polygon", "coordinates": [ [ [ 78.372130367608506, 17.46624368194756 ], [ 78.371549691415666, 17.467999083527374 ], [ 78.369708980952907, 17.468320089050476 ], [ 78.36844897870526, 17.4668857211032 ], [ 78.369029651780977, 17.465130345426505 ], [ 78.370870330222331, 17.46480931179379 ], [ 78.372130367608506, 17.46624368194756 ] ] ] } },
{ "type": "Feature", "properties": { "h3": "8960a24b523ffff", "built_t1": 0.048148148148148148, "built_t0": 0.018518518518518517, "flood_2020": 0, "low_lying": 0, "construction": 1 }, "geometry": { "type": "Polygon", "coordinates": [ [ [ 78.360407408721045, 17.464979886993838 ], [ 78.359826738648508, 17.466735159140079 ], [ 78.357986251857668, 17.467056050994625 ], [ 78.35672646716344, 17.465621698829139 ], [ 78.357307134105142, 17.463866452597674 ], [ 78.359147588872773, 17.46354553261677 ], [ 78.360407408721045, 17.464979886993838 ] ] ] } },
{ "type": "Feature", "properties": { "h3": "8960a24b527ffff", "built_t1": 0.10408921933085502, "built_t0": 0.07434944237918216, "flood_2020": 0, "low_lying": 0, "construction": 0 }, "geometry": { "type": "Polygon", "coordinates": [ [ [ 78.357307134105142, 17.463866452597674 ], [ 78.35672646716344, 17.465621698829139 ], [ 78.354886044313872, 17.465942569305646 ], [ 78.353626320430394, 17.464508221681303 ], [ 78.354206984237578, 17.462753001368434 ], [ 78.356047375063639, 17.462432102761166 ], [ 78.357307134105142, 17.463866452597674 ] ] ] } },
{ "type": "Feature", "properties": { "h3": "8960a24b52bffff", "built_t1": 0.44609665427509293, "built_t0": 0.29368029739776952, "flood_2020": 0, "low_lying": 0, "construction": 0 }, "geometry": { "type": "Polygon", "coordinates": [ [ [ 78.361086584149945, 17.46816951583811 ], [ 78.360505907707505, 17.469924762176134 ], [ 78.358665388892888, 17.470245625905129 ], [ 78.357405578545354, 17.468811271421501 ], [ 78.357986251857668, 17.467056050994625 ], [ 78.359826738648508, 17.466735159140079 ], [ 78.361086584149945, 17.46816951583811 ] ] ] } },
{ "type": "Feature", "properties": { "h3": "8960a24b52fffff", "built_t1": 0.26394052044609667, "built_t0": 0.24907063197026022, "flood_2020": 0, "low_lying": 0, "construction": 0 }, "geometry": { "type": "Polygon", "coordinates": [ [ [ 78.357986251857668, 17.467056050994625 ], [ 78.357405578545354, 17.468811271421501 ], [ 78.355565123671695, 17.469132113768062 ], [ 78.354305374135308, 17.467697763817561 ], [ 78.354886044313872, 17.465942569305646 ], [ 78.35672646716344, 17.465621698829139 ], [ 78.357986251857668, 17.467056050994625 ] ] ] } },
{ "type": "Feature", "properties": { "h3": "8960a24b533ffff", "built_t1": 0.11524163568773234, "built_t0": 0.066914498141263934, "flood_2020": 0, "low_lying": 0, "construction": 0 }, "geometry": { "type": "Polygon", "coordinates": [ [ [ 78.362828594253784, 17.462903621775553 ], [ 78.362247927423169, 17.46465894563455 ], [ 78.360407408721045, 17.464979886993838 ], [ 78.359147588872773, 17.46354553261677 ], [ 78.359728252575408, 17.461790234672346 ], [ 78.361568739255176, 17.461469265190264 ], [ 78.362828594253784, 17.462903621775553 ] ] ] } },
{ "type": "Feature", "properties": { "h3": "8960a24b537ffff", "built_t1": 0.078947368421052627, "built_t0": 0.060150375939849621, "flood_2020": 0, "low_lying": 0, "construction": 1 }, "geometry": { "type": "Polygon", "coordinates": [ [ [ 78.359728252575408, 17.461790234672346 ], [ 78.359147588872773, 17.46354553261677 ], [ 78.357307134105142, 17.463866452597674 ], [ 78.356047375063639, 17.462432102761166 ], [ 78.356628035634685, 17.460676830735153 ], [ 78.358468458379676, 17.460355882627073 ], [ 78.359728252575408, 17.461790234672346 ] ] ] } },
{ "type": "Feature", "properties": { "h3": "8960a24b53bffff", "built_t1": 0.17843866171003717, "built_t0": 0.14869888475836432, "flood_2020": 0, "low_lying": 0, "construction": 0 }, "geometry": { "type": "Polygon", "coordinates": [ [ [ 78.363507808074758, 17.466093304543602 ], [ 78.362927134874951, 17.467848602600782 ], [ 78.361086584149945, 17.46816951583811 ], [ 78.359826738648508, 17.466735159140079 ], [ 78.360407408721045, 17.464979886993838 ], [ 78.362247927423169, 17.46465894563455 ], [ 78.363507808074758, 17.466093304543602 ] ] ] } },
{ "type": "Feature", "properties": { "h3": "8960a24b543ffff", "built_t1": null, "built_t0": null, "flood_2020": 0, "low_lying": 0, "construction": 0 }, "geometry": { "type": "Polygon", "coordinates": [ [ [ 78.373489160591532, 17.472623206490404 ], [ 78.372908471664744, 17.474378556434807 ], [ 78.371067697157471, 17.474699505741089 ], [ 78.36980764360041, 17.47326513321083 ], [ 78.370388329411526, 17.471509809162274 ], [ 78.372229071896257, 17.471188831747998 ], [ 78.373489160591532, 17.472623206490404 ] ] ] } },
{ "type": "Feature", "properties": { "h3": "8960a24b547ffff", "built_t1": 0.030303030303030304, "built_t0": 0.090909090909090912, "flood_2020": 0, "low_lying": 0, "construction": 0 }, "geometry": { "type": "Polygon", "coordinates": [ [ [ 78.370388329411526, 17.471509809162274 ], [ 78.36980764360041, 17.47326513321083 ], [ 78.367966933005604, 17.47358606111564 ], [ 78.366706940245663, 17.472151693084154 ], [ 78.367287622937525, 17.4703963949353 ], [ 78.369128301509477, 17.470075438918101 ], [ 78.370388329411526, 17.471509809162274 ] ] ] } },
{ "type": "Feature", "properties": { "h3": "8960a24b54bffff", "built_t1": null, "built_t0": null, "flood_2020": 0, "low_lying": 0, "construction": 0 }, "geometry": { "type": "Polygon", "coordinates": [ [ [ 78.374168586015415, 17.475812933455263 ], [ 78.373587890721723, 17.477568257566926 ], [ 78.371747084191384, 17.477889178766016 ], [ 78.370487004978699, 17.476454803960497 ], [ 78.371067697157471, 17.474699505741089 ], [ 78.372908471664744, 17.474378556434807 ], [ 78.374168586015415, 17.475812933455263 ] ] ] } },
{ "type": "Feature", "properties": { "h3": "8960a24b54fffff", "built_t1": null, "built_t0": null, "flood_2020": 0, "low_lying": 0, "construction": 0 }, "geometry": { "type": "Polygon", "coordinates": [ [ [ 78.371067697157471, 17.474699505741089 ], [ 78.370487004978699, 17.476454803960497 ], [ 78.368646262360514, 17.476775703753752 ], [ 78.367386243945376, 17.475341333439008 ], [ 78.367966933005604, 17.47358606111564 ], [ 78.36980764360041, 17.47326513321083 ], [ 78.371067697157471, 17.474699505741089 ] ] ] } },
{ "type": "Feature", "properties": { "h3": "8960a24b553ffff", "built_t1": 0.1796875, "built_t0": 0.1328125, "flood_2020": 0, "low_lying": 1, "construction": 0 }, "geometry": { "type": "Polygon", "coordinates": [ [ [ 78.375910652654497, 17.470546806011484 ], [ 78.375329966981923, 17.472302207674279 ], [ 78.373489160591532, 17.472623206490404 ], [ 78.372229071896257, 17.471188831747998 ], [ 78.3728097544561, 17.469433455980873 ], [ 78.374650528824816, 17.469112429060331 ], [ 78.375910652654497, 17.470546806011484 ] ] ] } },
{ "type": "Feature", "properties": { "h3": "8960a24b557ffff", "built_t1": 0.081896551724137928, "built_t0": 0.1206896551724138, "flood_2020": 0, "low_lying": 1, "construction": 0 }, "geometry": { "type": "Polygon", "coordinates": [ [ [ 78.3728097544561, 17.469433455980873 ], [ 78.372229071896257, 17.471188831747998 ], [ 78.370388329411526, 17.471509809162274 ], [ 78.369128301509477, 17.470075438918101 ], [ 78.369708980952907, 17.468320089050476 ], [ 78.371549691415666, 17.467999083527374 ], [ 78.3728097544561, 17.469433455980873 ] ] ] } },
{ "type": "Feature", "properties": { "h3": "8960a24b55bffff", "built_t1": null, "built_t0": null, "flood_2020": 0, "low_lying": 0, "construction": 0 }, "geometry": { "type": "Polygon", "coordinates": [ [ [ 78.376590116466843, 17.473736586906298 ], [ 78.37600942442802, 17.475491962742741 ], [ 78.374168586015415, 17.475812933455263 ], [ 78.372908471664744, 17.474378556434807 ], [ 78.373489160591532, 17.472623206490404 ], [ 78.375329966981923, 17.472302207674279 ], [ 78.376590116466843, 17.473736586906298 ] ] ] } },
{ "type": "Feature", "properties": { "h3": "8960a24b563ffff", "built_t1": null, "built_t0": null, "flood_2020": 0, "low_lying": 0, "construction": 0 }, "geometry": { "type": "Polygon", "coordinates": [ [ [ 78.364866293570472, 17.472472599592265 ], [ 78.364285607632397, 17.474227846015758 ], [ 78.36244499285992, 17.47454870301156 ], [ 78.361185096050406, 17.473114341704107 ], [ 78.36176577886269, 17.471359121184314 ], [ 78.363606361611147, 17.471038236068146 ], [ 78.364866293570472, 17.472472599592265 ] ] ] } },
{ "type": "Feature", "properties": { "h3": "8960a24b567ffff", "built_t1": 0.39473684210526316, "built_t0": 0.5, "flood_2020": 0, "low_lying": 0, "construction": 0 }, "geometry": { "type": "Polygon", "coordinates": [ [ [ 78.36176577886269, 17.471359121184314 ], [ 78.361185096050406, 17.473114341704107 ], [ 78.359344545211457, 17.473435177308346 ], [ 78.358084709210004, 17.472000820517401 ], [ 78.358665388892888, 17.470245625905129 ], [ 78.360505907707505, 17.469924762176134 ], [ 78.36176577886269, 17.471359121184314 ] ] ] } },
{ "type": "Feature", "properties": { "h3": "8960a24b56bffff", "built_t1": null, "built_t0": null, "flood_2020": 0, "low_lying": 0, "construction": 0 }, "geometry": { "type": "Polygon", "coordinates": [ [ [ 78.365545565246478, 17.475662211831143 ], [ 78.364964872939325, 17.477417432422765 ], [ 78.363124226142247, 17.47773826129902 ], [ 78.361864303677805, 17.476303897703087 ], [ 78.36244499285992, 17.47454870301156 ], [ 78.364285607632397, 17.474227846015758 ], [ 78.365545565246478, 17.475662211831143 ] ] ] } },
{ "type": "Feature", "properties": { "h3": "8960a24b56fffff", "built_t1": null, "built_t0": null, "flood_2020": 0, "low_lying": 0, "construction": 0 }, "geometry": { "type": "Polygon", "coordinates": [ [ [ 78.36244499285992, 17.47454870301156 ], [ 78.361864303677805, 17.476303897703087 ], [ 78.360023720813984, 17.476624705183408 ], [ 78.358763859158032, 17.475190346095985 ], [ 78.359344545211457, 17.473435177308346 ], [ 78.361185096050406, 17.473114341704107 ], [ 78.36244499285992, 17.47454870301156 ] ] ] } },
{ "type": "Feature", "properties": { "h3": "8960a24b573ffff", "built_t1": 0.5714285714285714, "built_t0": 0.56390977443609025, "flood_2020": 0, "low_lying": 0, "construction": 0 }, "geometry": { "type": "Polygon", "coordinates": [ [ [ 78.367287622937525, 17.4703963949353 ], [ 78.366706940245663, 17.472151693084154 ], [ 78.364866293570472, 17.472472599592265 ], [ 78.363606361611147, 17.471038236068146 ], [ 78.364187041180102, 17.469282963822792 ], [ 78.366027655832156, 17.468962029197918 ], [ 78.367287622937525, 17.4703963949353 ] ] ] } },
{ "type": "Feature", "properties": { "h3": "8960a24b577ffff", "built_t1": 0.42173913043478262, "built_t0": 0.43478260869565216, "flood_2020": 0, "low_lying": 0, "construction": 0 }, "geometry": { "type": "Polygon", "coordinates": [ [ [ 78.364187041180102, 17.469282963822792 ], [ 78.363606361611147, 17.471038236068146 ], [ 78.36176577886269, 17.471359121184314 ], [ 78.360505907707505, 17.469924762176134 ], [ 78.361086584149945, 17.46816951583811 ], [ 78.362927134874951, 17.467848602600782 ], [ 78.364187041180102, 17.469282963822792 ] ] ] } },
{ "type": "Feature", "properties": { "h3": "8960a24b57bffff", "built_t1": null, "built_t0": null, "flood_2020": 0, "low_lying": 0, "construction": 0 }, "geometry": { "type": "Polygon", "coordinates": [ [ [ 78.367966933005604, 17.47358606111564 ], [ 78.367386243945376, 17.475341333439008 ], [ 78.365545565246478, 17.475662211831143 ], [ 78.364285607632397, 17.474227846015758 ], [ 78.364866293570472, 17.472472599592265 ], [ 78.366706940245663, 17.472151693084154 ], [ 78.367966933005604, 17.47358606111564 ] ] ] } },
{ "type": "Feature", "properties": { "h3": "8960a24b583ffff", "built_t1": 0.44402985074626866, "built_t0": 0.47388059701492535, "flood_2020": 0, "low_lying": 0, "construction": 0 }, "geometry": { "type": "Polygon", "coordinates": [ [ [ 78.373192990288786, 17.457787447286393 ], [ 78.372612330081452, 17.459542952154319 ], [ 78.370771651774334, 17.459864063392974 ], [ 78.369511665694844, 17.458429697871168 ], [ 78.370092322786505, 17.456674218913399 ], [ 78.371932969074194, 17.456353079567119 ], [ 78.373192990288786, 17.457787447286393 ] ] ] } },
{ "type": "Feature", "properties": { "h3": "8960a24b587ffff", "built_t1": 0.29850746268656714, "built_t0": 0.36567164179104478, "flood_2020": 0, "low_lying": 1, "construction": 0 }, "geometry": { "type": "Polygon", "coordinates": [ [ [ 78.370092322786505, 17.456674218913399 ], [ 78.369511665694844, 17.458429697871168 ], [ 78.367671051294622, 17.458750787725521 ], [ 78.366411126006668, 17.457316426734 ], [ 78.366991779978989, 17.455560973690247 ], [ 78.36883236235947, 17.455239855723871 ], [ 78.370092322786505, 17.456674218913399 ] ] ] } },
{ "type": "Feature", "properties": { "h3": "8960a24b58bffff", "built_t1": 0.27137546468401486, "built_t0": 0.16728624535315986, "flood_2020": 0, "low_lying": 1, "construction": 0 }, "geometry": { "type": "Polygon", "coordinates": [ [ [ 78.373872376948924, 17.46097732219781 ], [ 78.373291710375213, 17.462732801279504 ], [ 78.371451000048125, 17.463053884411295 ], [ 78.370190988315599, 17.461619516568096 ], [ 78.370771651774334, 17.459864063392974 ], [ 78.372612330081452, 17.459542952154319 ], [ 78.373872376948924, 17.46097732219781 ] ] ] } },
{ "type": "Feature", "properties": { "h3": "8960a24b58fffff", "built_t1": 0.26765799256505574, "built_t0": 0.2342007434944238, "flood_2020": 0, "low_lying": 1, "construction": 0 }, "geometry": { "type": "Polygon", "coordinates": [ [ [ 78.370771651774334, 17.459864063392974 ], [ 78.370190988315599, 17.461619516568096 ], [ 78.368350341895095, 17.461940578311221 ], [ 78.367090390954488, 17.460506214990286 ], [ 78.367671051294622, 17.458750787725521 ], [ 78.369511665694844, 17.458429697871168 ], [ 78.370771651774334, 17.459864063392974 ] ] ] } },
{ "type": "Feature", "properties": { "h3": "8960a24b593ffff", "built_t1": 0.26394052044609667, "built_t0": 0.2342007434944238, "flood_2020": 0, "low_lying": 0, "construction": 0 }, "geometry": { "type": "Polygon", "coordinates": [ [ [ 78.375614357430265, 17.455710730001304 ], [ 78.37503370047655, 17.457466286555448 ], [ 78.373192990288786, 17.457787447286393 ], [ 78.371932969074194, 17.456353079567119 ], [ 78.372513622915108, 17.454597548922951 ], [ 78.374354301084324, 17.454276360087942 ], [ 78.375614357430265, 17.455710730001304 ] ] ] } },
{ "type": "Feature", "properties": { "h3": "8960a24b597ffff", "built_t1": 0.29368029739776952, "built_t0": 0.30855018587360594, "flood_2020": 0, "low_lying": 0, "construction": 0 }, "geometry": { "type": "Polygon", "coordinates": [ [ [ 78.372513622915108, 17.454597548922951 ], [ 78.371932969074194, 17.456353079567119 ], [ 78.370092322786505, 17.456674218913399 ], [ 78.36883236235947, 17.455239855723871 ], [ 78.369413013083971, 17.453484350993502 ], [ 78.3712536273528, 17.453163183538759 ], [ 78.372513622915108, 17.454597548922951 ] ] ] } },
{ "type": "Feature", "properties": { "h3": "8960a24b59bffff", "built_t1": 0.30111524163568776, "built_t0": 0.18215613382899629, "flood_2020": 0, "low_lying": 1, "construction": 0 }, "geometry": { "type": "Polygon", "coordinates": [ [ [ 78.376293782475216, 17.45890065879583 ], [ 78.37571311915579, 17.460656189570138 ], [ 78.373872376948924, 17.46097732219781 ], [ 78.372612330081452, 17.459542952154319 ], [ 78.373192990288786, 17.457787447286393 ], [ 78.37503370047655, 17.457466286555448 ], [ 78.376293782475216, 17.45890065879583 ] ] ] } },
{ "type": "Feature", "properties": { "h3": "8960a24b5a3ffff", "built_t1": 0.53159851301115246, "built_t0": 0.5799256505576208, "flood_2020": 0, "low_lying": 1, "construction": 0 }, "geometry": { "type": "Polygon", "coordinates": [ [ [ 78.364570575520489, 17.457637495208846 ], [ 78.363989918302522, 17.459392896559411 ], [ 78.362149399716557, 17.459713915539471 ], [ 78.360889570370333, 17.458279561288812 ], [ 78.361470224462479, 17.456524185856257 ], [ 78.363310711027509, 17.456203138756187 ], [ 78.364570575520489, 17.457637495208846 ] ] ] } },
{ "type": "Feature", "properties": { "h3": "8960a24b5a7ffff", "built_t1": 0.081784386617100371, "built_t0": 0.0074349442379182153, "flood_2020": 0, "low_lying": 0, "construction": 0 }, "geometry": { "type": "Polygon", "coordinates": [ [ [ 78.361470224462479, 17.456524185856257 ], [ 78.360889570370333, 17.458279561288812 ], [ 78.359049115712352, 17.458600558894485 ], [ 78.357789347168577, 17.45716620919185 ], [ 78.358369998131266, 17.455410859681113 ], [ 78.360210420768041, 17.45508983395106 ], [ 78.361470224462479, 17.456524185856257 ] ] ] } },
{ "type": "Feature", "properties": { "h3": "8960a24b5abffff", "built_t1": 0.25278810408921931, "built_t0": 0.17843866171003717, "flood_2020": 0, "low_lying": 1, "construction": 0 }, "geometry": { "type": "Polygon", "coordinates": [ [ [ 78.365249808447686, 17.460827255349503 ], [ 78.36466914486121, 17.462582630914696 ], [ 78.362828594253784, 17.462903621775553 ], [ 78.361568739255176, 17.461469265190264 ], [ 78.362149399716557, 17.459713915539471 ], [ 78.363989918302522, 17.459392896559411 ], [ 78.365249808447686, 17.460827255349503 ] ] ] } },
{ "type": "Feature", "properties": { "h3": "8960a24b5afffff", "built_t1": 0.33457249070631973, "built_t0": 0.16728624535315986, "flood_2020": 0, "low_lying": 1, "construction": 0 }, "geometry": { "type": "Polygon", "coordinates": [ [ [ 78.362149399716557, 17.459713915539471 ], [ 78.361568739255176, 17.461469265190264 ], [ 78.359728252575408, 17.461790234672346 ], [ 78.358468458379676, 17.460355882627073 ], [ 78.359049115712352, 17.458600558894485 ], [ 78.360889570370333, 17.458279561288812 ], [ 78.362149399716557, 17.459713915539471 ] ] ] } },
{ "type": "Feature", "properties": { "h3": "8960a24b5b3ffff", "built_t1": 0.55970149253731338, "built_t0": 0.57462686567164178, "flood_2020": 0, "low_lying": 0, "construction": 0 }, "geometry": { "type": "Polygon", "coordinates": [ [ [ 78.366991779978989, 17.455560973690247 ], [ 78.366411126006668, 17.457316426734 ], [ 78.364570575520489, 17.457637495208846 ], [ 78.363310711027509, 17.456203138756187 ], [ 78.363891361876895, 17.454447711630255 ], [ 78.365731880343063, 17.454126615038994 ], [ 78.366991779978989, 17.455560973690247 ] ] ] } },
{ "type": "Feature", "properties": { "h3": "8960a24b5b7ffff", "built_t1": 0.078066914498141265, "built_t0": 0.066914498141263934, "flood_2020": 0, "low_lying": 0, "construction": 0 }, "geometry": { "type": "Polygon", "coordinates": [ [ [ 78.363891361876895, 17.454447711630255 ], [ 78.363310711027509, 17.456203138756187 ], [ 78.361470224462479, 17.456524185856257 ], [ 78.360210420768041, 17.45508983395106 ], [ 78.360791068490869, 17.45333443274675 ], [ 78.36263152303556, 17.453013357525865 ], [ 78.363891361876895, 17.454447711630255 ] ] ] } },
{ "type": "Feature", "properties": { "h3": "8960a24b5bbffff", "built_t1": 0.72118959107806691, "built_t0": 0.66914498141263945, "flood_2020": 0, "low_lying": 1, "construction": 0 }, "geometry": { "type": "Polygon", "coordinates": [ [ [ 78.367671051294622, 17.458750787725521 ], [ 78.367090390954488, 17.460506214990286 ], [ 78.365249808447686, 17.460827255349503 ], [ 78.363989918302522, 17.459392896559411 ], [ 78.364570575520489, 17.457637495208846 ], [ 78.366411126006668, 17.457316426734 ], [ 78.367671051294622, 17.458750787725521 ] ] ] } },
{ "type": "Feature", "properties": { "h3": "8960a24b5c3ffff", "built_t1": 0.34328358208955223, "built_t0": 0.15671641791044777, "flood_2020": 0, "low_lying": 1, "construction": 0 }, "geometry": { "type": "Polygon", "coordinates": [ [ [ 78.377652690428576, 17.465280445973118 ], [ 78.37707201437793, 17.467035925157635 ], [ 78.375231208131154, 17.467357001581234 ], [ 78.373971109956145, 17.465922626921799 ], [ 78.374551782896177, 17.464167173636376 ], [ 78.376392557122713, 17.463846069111153 ], [ 78.377652690428576, 17.465280445973118 ] ] ] } },
{ "type": "Feature", "properties": { "h3": "8960a24b5c7ffff", "built_t1": 0.41044776119402987, "built_t0": 0.27985074626865669, "flood_2020": 0, "low_lying": 1, "construction": 0 }, "geometry": { "type": "Polygon", "coordinates": [ [ [ 78.374551782896177, 17.464167173636376 ], [ 78.373971109956145, 17.465922626921799 ], [ 78.372130367608506, 17.46624368194756 ], [ 78.370870330222331, 17.46480931179379 ], [ 78.371451000048125, 17.463053884411295 ], [ 78.373291710375213, 17.462732801279504 ], [ 78.374551782896177, 17.464167173636376 ] ] ] } },
{ "type": "Feature", "properties": { "h3": "8960a24b5cbffff", "built_t1": 0.15925925925925927, "built_t0": 0.2, "flood_2020": 0, "low_lying": 1, "construction": 0 }, "geometry": { "type": "Polygon", "coordinates": [ [ [ 78.378332173338279, 17.468470304314117 ], [ 78.377751490922066, 17.470225757688716 ], [ 78.375910652654497, 17.470546806011484 ], [ 78.374650528824816, 17.469112429060331 ], [ 78.375231208131154, 17.467357001581234 ], [ 78.37707201437793, 17.467035925157635 ], [ 78.378332173338279, 17.468470304314117 ] ] ] } },
{ "type": "Feature", "properties": { "h3": "8960a24b5cfffff", "built_t1": 0.19776119402985073, "built_t0": 0.22761194029850745, "flood_2020": 0, "low_lying": 1, "construction": 0 }, "geometry": { "type": "Polygon", "coordinates": [ [ [ 78.375231208131154, 17.467357001581234 ], [ 78.374650528824816, 17.469112429060331 ], [ 78.3728097544561, 17.469433455980873 ], [ 78.371549691415666, 17.467999083527374 ], [ 78.372130367608506, 17.46624368194756 ], [ 78.373971109956145, 17.465922626921799 ], [ 78.375231208131154, 17.467357001581234 ] ] ] } },
{ "type": "Feature", "properties": { "h3": "8960a24b5d3ffff", "built_t1": 0.44981412639405205, "built_t0": 0.35315985130111527, "flood_2020": 0, "low_lying": 0, "construction": 0 }, "geometry": { "type": "Polygon", "coordinates": [ [ [ 78.380074201340193, 17.463203789166347 ], [ 78.379493528547428, 17.464959320049683 ], [ 78.377652690428576, 17.465280445973118 ], [ 78.376392557122713, 17.463846069111153 ], [ 78.376973226807763, 17.462090564126722 ], [ 78.378814032907272, 17.461769410105237 ], [ 78.380074201340193, 17.463203789166347 ] ] ] } },
{ "type": "Feature", "properties": { "h3": "8960a24b5d7ffff", "built_t1": 0.42750929368029739, "built_t0": 0.055762081784386616, "flood_2020": 0, "low_lying": 0, "construction": 0 }, "geometry": { "type": "Polygon", "coordinates": [ [ [ 78.376973226807763, 17.462090564126722 ], [ 78.376392557122713, 17.463846069111153 ], [ 78.374551782896177, 17.464167173636376 ], [ 78.373291710375213, 17.462732801279504 ], [ 78.373872376948924, 17.46097732219781 ], [ 78.37571311915579, 17.460656189570138 ], [ 78.376973226807763, 17.462090564126722 ] ] ] } },
{ "type": "Feature", "properties": { "h3": "8960a24b5dbffff", "built_t1": 0.52416356877323422, "built_t0": 0.47583643122676578, "flood_2020": 0, "low_lying": 0, "construction": 0 }, "geometry": { "type": "Polygon", "coordinates": [ [ [ 78.38075372263468, 17.466393701408155 ], [ 78.380173043477043, 17.468149206487954 ], [ 78.378332173338279, 17.468470304314117 ], [ 78.37707201437793, 17.467035925157635 ], [ 78.377652690428576, 17.465280445973118 ], [ 78.379493528547428, 17.464959320049683 ], [ 78.38075372263468, 17.466393701408155 ] ] ] } },
{ "type": "Feature", "properties": { "h3": "8960a259b23ffff", "built_t1": 0.17164179104477612, "built_t0": 0.1417910447761194, "flood_2020": 0, "low_lying": 0, "construction": 0 }, "geometry": { "type": "Polygon", "coordinates": [ [ [ 78.377356309050072, 17.450443905446321 ], [ 78.376775661717133, 17.452199539443466 ], [ 78.374934951672344, 17.45252077776399 ], [ 78.373674920978502, 17.45108641018852 ], [ 78.374255565200784, 17.449330802104775 ], [ 78.376096243228432, 17.449009535682954 ], [ 78.377356309050072, 17.450443905446321 ] ] ] } },
{ "type": "Feature", "properties": { "h3": "8960a259b27ffff", "built_t1": 0.5018587360594795, "built_t0": 0.54646840148698883, "flood_2020": 0, "low_lying": 0, "construction": 0 }, "geometry": { "type": "Polygon", "coordinates": [ [ [ 78.374255565200784, 17.449330802104775 ], [ 78.373674920978502, 17.45108641018852 ], [ 78.371834274827293, 17.451407627128415 ], [ 78.370574304916659, 17.44997326409009 ], [ 78.371154946024674, 17.448217681923587 ], [ 78.372995560158444, 17.447896436878018 ], [ 78.374255565200784, 17.449330802104775 ] ] ] } },
{ "type": "Feature", "properties": { "h3": "8960a259b2bffff", "built_t1": 0.17472118959107807, "built_t0": 0.10408921933085502, "flood_2020": 0, "low_lying": 0, "construction": 0 }, "geometry": { "type": "Polygon", "coordinates": [ [ [ 78.378035753190673, 17.45363391154752 ], [ 78.377455099492735, 17.455389519781257 ], [ 78.375614357430265, 17.455710730001304 ], [ 78.374354301084324, 17.454276360087942 ], [ 78.374934951672344, 17.45252077776399 ], [ 78.376775661717133, 17.452199539443466 ], [ 78.378035753190673, 17.45363391154752 ] ] ] } },
{ "type": "Feature", "properties": { "h3": "8960a259b2fffff", "built_t1": 0.29850746268656714, "built_t0": 0.31716417910447764, "flood_2020": 0, "low_lying": 0, "construction": 0 }, "geometry": { "type": "Polygon", "coordinates": [ [ [ 78.374934951672344, 17.45252077776399 ], [ 78.374354301084324, 17.454276360087942 ], [ 78.372513622915108, 17.454597548922951 ], [ 78.3712536273528, 17.453163183538759 ], [ 78.371834274827293, 17.451407627128415 ], [ 78.373674920978502, 17.45108641018852 ], [ 78.374934951672344, 17.45252077776399 ] ] ] } },
{ "type": "Feature", "properties": { "h3": "8960a259b63ffff", "built_t1": 0.80597014925373134, "built_t0": 0.029850746268656716, "flood_2020": 0, "low_lying": 1, "construction": 0 }, "geometry": { "type": "Polygon", "coordinates": [ [ [ 78.381816200470141, 17.457937041551233 ], [ 78.381235537301649, 17.459692649913865 ], [ 78.379394699335123, 17.460013853428411 ], [ 78.378134556555906, 17.458579476675457 ], [ 78.378715216618829, 17.456823894215166 ], [ 78.380556022567418, 17.456502662605335 ], [ 78.381816200470141, 17.457937041551233 ] ] ] } },
{ "type": "Feature", "properties": { "h3": "8960a259b67ffff", "built_t1": 0.27137546468401486, "built_t0": 0.15613382899628253, "flood_2020": 0, "low_lying": 1, "construction": 0 }, "geometry": { "type": "Polygon", "coordinates": [ [ [ 78.378715216618829, 17.456823894215166 ], [ 78.378134556555906, 17.458579476675457 ], [ 78.376293782475216, 17.45890065879583 ], [ 78.37503370047655, 17.457466286555448 ], [ 78.375614357430265, 17.455710730001304 ], [ 78.377455099492735, 17.455389519781257 ], [ 78.378715216618829, 17.456823894215166 ] ] ] } },
{ "type": "Feature", "properties": { "h3": "8960a259b6fffff", "built_t1": 0.25, "built_t0": 0.1044776119402985, "flood_2020": 0, "low_lying": 1, "construction": 0 }, "geometry": { "type": "Polygon", "coordinates": [ [ [ 78.379394699335123, 17.460013853428411 ], [ 78.378814032907272, 17.461769410105237 ], [ 78.376973226807763, 17.462090564126722 ], [ 78.37571311915579, 17.460656189570138 ], [ 78.376293782475216, 17.45890065879583 ], [ 78.378134556555906, 17.458579476675457 ], [ 78.379394699335123, 17.460013853428411 ] ] ] } }
]
}
